dbn,name,primary_address,city,zip,latitude,longitude
01M015,P.S. 015 Roberto Clemente,333 EAST 4 STREET,MANHATTAN,10009,40.721868,-73.9787712
01M019,P.S. 019 Asher Levy,185 1 AVENUE,MANHATTAN,10003,40.7298058,-73.9836952
01M020,P.S. 020 Anna Silver,166 ESSEX STREET,MANHATTAN,10002,40.7213978,-73.9864632
01M034,P.S. 034 Franklin D. Roosevelt,730 EAST 12 STREET,MANHATTAN,10009,40.726111,-73.9749631
01M063,The STAR Academy - P.S.63,121 EAST 3 STREET,MANHATTAN,10009,40.7244039,-73.9863598
01M064,P.S. 064 Robert Simon,600 EAST 6 STREET,MANHATTAN,10009,40.7240249,-73.9816527
01M110,P.S. 110 Florence Nightingale,285 DELANCY STREET,MANHATTAN,10002,40.715295,-73.979925
01M134,P.S. 134 Henrietta Szold,293 EAST BROADWAY,MANHATTAN,10002,40.7144062,-73.9832907
01M137,P.S. 137 John L. Bernstein,293 EAST BROADWAY,MANHATTAN,10002,40.7144062,-73.9832907
01M140,P.S. 140 Nathan Straus,123 RIDGE STREET,MANHATTAN,10002,40.7192842,-73.9830468
01M142,P.S. 142 Amalia Castro,100 ATTORNEY STREET,MANHATTAN,10002,40.7185769,-73.9843219
01M184,P.S. 184m Shuang Wen,327 CHERRY STREET,MANHATTAN,10002,40.7114373,-73.9854864
01M188,P.S. 188 The Island School,442 EAST HOUSTON STREET,MANHATTAN,10002,40.7196415,-73.9774227
01M292,Henry Street School for International Studies,220 HENRY STREET,MANHATTAN,10002,40.7135296,-73.9856844
01M301,"Technology, Arts, and Sciences Studio",185 1 AVENUE,MANHATTAN,10003,40.7298058,-73.9836952
01M315,The East Village Community School,610 EAST 12 STREET,MANHATTAN,10009,40.7276766,-73.9780869
01M332,University Neighborhood Middle School,220 HENRY STREET,MANHATTAN,10002,40.7135296,-73.9856844
01M345,"Collaborative Academy of Science, Technology, & Language-Arts Education",220 HENRY STREET,MANHATTAN,10002,40.7135296,-73.9856844
01M361,The Children's Workshop School,610 EAST 12 STREET,MANHATTAN,10009,40.7276766,-73.9780869
01M363,Neighborhood School,121 EAST 3 STREET,MANHATTAN,10009,40.7244039,-73.9863598
01M364,Earth School,600 EAST 6 STREET,MANHATTAN,10009,40.7240249,-73.9816527
01M378,School for Global Leaders,145 STANTON STREET,MANHATTAN,10002,40.7202883,-73.9860794
01M448,University Neighborhood High School,200 MONROE STREET,MANHATTAN,10002,40.7122569,-73.9840313
01M450,East Side Community School,420 EAST 12 STREET,MANHATTAN,10009,40.729311,-73.9825827
01M458,Forsyth Satellite Academy,198 FORSYTH STREET,MANHATTAN,10002,40.7224667,-73.9905416
01M509,Marta Valle High School,145 STANTON STREET,MANHATTAN,10002,40.7202883,-73.9860794
01M515,Lower East Side Preparatory High School,145 STANTON STREET,MANHATTAN,10002,40.7202883,-73.9860794
01M539,"New Explorations into Science, Technology and Math High School",111 COLUMBIA STREET,MANHATTAN,10002,40.7195002,-73.9792392
01M650,Cascades High School,198 FORSYTH STREET,MANHATTAN,10002,40.7224667,-73.9905416
01M696,Bard High School Early College,525 EAST HOUSTON STREET,MANHATTAN,10002,40.7180919,-73.9760746
01M839,Tompkins Square Middle School,600 EAST 6 STREET,MANHATTAN,10009,40.7240249,-73.9816527
02M001,P.S. 001 Alfred E. Smith,8 HENRY STREET,MANHATTAN,10038,40.712614,-73.9973096
02M002,P.S. 002 Meyer London,122 HENRY STREET,MANHATTAN,10002,40.7130758,-73.9915487
02M003,P.S. 003 Charrette School,490 HUDSON STREET,MANHATTAN,10014,40.7325818,-74.0061593
02M006,P.S. 006 Lillie D. Blake,45 EAST 81 STREET,MANHATTAN,10028,40.7776753,-73.9607117
02M011,P.S. 011 William T. Harris,320 WEST 21 STREET,MANHATTAN,10011,40.7445489,-74.000737
02M033,P.S. 033 Chelsea Prep,281 9 AVENUE,MANHATTAN,10001,40.7488713,-74.0001458
02M040,P.S. 040 Augustus Saint-Gaudens,319 EAST 19 STREET,MANHATTAN,10003,40.7350123,-73.9817101
02M041,P.S. 041 Greenwich Village,116 WEST 11 STREET,MANHATTAN,10011,40.7356187,-73.9994094
02M042,P.S. 042 Benjamin Altman,71 HESTER STREET,MANHATTAN,10002,40.7158845,-73.9909526
02M047,47 The American Sign Language and English Secondary School,223 EAST 23 STREET,MANHATTAN,10010,40.7382221,-73.9816861
02M051,P.S. 051 Elias Howe,525 WEST 44TH STREET,MANHATTAN,10036,40.7615451,-73.9959591
02M059,P.S. 059 Beekman Hill International,231-249 EAST 56 STREET,MANHATTAN,10019,40.7658058,-73.9827487
02M077,P.S. 77 Lower Lab School,1700 3 AVENUE,MANHATTAN,10128,40.7848951,-73.950212
02M089,P.S. 89,201 WARREN STREET,MANHATTAN,10282,40.7168673,-74.0136226
02M104,J.H.S. 104 Simon Baruch,330 EAST 21 STREET,MANHATTAN,10010,40.7362645,-73.9811089
02M111,P.S. 111 Adolph S. Ochs,440 WEST 53 STREET,MANHATTAN,10019,40.7660468,-73.9898392
02M114,East Side Middle School,331 EAST 91ST STREET,MANHATTAN,10128,40.7802746,-73.9474772
02M116,P.S. 116 Mary Lindley Murray,210 EAST 33 STREET,MANHATTAN,10016,40.7447741,-73.9779971
02M124,P.S. 124 Yung Wing,40 DIVISION STREET,MANHATTAN,10002,40.7144262,-73.9955257
02M126,P.S. 126 Jacob August Riis,80 CATHERINE STREET,MANHATTAN,10038,40.7105245,-73.9967905
02M130,P.S. 130 Hernando De Soto,143 BAXTER STREET,MANHATTAN,10013,40.7190268,-73.9982425
02M131,M.S. 131,100 HESTER STREET,MANHATTAN,10002,40.71651,-73.9936997
02M135,The Urban Assembly School for Emergency Management,439 WEST 49TH STREET,MANHATTAN,10019,40.7639993,-73.9908346
02M139,Stephen T. Mather Building Arts & Craftsmanship High School,411 PEARL STREET,MANHATTAN,10038,40.7110316,-74.0013216
02M150,P.S. 150,334 GREENWICH STREET,MANHATTAN,10013,40.7181539,-74.0105067
02M151,Yorkville Community School,421 EAST 88 STREET,MANHATTAN,10128,40.7778793,-73.9473081
02M158,P.S. 158 Bayard Taylor,1458 YORK AVENUE,MANHATTAN,10075,40.770203,-73.9507299
02M167,J.H.S. 167 Robert F. Wagner,220 EAST 76 STREET,MANHATTAN,10021,40.7718269,-73.9579403
02M183,P.S. 183 Robert L. Stevenson,419 EAST 66 STREET,MANHATTAN,10065,40.763806,-73.957725
02M198,P.S. 198 Isador E. Ida Straus,1700 3 AVENUE,MANHATTAN,10128,40.7848951,-73.950212
02M212,P.S. 212 Midtown West,328 WEST 48 STREET,MANHATTAN,10036,40.7615351,-73.9886547
02M217,P.S./I.S. 217 Roosevelt Island,645 MAIN STREET,MANHATTAN,10044,40.7638438,-73.9482254
02M225,Ella Baker School,317 EAST 67 STREET,MANHATTAN,10065,40.7653683,-73.9596962
02M234,P.S. 234 Independence School,292 GREENWICH STREET,MANHATTAN,10007,40.7160959,-74.0117653
02M255,M.S. 255 Salk School of Science,319 EAST 19 STREET,MANHATTAN,10003,40.7350123,-73.9817101
02M260,M.S. 260 Clinton School Writers & Artists,425 WEST 33RD STREET,MANHATTAN,10001,40.7533395,-73.9978926
02M267,"East Side Elementary School, PS 267",213 EAST 63RD STREET,MANHATTAN,10065,40.763854,-73.963813
02M276,BATTERY PARK CITY SCHOOL,55 BATTERY PLACE,MANHATTAN,10001,40.7049886,-74.0163859
02M281,The River School,425 EAST 35TH STREET,NEW YORK,10016,40.7443373,-73.9727206
02M288,Food and Finance High School,525 WEST 50TH STREET,MANHATTAN,10019,40.7655356,-73.9931625
02M289,I.S. 289,201 WARREN STREET,MANHATTAN,10282,40.7168673,-74.0136226
02M290,P.S. 290 Manhattan New School,311 EAST 82 STREET,MANHATTAN,10028,40.7751194,-73.9527604
02M294,Essex Street Academy,350 GRAND STREET,MANHATTAN,10002,40.717321,-73.989323
02M296,High School of Hospitality Management,525 WEST 50TH STREET,MANHATTAN,10019,40.7655356,-73.9931625
02M298,Pace High School,100 HESTER STREET,MANHATTAN,10002,40.71651,-73.9936997
02M300,"Urban Assembly School of Design and Construction, The",525 WEST 50TH STREET,MANHATTAN,10019,40.7655356,-73.9931625
02M303,"Facing History School, The",525 WEST 50TH STREET,MANHATTAN,10019,40.7655356,-73.9931625
02M305,"Urban Assembly Academy of Government and Law, The",350 GRAND STREET,MANHATTAN,10002,40.717321,-73.989323
02M308,Lower Manhattan Arts Academy,350 GRAND STREET,MANHATTAN,10002,40.717321,-73.989323
02M312,New York City Lab Middle School for Collaborative Studies,333 WEST 17 STREET,MANHATTAN,10011,40.7422594,-74.0024998
02M313,"James Baldwin School, The: A School for Expeditionary Learning",351 WEST 18 STREET,MANHATTAN,10011,40.743248,-74.002695
02M316,"Urban Assembly School of Business for Young Women, the",26 BROADWAY,MANHATTAN,10004,40.7053624,-74.0130174
02M343,The Peck Slip School,52 CHAMBERS STREET,MANHATTAN,10007,40.7133953,-74.0055456
02M347,The 47 American Sign Language & English Lower School,223 EAST 23 STREET,MANHATTAN,10010,40.7382221,-73.9816861
02M374,Gramercy Arts High School,40 IRVING PLACE,MANHATTAN,10003,40.7354677,-73.987393
02M376,NYC iSchool,131 AVENUE OF THE AMERICAS,MANHATTAN,10013,40.7241527,-74.004597
02M392,MANHATTAN BUSINESS ACADEMY,351 WEST 18 STREET,MANHATTAN,10011,40.743248,-74.002695
02M393,BUSINESS OF SPORTS SCHOOL,439 WEST 49TH STREET,MANHATTAN,10019,40.7639993,-73.9908346
02M394,EMMA LAZARUS HIGH SCHOOL,100 HESTER STREET,MANHATTAN,10002,40.71651,-73.9936997
02M397,SPRUCE STREET SCHOOL,12 SPRUCE STREET,MANHATTAN,10018,40.7114603,-74.0056828
02M399,THE HIGH SCHOOL FOR LANGUAGE AND DIPLOMACY,40 IRVING PLACE,MANHATTAN,10003,40.7354677,-73.987393
02M400,High School for Environmental Studies,444 WEST 56 STREET,MANHATTAN,10019,40.7679079,-73.9884009
02M407,Institute for Collaborative Education,345 EAST 15TH STREET,MANHATTAN,10003,40.7325413,-73.9828422
02M408,Professional Performing Arts High School,328 WEST 48 STREET,MANHATTAN,10036,40.7615351,-73.9886547
02M411,Baruch College Campus High School,55 EAST 25 STREET,MANHATTAN,10010,40.7418485,-73.985909
02M412,N.Y.C. Lab School for Collaborative Studies,333 WEST 17 STREET,MANHATTAN,10011,40.7422594,-74.0024998
02M413,School of the Future High School,127 EAST 22 STREET,MANHATTAN,10010,40.7390867,-73.9853658
02M414,N.Y.C. Museum School,333 WEST 17 STREET,MANHATTAN,10011,40.7422594,-74.0024998
02M416,Eleanor Roosevelt High School,411 EAST 76 STREET,MANHATTAN,10021,40.770282,-73.953267
02M418,Millennium High School,75 BROAD STREET,MANHATTAN,10004,40.7047154,-74.0113396
02M419,Landmark High School,351 WEST 18 STREET,MANHATTAN,10011,40.743248,-74.002695
02M420,High School for Health Professions and Human Services,345 EAST 15TH STREET,MANHATTAN,10003,40.7325413,-73.9828422
02M422,Quest to Learn,351 WEST 18 STREET,MANHATTAN,10011,40.743248,-74.002695
02M425,Leadership and Public Service High School,90 TRINITY PLACE,MANHATTAN,10006,40.7090242,-74.0123569
02M427,MANHATTAN ACADEMY FOR ARTS & LANGUAGE,111 EAST 33RD STREET,MANHATTAN,10016,40.7464334,-73.9810279
02M429,Legacy School for Integrated Studies,34 WEST 14 STREET,MANHATTAN,10011,40.7365616,-73.995614
02M432,Murray Hill Academy,111 EAST 33RD STREET,MANHATTAN,10016,40.7464334,-73.9810279
02M437,Hudson High School of Learning Technologies,351 WEST 18 STREET,MANHATTAN,10011,40.743248,-74.002695
02M438,International High School at Union Square,40 IRVING PLACE,MANHATTAN,10003,40.7354677,-73.987393
02M439,Manhattan Village Academy,43 WEST 22 STREET,MANHATTAN,10010,40.7419716,-73.9922377
02M442,"Ballet Tech, NYC Public School for Dance",890 BROADWAY,MANHATTAN,10003,40.7386165,-73.9897361
02M449,Vanguard High School,317 EAST 67 STREET,MANHATTAN,10065,40.7653683,-73.9596962
02M459,Manhattan International High School,317 EAST 67 STREET,MANHATTAN,10065,40.7653683,-73.9596962
02M460,Washington Irving High School,40 IRVING PLACE,MANHATTAN,10003,40.7354677,-73.987393
02M475,Stuyvesant High School,345 CHAMBERS STREET,MANHATTAN,10282,40.7180139,-74.0138939
02M489,High School of Economics and Finance,100 TRINITY PLACE,MANHATTAN,10006,40.709254,-74.0121884
02M500,Unity Center for Urban Technologies,111 EAST 33RD STREET,MANHATTAN,10016,40.7464334,-73.9810279
02M507,Urban Assembly Gateway School for Technology,439 WEST 49TH STREET,MANHATTAN,10019,40.7639993,-73.9908346
02M519,Talent Unlimited High School,317 EAST 67 STREET,MANHATTAN,10065,40.7653683,-73.9596962
02M520,Murry Bergtraum High School for Business Careers,411 PEARL STREET,MANHATTAN,10038,40.7110316,-74.0013216
02M527,PS 527 - East Side School for Social Action,323 EAST 91 STREET,MANHATTAN,10128,40.780653,-73.947854
02M529,Jacqueline Kennedy Onassis High School,120 WEST 46 STREET,MANHATTAN,10036,40.7577223,-73.9833542
02M531,Repertory Company High School for Theatre Arts,123 WEST 43 STREET,MANHATTAN,10036,40.7561154,-73.9844504
02M533,Union Square Academy for Health Sciences,40 IRVING PLACE,MANHATTAN,10003,40.7354677,-73.987393
02M534,Harvest Collegiate High School,34 WEST 14 STREET,MANHATTAN,10011,40.7365616,-73.995614
02M542,Manhattan Bridges High School,525 WEST 50TH STREET,MANHATTAN,10019,40.7655356,-73.9931625
02M543,New Design High School,350 GRAND STREET,MANHATTAN,10002,40.717321,-73.989323
02M544,Independence High School,850 10TH AVENUE,MANHATTAN,10019,40.7678733,-73.988931
02M545,High School for Dual Language and Asian Studies,350 GRAND STREET,MANHATTAN,10002,40.717321,-73.989323
02M546,Academy for Software Engineering,40 IRVING PLACE,MANHATTAN,10003,40.7354677,-73.987393
02M550,Liberty High School Academy for Newcomers,250 WEST 18 STREET,MANHATTAN,10011,40.741817,-74.000231
02M551,Urban Assembly New York Harbor School,"10 SOUTH STREET, SLIP 7",MANHATTAN,10004,40.7041461,-74.0087148
02M560,High School M560 - City As School,16 CLARKSON STREET,MANHATTAN,10014,40.7291694,-74.0061065
02M565,Urban Academy Laboratory High School,317 EAST 67 STREET,MANHATTAN,10065,40.7653683,-73.9596962
02M570,Satellite Academy High School,120 WEST 30 STREET,MANHATTAN,10001,40.747421,-73.990565
02M575,Manhattan Comprehensive Night and Day High School,240 2 AVENUE,MANHATTAN,10003,40.732669,-73.9843255
02M580,Richard R. Green High School of Teaching,26 BROADWAY,MANHATTAN,10004,40.7053624,-74.0130174
02M586,Harvey Milk High School,2-10 ASTOR PLACE,MANHATTAN,10003,40.7297006,-73.9922318
02M600,The High School of Fashion Industries,225 WEST 24 STREET,MANHATTAN,10011,40.7454738,-73.9964664
02M605,Humanities Preparatory Academy,351 WEST 18 STREET,MANHATTAN,10011,40.743248,-74.002695
02M615,Chelsea Career and Technical Education High School,131 AVENUE OF THE AMERICAS,MANHATTAN,10013,40.7241527,-74.004597
02M620,Norman Thomas High School,111 EAST 33RD STREET,MANHATTAN,10016,40.7464334,-73.9810279
02M625,High School of Graphic Communication Arts,439 WEST 49TH STREET,MANHATTAN,10019,40.7639993,-73.9908346
02M630,Art and Design High School,231-249 EAST 56 STREET,MANHATTAN,10019,40.7658058,-73.9827487
02M655,Life Sciences Secondary School,320 EAST 96 STREET,MANHATTAN,10128,40.7835367,-73.9459767
02M896,Lower Manhattan Community Middle School,26 BROADWAY,MANHATTAN,10004,40.7053624,-74.0130174
03M009,P.S. 009 Sarah Anderson,100 WEST 84 STREET,MANHATTAN,10024,40.7850013,-73.9737516
03M054,J.H.S. 054 Booker T. Washington,103 WEST 107 STREET,MANHATTAN,10025,40.8006017,-73.9629214
03M075,P.S. 075 Emily Dickinson,735 WEST END AVENUE,MANHATTAN,10025,40.7950859,-73.9737011
03M076,P.S. 076 A. Philip Randolph,220 WEST 121 STREET,MANHATTAN,10027,40.806472,-73.9511952
03M084,P.S. 084 Lillian Weber,32 WEST 92 STREET,MANHATTAN,10025,40.7893657,-73.9679288
03M087,P.S. 087 William Sherman,160 WEST 78 STREET,MANHATTAN,10024,40.781867,-73.9778277
03M145,"P.S. 145, The Bloomingdale School",150 WEST 105 STREET,MANHATTAN,10025,40.799179,-73.965156
03M149,P.S. 149 Sojourner Truth,41 WEST 117 STREET,MANHATTAN,10026,40.8026661,-73.9482563
03M163,P.S. 163 Alfred E. Smith,163 WEST 97 STREET,MANHATTAN,10025,40.794573,-73.9685711
03M165,P.S. 165 Robert E. Simon,234 WEST 109 STREET,MANHATTAN,10025,40.80288,-73.9661354
03M166,P.S. 166 The Richard Rodgers School of The Arts and Technology,132 WEST 89 STREET,MANHATTAN,10024,40.788883,-73.9724552
03M180,P.S. 180 Hugo Newman,370 WEST 120 STREET,MANHATTAN,10027,40.8076092,-73.9558388
03M185,P.S. 185 - The Early Childhood Discovery and Design Magnet School,20 WEST 112 STREET,MANHATTAN,10026,40.7984949,-73.9498493
03M191,P.S. 191 Amsterdam,210 WEST 61 STREET,MANHATTAN,10023,40.7719115,-73.9876838
03M199,P.S. 199 Jessie Isador Straus,270 WEST 70 STREET,MANHATTAN,10023,40.7779517,-73.9847026
03M208,P.S. 208 Alain L. Locke,21 WEST 111 STREET,MANHATTAN,10026,40.7983413,-73.9504528
03M241,STEM Institute of Manhattan,240 WEST 113 STREET,MANHATTAN,10026,40.8015793,-73.9552724
03M242,P.S. 242 - The Young Diplomats Magnet Academy,134 WEST 122 STREET,MANHATTAN,10027,40.8064246,-73.9482857
03M243,M.S. 243 Center School,100 WEST 84 STREET,MANHATTAN,10024,40.7850013,-73.9737516
03M245,M.S. M245 The Computer School,100 WEST 77 STREET,MANHATTAN,10024,40.7810814,-73.9780846
03M247,M.S. M247 Dual Language Middle School,32 WEST 92 STREET,MANHATTAN,10025,40.7893657,-73.9679288
03M250,M.S. 250 West Side Collaborative Middle School,735 WEST END AVENUE,MANHATTAN,10025,40.7950859,-73.9737011
03M256,M.S. 256 Academic & Athletic Excellence,154 WEST 93 STREET,MANHATTAN,10025,40.7916848,-73.9707702
03M258,Community Action School - MS 258,154 WEST 93 STREET,MANHATTAN,10025,40.7916848,-73.9707702
03M283,Manhattan Theatre Lab High School,122 AMSTERDAM AVENUE,MANHATTAN,10023,40.7747793,-73.98472
03M299,"High School for Arts, Imagination and Inquiry",122 AMSTERDAM AVENUE,MANHATTAN,10023,40.7747793,-73.98472
03M307,"Urban Assembly School for Media Studies, The",122 AMSTERDAM AVENUE,MANHATTAN,10023,40.7747793,-73.98472
03M333,P.S. 333 Manhattan School for Children,154 WEST 93 STREET,MANHATTAN,10025,40.7916848,-73.9707702
03M334,The Anderson School,100 WEST 77 STREET,MANHATTAN,10024,40.7810814,-73.9780846
03M402,The Urban Assembly School for Green Careers,145 WEST 84 STREET,MANHATTAN,10024,40.785992,-73.9743724
03M403,The Global Learning Collaborative,145 WEST 84 STREET,MANHATTAN,10024,40.785992,-73.9743724
03M404,Innovation Diploma Plus,145 WEST 84 STREET,MANHATTAN,10024,40.785992,-73.9743724
03M415,Wadleigh Secondary School for the Performing & Visual Arts,215 WEST 114 STREET,MANHATTAN,10026,40.8023572,-73.9544678
03M417,FRANK McCOURT HIGH SCHOOL,145 WEST 84 STREET,MANHATTAN,10024,40.785992,-73.9743724
03M421,West Prep Academy,150 WEST 105 STREET,MANHATTAN,10025,40.799179,-73.965156
03M452,P.S. 452,100 WEST 77 STREET,MANHATTAN,10024,40.7810814,-73.9780846
03M479,Beacon High School,227-243 WEST 61ST STREET,MANHATTAN,10023,40.7725232,-73.9886929
03M485,Fiorello H. LaGuardia High School of Music & Art and Performing Arts,100 AMSTERDAM AVENUE,MANHATTAN,10023,40.7740625,-73.9854943
03M492,"High School for Law, Advocacy and Community Justice",122 AMSTERDAM AVENUE,MANHATTAN,10023,40.7747793,-73.98472
03M494,High School of Arts and Technology,122 AMSTERDAM AVENUE,MANHATTAN,10023,40.7747793,-73.98472
03M505,Edward A. Reynolds West Side High School,140 WEST 102 STREET,MANHATTAN,10025,40.79713,-73.966791
03M541,Manhattan / Hunter Science High School,122 AMSTERDAM AVENUE,MANHATTAN,10023,40.7747793,-73.98472
03M859,Special Music School,129 WEST 67 STREET,MANHATTAN,10023,40.7752368,-73.9830916
03M860,Frederick Douglass Academy II Secondary School,215 WEST 114 STREET,MANHATTAN,10026,40.8023572,-73.9544678
03M862,Mott Hall II,234 WEST 109 STREET,MANHATTAN,10025,40.80288,-73.9661354
04M007,P.S. 007 Samuel Stern,160 EAST 120 STREET,MANHATTAN,10035,40.8009638,-73.939617
04M012,Tag Young Scholars,240 EAST 109 STREET,MANHATTAN,10029,40.7924857,-73.9417246
04M013,J.H.S. 013 Jackie Robinson,1573 MADISON AVENUE,MANHATTAN,10029,40.7936899,-73.9491583
04M037,River East Elementary,508 EAST 120 STREET,MANHATTAN,10035,40.7969061,-73.9299784
04M038,P.S. 38 Roberto Clemente,232 EAST 103 STREET,MANHATTAN,10029,40.7886696,-73.9449061
04M050,P.S. 050 Vito Marcantonio,433 EAST 100 STREET,MANHATTAN,10029,40.7855844,-73.9422698
04M057,James Weldon Johnson,176 EAST 115 STREET,MANHATTAN,10029,40.797207,-73.941605
04M072,The Lexington Academy,131 EAST 104 STREET,MANHATTAN,10029,40.7913911,-73.947415
04M083,P.S. 083 Luis Munoz Rivera,219 EAST 109 STREET,MANHATTAN,10029,40.7931298,-73.9418125
04M096,P.S. 096 Joseph Lanzetta,216 EAST 120 STREET,MANHATTAN,10035,40.799987,-73.9373878
04M102,P.S. 102 Jacques Cartier,315 EAST 113 STREET,MANHATTAN,10029,40.794884,-73.9381929
04M108,P.S. 108 Assemblyman Angelo Del Toro Educational Complex,1615 MADISON AVENUE,MANHATTAN,10029,40.7951169,-73.9480744
04M112,P.S. 112 Jose Celso Barbosa,535 EAST 119 STREET,MANHATTAN,10035,40.7964942,-73.9300386
04M146,P.S. 146 Ann M. Short,421 EAST 106 STREET,MANHATTAN,10029,40.7894561,-73.9388211
04M155,P.S. 155 William Paca,319 EAST 117 STREET,MANHATTAN,10035,40.7973176,-73.9359411
04M171,P.S. 171 Patrick Henry,19 EAST 103 STREET,MANHATTAN,10029,40.792294,-73.951434
04M182,The Bilingual Bicultural School,219 EAST 109 STREET,MANHATTAN,10029,40.7931298,-73.9418125
04M206,P.S. 206 Jose Celso Barbosa,508 EAST 120 STREET,MANHATTAN,10035,40.7969061,-73.9299784
04M224,M.S. 224 Manhattan East School for Arts & Academics,410 EAST 100 STREET,MANHATTAN,10029,40.7850131,-73.942073
04M372,ESPERANZA PREPARATORY ACADEMY,240 EAST 109 STREET,MANHATTAN,10029,40.7924857,-73.9417246
04M375,Mosaic Preparatory Academy,141 EAST 111 STREET,MANHATTAN,10029,40.7959052,-73.9443835
04M377,Renaissance School of the Arts,319 EAST 117 STREET,MANHATTAN,10035,40.7973176,-73.9359411
04M381,Global Neighborhood Secondary School,240 EAST 109 STREET,MANHATTAN,10029,40.7924857,-73.9417246
04M406,Global Technology Preparatory,160 EAST 120 STREET,MANHATTAN,10035,40.8009638,-73.939617
04M409,Coalition School for Social Change,2351 1ST AVENUE,MANHATTAN,10035,40.7992278,-73.9338214
04M435,Manhattan Center for Science and Mathematics,260 PLEASANT AVENUE,MANHATTAN,10029,40.7942234,-73.9326416
04M495,Park East High School,230 EAST 105 STREET,MANHATTAN,10029,40.7902049,-73.9441678
04M497,Central Park East I,1573 MADISON AVENUE,MANHATTAN,10029,40.7936899,-73.9491583
04M555,Central Park East High School,1573 MADISON AVENUE,MANHATTAN,10029,40.7936899,-73.9491583
04M610,Young Women's Leadership School,105 EAST 106 STREET,MANHATTAN,10029,40.792935,-73.947168
04M635,Academy of Environmental Science Secondary High School,410 EAST 100 STREET,MANHATTAN,10029,40.7850131,-73.942073
04M680,"Heritage School, The",1680 LEXINGTON AVENUE,MANHATTAN,10029,40.791964,-73.946878
04M825,Isaac Newton Middle School for Math & Science,260 PLEASANT AVENUE,MANHATTAN,10029,40.7942234,-73.9326416
04M964,Central Park East II,19 EAST 103 STREET,MANHATTAN,10029,40.792294,-73.951434
05M030,P.S. 030 Hernandez/Hughes,144-176 EAST 128 STREET,MANHATTAN,10035,40.8069774,-73.9376529
05M036,P.S. 036 Margaret Douglas,123 MORNINGSIDE DRIVE,MANHATTAN,10027,40.810705,-73.957404
05M046,P.S. 046 Arthur Tappan,2987 FREDERICK DGLS BLVD,MANHATTAN,10039,40.8317384,-73.9355185
05M092,P.S. 092 Mary McLeod Bethune,222 WEST 134 STREET,MANHATTAN,10030,40.8145839,-73.9449913
05M123,P.S. 123 Mahalia Jackson,301 WEST 140 STREET,MANHATTAN,10030,40.8199748,-73.9444992
05M125,P.S. 125 Ralph Bunche,425 WEST 123 STREET,MANHATTAN,10027,40.8106401,-73.9558474
05M129,P.S. 129 John H. Finley,425 WEST 130 STREET,MANHATTAN,10027,40.814912,-73.952
05M133,P.S. 133 Fred R Moore,2121 5 AVENUE,MANHATTAN,10037,40.8096731,-73.9391163
05M148,Eagle Academy for Young Men of Harlem,6 EDGECOMBE AVENUE,MANHATTAN,10030,40.8174583,-73.9473723
05M154,P.S. 154 Harriet Tubman,250 WEST 127 STREET,MANHATTAN,10027,40.8110071,-73.9491304
05M157,The Urban Assembly School for Global Commerce,2005 MADISON AVENUE,MANHATTAN,10035,40.8070793,-73.9390933
05M161,P.S. 161 Pedro Albizu Campos,499 WEST 133 STREET,MANHATTAN,10027,40.817721,-73.952459
05M175,P.S. 175 Henry H Garnet,175 WEST 134 STREET,MANHATTAN,10030,40.8143361,-73.9429783
05M194,P.S. 194 Countee Cullen,244 WEST 144 STREET,MANHATTAN,10030,40.8212634,-73.9407418
05M197,P.S. 197 John B. Russwurm,2230 5 AVENUE,MANHATTAN,10037,40.8133194,-73.9378928
05M200,P.S. 200- The James Mccune Smith School,2589 7 AVENUE,MANHATTAN,10039,40.8240334,-73.9372092
05M285,Harlem Renaissance High School,22 EAST 128 STREET,MANHATTAN,10035,40.8077499,-73.9398816
05M286,I.S. M286 Renaissance Leadership Academy,509 WEST 129 STREET,MANHATTAN,10027,40.8151196,-73.9549462
05M302,KAPPA IV,6 EDGECOMBE AVENUE,MANHATTAN,10030,40.8174583,-73.9473723
05M304,Mott Hall High School,6 EDGECOMBE AVENUE,MANHATTAN,10030,40.8174583,-73.9473723
05M318,Thurgood Marshall Academy Lower School,276 WEST 151ST STREET,MANHATTAN,10039,40.8259644,-73.937942
05M362,Columbia Secondary School,425 WEST 123 STREET,MANHATTAN,10027,40.8106401,-73.9558474
05M367,Academy for Social Action: A College Board School,509 WEST 129 STREET,MANHATTAN,10027,40.8151196,-73.9549462
05M369,Urban Assembly School for the Performing Arts,509 WEST 129 STREET,MANHATTAN,10027,40.8151196,-73.9549462
05M410,The Urban Assembly Institute for New Technologies,509 WEST 129 STREET,MANHATTAN,10027,40.8151196,-73.9549462
05M469,Choir Academy of Harlem,2005 MADISON AVENUE,MANHATTAN,10035,40.8070793,-73.9390933
05M499,Frederick Douglass Academy,2581 7TH AVENUE,MANHATTAN,10039,40.8243982,-73.9365449
05M514,New Design Middle School,625 WEST 133 STREET,MANHATTAN,10027,40.819803,-73.956827
05M517,Teachers College Community School,168 MORNINGSIDE AVENUE,MANHATTAN,10027,40.8125165,-73.9535404
05M670,Thurgood Marshall Academy for Learning and Social Change,200-214 WEST 135TH STREET,MANHATTAN,10030,40.8152968,-73.9443043
05M685,Bread & Roses Integrated Arts High School,6 EDGECOMBE AVENUE,MANHATTAN,10030,40.8174583,-73.9473723
05M692,"High School for Mathematics, Science and Engineering at City College",240 CONVENT AVE,MANHATTAN,10031,40.8213947,-73.9488459
06M004,P.S. 004 Duke Ellington,500 WEST 160 STREET,MANHATTAN,10032,40.8347501,-73.9407048
06M005,P.S. 005 Ellen Lurie,3703 TENTH AVENUE,MANHATTAN,10034,40.8591641,-73.9227366
06M008,P.S. 008 Luis Belliard,465 WEST 167 STREET,MANHATTAN,10032,40.8393844,-73.9367835
06M018,P.S. 018 Park Terrace,4124 9 AVENUE,MANHATTAN,10034,40.8716626,-73.9115806
06M028,P.S. 028 Wright Brothers,475 WEST 155 STREET,MANHATTAN,10032,40.8316951,-73.9426207
06M048,P.S. 048 P.O. Michael J. Buczek,4360-78 BROADWAY,MANHATTAN,10033,40.8533239,-73.933497
06M052,J.H.S. 052 Inwood,650 ACADEMY STREET,MANHATTAN,10034,40.8659143,-73.925157
06M098,P.S. 098 Shorac Kappock,512 WEST 212 STREET,MANHATTAN,10034,40.8681001,-73.9176032
06M103,Dos Puentes Elementary School,185 WADSWORTH AVENUE,MANHATTAN,10033,40.8505589,-73.93396
06M115,P.S. 115 Alexander Humboldt,586 WEST 177 STREET,MANHATTAN,10033,40.8462714,-73.9350071
06M128,P.S. 128 Audubon,560 WEST 169 STREET,MANHATTAN,10032,40.8416778,-73.9393219
06M132,P.S. 132 Juan Pablo Duarte,185 WADSWORTH AVENUE,MANHATTAN,10033,40.8505589,-73.93396
06M143,J.H.S. 143 Eleanor Roosevelt,511 WEST 182ND STREET,MANHATTAN,10033,40.8490452,-73.9312015
06M152,P.S. 152 Dyckman Valley,93 NAGLE AVENUE,MANHATTAN,10040,40.8601744,-73.9277953
06M153,P.S. 153 Adam Clayton Powell,1750 AMSTERDAM AVENUE,MANHATTAN,10031,40.8262848,-73.9472873
06M173,P.S. 173,306 FORT WASHINGTON AVENUE,MANHATTAN,10033,40.8456199,-73.9397377
06M178,Professor Juan Bosch Public School,12-18 ELLWOOD STREET,MANHATTAN,10040,40.8594949,-73.9279416
06M187,P.S./I.S. 187 Hudson Cliffs,349 CABRINI BOULEVARD,MANHATTAN,10040,40.8563491,-73.9373574
06M189,P.S. 189,2580 AMSTERDAM AVENUE,MANHATTAN,10040,40.8530535,-73.9280002
06M192,P.S. 192 Jacob H. Schiff,500 WEST 138 STREET,MANHATTAN,10031,40.821053,-73.9530544
06M210,P.S./I.S. 210 - Twenty-first Century Academy for Community Leadership,501-503 WEST 152 STREET,MANHATTAN,10031,40.8299413,-73.9446256
06M218,I.S. 218 Salome Urena,4600 BROADWAY,MANHATTAN,10040,40.8608196,-73.9300663
06M223,The Mott Hall School,71-111 CONVENT AVE,MANHATTAN,10027,40.8171036,-73.9523545
06M278,Paula Hedbavny School,421 W 219TH ST,MANHATTAN,10034,40.8717871,-73.9132819
06M293,City College Academy of the Arts,4600 BROADWAY,MANHATTAN,10040,40.8608196,-73.9300663
06M311,Amistad Dual Language School,4862 BROADWAY,MANHATTAN,10034,40.8665218,-73.9238183
06M314,Muscota,4862 BROADWAY,MANHATTAN,10034,40.8665218,-73.9238183
06M319,M.S. 319 - Maria Teresa,21 JUMEL PLACE,MANHATTAN,10032,40.8394126,-73.9357677
06M322,Middle School 322,4600 BROADWAY,MANHATTAN,10040,40.8608196,-73.9300663
06M324,M.S. 324 - Patria Mirabal,21 JUMEL PLACE,MANHATTAN,10032,40.8394126,-73.9357677
06M325,P.S. 325,500 WEST 138 STREET,MANHATTAN,10031,40.821053,-73.9530544
06M326,M.S. 326 - Writers Today & Leaders Tomorrow,401 WEST 164 STREET,MANHATTAN,10032,40.8369119,-73.9374121
06M328,M.S. 328 - Manhattan Middle School for Scientific Inquiry,401 WEST 164 STREET,MANHATTAN,10032,40.8369119,-73.9374121
06M346,Community Health Academy of the Heights,504 WEST 158TH STREET,MANHATTAN,10032,40.8334867,-73.9424463
06M348,Washington Heights Expeditionary Learning School,511 WEST 182ND STREET,MANHATTAN,10033,40.8490452,-73.9312015
06M349,Harbor Heights,306 FORT WASHINGTON AVENUE,MANHATTAN,10033,40.8456199,-73.9397377
06M366,Washington Heights Academy,202 SHERMAN AVE,MANHATTAN,10034,40.8654902,-73.9215724
06M368,Hamilton Heights School,1750 AMSTERDAM AVENUE,MANHATTAN,10031,40.8262848,-73.9472873
06M423,High School for Excellence and Innovation,650 ACADEMY STREET,MANHATTAN,10034,40.8659143,-73.925157
06M462,The College Academy,549 AUDUBON AVENUE,MANHATTAN,10040,40.8562127,-73.9265543
06M463,High School for Media and Communications,549 AUDUBON AVENUE,MANHATTAN,10040,40.8562127,-73.9265543
06M467,High School for Law and Public Service,549 AUDUBON AVENUE,MANHATTAN,10040,40.8562127,-73.9265543
06M468,High School for Health Careers and Sciences,549 AUDUBON AVENUE,MANHATTAN,10040,40.8562127,-73.9265543
06M513,Castle Bridge School,560 WEST 169 STREET,MANHATTAN,10032,40.8416778,-73.9393219
06M528,I.S. 528 Bea Fuller Rodgers School,180 WADSWORTH AVENUE,MANHATTAN,10033,40.850688,-73.934663
06M540,A. Philip Randolph Campus High School,443 WEST 135 STREET,MANHATTAN,10031,40.818413,-73.9503019
06M552,Gregorio Luperon High School for Science and Mathematics,501 WEST 165TH,MANHATTAN,10032,40.8383816,-73.9385845
07X001,P.S. 001 Courtlandt School,335 EAST 152 STREET,BRONX,10451,40.8191006,-73.9194097
07X005,PS 5 Port Morris,564 JACKSON AVENUE,BRONX,10455,40.8137625,-73.9084802
07X018,P.S. 018 John Peter Zenger,502 MORRIS AVENUE,BRONX,10451,40.816349,-73.922697
07X025,P.S. 025 Bilingual School,811 EAST 149 STREET,BRONX,10455,40.8127342,-73.9056831
07X029,P.S./M.S. 029 Melrose School,758 COURTLANDT AVENUE,BRONX,10451,40.8214439,-73.9169725
07X030,P.S. 030 Wilton,510 EAST 141 STREET,BRONX,10454,40.8091983,-73.9176267
07X031,P.S./M.S. 031 The William Lloyd Garrison,250 EAST 156 STREET,BRONX,10451,40.8230735,-73.9213427
07X043,P.S. 043 Jonas Bronck,165 BROWN PLACE,BRONX,10454,40.8064193,-73.9214243
07X049,P.S. 049 Willis Avenue,383 EAST 139 STREET,BRONX,10454,40.810318,-73.922949
07X065,P.S. 065 Mother Hale Academy,677 EAST 141 STREET,BRONX,10454,40.8077521,-73.9127794
07X151,J.H.S. 151 Lou Gehrig,250 EAST 156 STREET,BRONX,10451,40.8230735,-73.9213427
07X154,P.S. 154 Jonathan D. Hyatt,333 EAST 135 STREET,BRONX,10454,40.808126,-73.925479
07X157,P.S. 157 Grove Hill,757 CAULDWELL AVENUE,BRONX,10456,40.8193893,-73.9091997
07X161,P.S. 161 Ponce De Leon,628 TINTON AVENUE,BRONX,10455,40.8144412,-73.9054424
07X162,J.H.S. 162 Lola Rodriguez De Tio,600 SAINT ANN'S AVENUE,BRONX,10455,40.8145265,-73.9123068
07X179,P.S. 179,468 EAST 140 STREET,BRONX,10454,40.8092564,-73.9198088
07X203,M.S. 203,339 MORRIS AVENUE,BRONX,10451,40.81366,-73.925999
07X221,South Bronx Preparatory: A College Board School,360 EAST 145 STREET,BRONX,10454,40.8137232,-73.9206427
07X223,M.S. 223 The Laboratory School of Finance and Technology,360 EAST 145 STREET,BRONX,10454,40.8137232,-73.9206427
07X224,P.S. / I.S. 224,345 BROOK AVENUE,BRONX,10454,40.8102834,-73.9181008
07X259,"H.E.R.O. High (Health, Education, and Research Occupations High School)",455 SOUTHERN BLVD,BRONX,10455,40.8104623,-73.906773
07X277,P.S. 277,519 ST ANNS AVENUE,BRONX,10455,40.8133071,-73.9138374
07X296,South Bronx Academy for Applied Media,778 FOREST AVENUE,BRONX,10456,40.8189551,-73.9054918
07X298,Academy of Public Relations,778 FOREST AVENUE,BRONX,10456,40.8189551,-73.9054918
07X321,Crotona Academy High School,639 ST. ANNS AVENUE,BRONX,10455,40.8165264,-73.9117265
07X334,International Community High School,345 BROOK AVENUE,BRONX,10454,40.8102834,-73.9181008
07X343,Academy of Applied Mathematics and Technology,345 BROOK AVENUE,BRONX,10454,40.8102834,-73.9181008
07X359,Concourse Village Elementary School,750 CONCOURSE VILLAGE WEST,BRONX,10451,40.823043,-73.9226719
07X369,Young Leaders Elementary School,468 EAST 140 STREET,BRONX,10454,40.8092564,-73.9198088
07X379,Jill Chaifetz Transfer High School,778 FOREST AVENUE,BRONX,10456,40.8189551,-73.9054918
07X381,Bronx Haven High School,333 EAST 151 STREET,BRONX,10451,40.8185183,-73.9199681
07X385,Performance School,750 CONCOURSE VILLAGE WEST,BRONX,10451,40.823043,-73.9226719
07X427,Community School for Social Justice,350 GERARD AVENUE,BRONX,10451,40.8159162,-73.9304084
07X473,Mott Haven Village Preparatory High School,701 ST. ANNS AVENUE,BRONX,10455,40.8181071,-73.9114331
07X495,University Heights Secondary School,701 ST. ANNS AVENUE,BRONX,10455,40.8181071,-73.9114331
07X500,Hostos-Lincoln Academy of Science,600 SAINT ANN'S AVENUE,BRONX,10455,40.8145265,-73.9123068
07X520,Foreign Language Academy of Global Studies,470 JACKSON AVENUE,BRONX,10455,40.811046,-73.909376
07X522,Bronx Design and Construction Academy,333 EAST 151 STREET,BRONX,10451,40.8185183,-73.9199681
07X527,Bronx Leadership Academy II High School,730 CONCOURSE VILLAGE WEST,BRONX,10451,40.8225762,-73.9236546
07X547,New Explorers High School,730 CONCOURSE VILLAGE WEST,BRONX,10451,40.8225762,-73.9236546
07X548,Urban Assembly School for Careers in Sports,730 CONCOURSE VILLAGE WEST,BRONX,10451,40.8225762,-73.9236546
07X551,The Urban Assembly Bronx Academy of Letters,339 MORRIS AVENUE,BRONX,10451,40.81366,-73.925999
07X557,Mott Haven Community High School,455 SOUTHERN BLVD,BRONX,10455,40.8104623,-73.906773
07X600,Alfred E. Smith Career and Technical Education High School,333 EAST 151 STREET,BRONX,10451,40.8185183,-73.9199681
07X655,Samuel Gompers Career and Technical Education High School,455 SOUTHERN BLVD,BRONX,10455,40.8104623,-73.906773
07X670,Health Opportunities High School,350 GERARD AVENUE,BRONX,10451,40.8159162,-73.9304084
08X014,P.S. X014 Senator John Calandra,3041 BRUCKNER BOULEVARD,BRONX,10461,40.8355756,-73.8254128
08X036,P.S. 036 Unionport,1070 CASTLE HILL AVENUE,BRONX,10472,40.829446,-73.849749
08X048,P.S. 048 Joseph R. Drake,1290 SPOFFORD AVENUE,BRONX,10474,40.8143895,-73.8868743
08X062,P.S. 062 Inocensio Casanova,660 FOX STREET,BRONX,10455,40.8141023,-73.9003091
08X069,P.S. 069 Journey Prep School,560 THIERIOT AVENUE,BRONX,10473,40.816543,-73.8608739
08X071,P.S. 071 Rose E. Scala,3040 ROBERTS AVENUE,BRONX,10461,40.845859,-73.8296216
08X072,P.S. 072 Dr. William Dorney,2951 DEWEY AVENUE,BRONX,10465,40.823208,-73.8181819
08X075,P.S. 75 School of Research and Discovery,984 FAILE STREET,BRONX,10459,40.82229,-73.88896
08X093,P.S. 093 Albert G. Oliver,1535 STORY AVENUE,BRONX,10473,40.822513,-73.877255
08X100,P.S. 100 Isaac Clason,800 TAYLOR AVENUE,BRONX,10473,40.8214423,-73.8629831
08X101,M.S. X101 Edward R. Byrne,2750 LAFAYETTE AVENUE,BRONX,10465,40.826939,-73.8307088
08X107,P.S. 107,1695 SEWARD AVENUE,BRONX,10473,40.81848,-73.8683212
08X119,P.S. 119,1075 PUGSLEY AVENUE,BRONX,10472,40.8284926,-73.856571
08X123,J.H.S. 123 James M. Kieran,1025 MORRISON AVENUE,BRONX,10472,40.8248835,-73.873517
08X125,J.H.S. 125 Henry Hudson,1111 PUGSLEY AVENUE,BRONX,10472,40.8294144,-73.8567829
08X130,P.S. 130 Abram Stevens Hewitt,750 PROSPECT AVENUE,BRONX,10455,40.8176053,-73.9021834
08X131,J.H.S. 131 Albert Einstein,885 BOLTON AVENUE,BRONX,10473,40.8237477,-73.8597342
08X138,P.S. 138 Samuel Randall,2060 LAFAYETTE AVENUE,BRONX,10473,40.8225942,-73.8526687
08X140,P.S. X140 The Eagle School,916 EAGLE AVENUE,BRONX,10456,40.8234813,-73.907631
08X146,P.S. 146 Edward Collins,968 CAULDWELL AVENUE,BRONX,10456,40.8248223,-73.9062021
08X152,P.S. 152 Evergreen,1007 EVERGREEN AVENUE,BRONX,10472,40.823907,-73.880465
08X182,P.S. 182,601 STICKBALL BOULEVARD,BRONX,10473,40.818892,-73.856982
08X269,Bronx Studio School for Writers and Artists,928 SIMPSON STREET,BRONX,10459,40.8199186,-73.8937549
08X282,Women's Academy of Excellence,456 WHITE PLAINS ROAD,BRONX,10473,40.8150049,-73.8563115
08X293,Renaissance High School for Musical Theater & Technology,3000 EAST TREMONT AVENUE,BRONX,10461,40.839987,-73.837977
08X295,Gateway School for Environmental Research and Technology,1980 LAFAYETTE AVENUE,BRONX,10473,40.8213444,-73.8556733
08X301,M.S. 301 Paul L. Dunbar,890 CAULDWELL AVENUE,BRONX,10456,40.8225924,-73.9064256
08X302,M.S. 302 Luisa Dessus Cruz,681 KELLY STREET,BRONX,10455,40.8156753,-73.9016604
08X304,P.S. 304 Early Childhood School,2750 LAFAYETTE AVENUE,BRONX,10465,40.826939,-73.8307088
08X305,Pablo Neruda Academy,1980 LAFAYETTE AVENUE,BRONX,10473,40.8213444,-73.8556733
08X312,Millennium Art Academy,1980 LAFAYETTE AVENUE,BRONX,10473,40.8213444,-73.8556733
08X320,Pelham Lab High School,3000 EAST TREMONT AVENUE,BRONX,10461,40.839987,-73.837977
08X332,Holcombe L. Rucker School of Community Research,965 LONGWOOD AVENUE,BRONX,10459,40.8176061,-73.8980989
08X333,P.S. 333 - The Museum School,888 REV J A POLITE AVE,BRONX,10459,40.8220376,-73.8989043
08X335,The Academy of the Arts,888 REV J A POLITE AVE,BRONX,10459,40.8220376,-73.8989043
08X337,The School for Inquiry and Social Justice,1025 MORRISON AVENUE,BRONX,10472,40.8248835,-73.873517
08X348,Schuylerville Preparatory High School,3000 EAST TREMONT AVENUE,BRONX,10461,40.839987,-73.837977
08X349,Bronx River High School,3000 EAST TREMONT AVENUE,BRONX,10461,40.839987,-73.837977
08X366,Urban Assembly Academy of Civic Engagement,650 HOLLYWOOD AVENUE,BRONX,10465,40.826777,-73.8180749
08X367,"Archimedes Academy for Math, Science and Technology Applications",456 WHITE PLAINS ROAD,BRONX,10473,40.8150049,-73.8563115
08X371,Urban Institute of Mathematics,650 HOLLYWOOD AVENUE,BRONX,10465,40.826777,-73.8180749
08X375,The Bronx Mathematics Preparatory School,456 WHITE PLAINS ROAD,BRONX,10473,40.8150049,-73.8563115
08X376,Antonia Pantoja Preparatory Academy: A College Board School,1980 LAFAYETTE AVENUE,BRONX,10473,40.8213444,-73.8556733
08X377,Bronx Community High School,1980 LAFAYETTE AVENUE,BRONX,10473,40.8213444,-73.8556733
08X405,Herbert H. Lehman High School.,3000 EAST TREMONT AVENUE,BRONX,10461,40.839987,-73.837977
08X424,The Hunts Point School,730 BRYANT AVENUE,BRONX,10474,40.8155695,-73.8855307
08X432,BRONX BRIDGES HIGH SCHOOL,1980 LAFAYETTE AVENUE,BRONX,10473,40.8213444,-73.8556733
08X448,Soundview Academy for Culture and Scholarship,885 BOLTON AVENUE,BRONX,10473,40.8237477,-73.8597342
08X452,Bronx Guild,1980 LAFAYETTE AVENUE,BRONX,10473,40.8213444,-73.8556733
08X467,Mott Hall Community School,650 HOLLYWOOD AVENUE,BRONX,10465,40.826777,-73.8180749
08X519,"Felisa Rincon de Gautier Institute for Law and Public Policy, The",1440 STORY AVENUE,BRONX,10473,40.8211019,-73.8817309
08X530,Banana Kelly High School,965 LONGWOOD AVENUE,BRONX,10459,40.8176061,-73.8980989
08X537,Bronx Arena High School,1440 STORY AVENUE,BRONX,10473,40.8211019,-73.8817309
08X540,School for Community Research and Learning,1980 LAFAYETTE AVENUE,BRONX,10473,40.8213444,-73.8556733
08X558,Westchester Square Academy,3000 EAST TREMONT AVENUE,BRONX,10461,40.839987,-73.837977
08X559,School for Tourism and Hospitality,900 TINTON AVENUE,BRONX,10456,40.8218507,-73.9028489
08X561,Bronx Compass High School,1980 LAFAYETTE AVENUE,BRONX,10473,40.8213444,-73.8556733
08X562,Blueprint Middle School,1111 PUGSLEY AVENUE,BRONX,10472,40.8294144,-73.8567829
08X650,Jane Addams High School for Academic Careers,900 TINTON AVENUE,BRONX,10456,40.8218507,-73.9028489
09X004,P.S./M.S. 004 Crotona Park West,1701 FULTON AVENUE,BRONX,10457,40.8421053,-73.8974699
09X011,P.S. 011 Highbridge,1257 OGDEN AVENUE,BRONX,10452,40.8397742,-73.92579
09X022,J.H.S. 022 Jordan L. Mott,270 EAST 167 STREET,BRONX,10456,40.8332671,-73.9140498
09X028,P.S. 028 Mount Hope,1861 ANTHONY AVENUE,BRONX,10457,40.8478116,-73.9036106
09X035,P.S. 035 Franz Siegel,261 EAST 163 STREET,BRONX,10451,40.8282592,-73.9179077
09X042,P.S. 042 Claremont,1537 WASHINGTON AVENUE,BRONX,10457,40.838425,-73.9028996
09X053,P.S. 053 Basheer Quisim,360 EAST 168 STREET,BRONX,10456,40.8328343,-73.911774
09X055,P.S. 055 Benjamin Franklin,450 SAINT PAUL'S PLACE,BRONX,10456,40.8361696,-73.9049013
09X058,P.S. 058,459 EAST 176 STREET,BRONX,10457,40.8461563,-73.899126
09X063,P.S. 063 Author's Academy,1260 FRANKLIN AVENUE,BRONX,10456,40.8308718,-73.9018842
09X064,P.S. 064 Pura Belpre,1425 WALTON AVENUE,BRONX,10452,40.8403989,-73.915917
09X070,P.S. 070 Max Schoenfeld,1691 WEEKS AVENUE,BRONX,10457,40.8442869,-73.9076131
09X073,P.S. 073 Bronx,1020 ANDERSON AVENUE,BRONX,10452,40.832616,-73.9265564
09X088,P.S. X088 - S. Silverstein Little Sparrow School,1340 SHERIDAN AVENUE,BRONX,10456,40.8370196,-73.9135492
09X109,P.S. 109 Sedgwick,1771 POPHAM AVENUE,BRONX,10453,40.8516049,-73.9186962
09X110,P.S. 110 Theodore Schoenfeld,580 CROTONA PARK SOUTH,BRONX,10456,40.834473,-73.900639
09X114,P.S. X114 - Luis Llorens Torres Schools,1155 CROMWELL AVENUE,BRONX,10452,40.8350174,-73.9232069
09X117,I.S. 117 Joseph H. Wade,1865 MORRIS AVENUE,BRONX,10453,40.8485532,-73.9084353
09X126,P.S. 126 Dr Marjorie H Dunbar,175 WEST 166 STREET,BRONX,10452,40.8360666,-73.9283851
09X128,Mott Hall III,580 CROTONA PARK SOUTH,BRONX,10456,40.834473,-73.900639
09X132,P.S. 132 Garret A. Morgan,1245 WASHINGTON AVENUE,BRONX,10456,40.8320299,-73.9067697
09X145,J.H.S. 145 Arturo Toscanini,1000 TELLER AVENUE,BRONX,10456,40.8277475,-73.9137728
09X163,P.S. 163 Arthur A. Schomburg,2075 WEBSTER AVENUE,BRONX,10457,40.851697,-73.899012
09X170,P.S. 170,1598 TOWNSEND AVENUE,BRONX,10452,40.8445236,-73.9132748
09X199,P.S. 199X - The Shakespeare School,1449 SHAKESPEARE AVENUE,BRONX,10452,40.8435447,-73.9203737
09X204,P.S. 204 Morris Heights,1780 DR. MARTIN LUTHER KING JR. BLVD,BRONX,10453,40.8500875,-73.915404
09X215,Kappa,3630 THIRD AVENUE,BRONX,10456,40.8338896,-73.9038894
09X218,P.S./I.S. 218 Rafael Hernandez Dual Language Magnet School,1220 GERARD AVENUE,BRONX,10452,40.8356426,-73.9195808
09X219,I.S. 219 New Venture School,3630 THIRD AVENUE,BRONX,10456,40.8338896,-73.9038894
09X227,Bronx Collegiate Academy,240 EAST 172 STREET,BRONX,10457,40.8396545,-73.911386
09X229,I.S. 229 Roland Patterson,275 HARLEM RIVER PARK BRIDGE,BRONX,10453,40.8415626,-73.9296045
09X230,P.S. 230 Dr Roland N. Patterson,275 HARLEM RIVER PARK BRIDGE,BRONX,10453,40.8415626,-73.9296045
09X231,Eagle Academy for Young Men,4143 THIRD AVENUE,BRONX,10457,40.845264,-73.897176
09X232,I.S. 232,1700 MACOMBS ROAD,BRONX,10453,40.8493122,-73.915653
09X236,P.S. 236 Langston Hughes,1871 WALTON AVENUE,BRONX,10453,40.8488973,-73.9095473
09X239,"Urban Assembly Academy for History and Citizenship for Young Men, The",240 EAST 172 STREET,BRONX,10457,40.8396545,-73.911386
09X241,"Urban Assembly School for Applied Math and Science, The",1595 BATHGATE AVENUE,BRONX,10457,40.8396148,-73.9017332
09X250,Eximius College Preparatory Academy: A College Board School,1363 FULTON AVENUE,BRONX,10456,40.8339721,-73.9027472
09X252,Mott Hall Bronx High School,1595 BATHGATE AVENUE,BRONX,10457,40.8396148,-73.9017332
09X260,Bronx Center for Science and Mathematics,1363 FULTON AVENUE,BRONX,10456,40.8339721,-73.9027472
09X263,Validus Preparatory Academy: An Expeditionary Learning School,1595 BATHGATE AVENUE,BRONX,10457,40.8396148,-73.9017332
09X274,The New American Academy at Roberto Clemente State Park,275 HARLEM RIVER PARK BRIDGE,BRONX,10453,40.8415626,-73.9296045
09X276,Leadership Institute,1701 FULTON AVENUE,BRONX,10457,40.8421053,-73.8974699
09X294,The Walton Avenue School,1425 WALTON AVENUE,BRONX,10452,40.8403989,-73.915917
09X297,Morris Academy for Collaborative Studies,1110 BOSTON ROAD,BRONX,10456,40.8280156,-73.9040235
09X303,I.S. X303 Leadership & Community Service,1700 MACOMBS ROAD,BRONX,10453,40.8493122,-73.915653
09X311,Lucero Elementary School,1425 WALTON AVENUE,BRONX,10452,40.8403989,-73.915917
09X313,I.S. 313 School of Leadership Development,1600 WEBSTER AVENUE,BRONX,10457,40.840589,-73.9045399
09X323,Bronx Writing Academy,270 EAST 167 STREET,BRONX,10456,40.8332671,-73.9140498
09X324,Bronx Early College Academy for Teaching & Learning,250 EAST 164 STREET,BRONX,10456,40.828745,-73.9177374
09X325,Urban Science Academy,1000 TELLER AVENUE,BRONX,10456,40.8277475,-73.9137728
09X327,Comprehensive Model School Project M.S. 327,1501 JEROME AVENUE,BRONX,10452,40.8428109,-73.916384
09X328,New Millennium Business Academy Middle School,1000 TELLER AVENUE,BRONX,10456,40.8277475,-73.9137728
09X329,DreamYard Preparatory School,240 EAST 172 STREET,BRONX,10457,40.8396545,-73.911386
09X339,I.S. 339,1600 WEBSTER AVENUE,BRONX,10457,40.840589,-73.9045399
09X350,New Directions Secondary School,240 EAST 172 STREET,BRONX,10457,40.8396545,-73.911386
09X361,The Highbridge Green School,200 West 167th Street,Bronx,10452,40.8390438,-73.9282724
09X365,Academy for Language and Technology,1700 MACOMBS ROAD,BRONX,10453,40.8493122,-73.915653
09X403,Bronx International High School,1110 BOSTON ROAD,BRONX,10456,40.8280156,-73.9040235
09X404,School for Excellence,1110 BOSTON ROAD,BRONX,10456,40.8280156,-73.9040235
09X412,Bronx High School of Business,240 EAST 172 STREET,BRONX,10457,40.8396545,-73.911386
09X413,Bronx High School for Medical Science,240 EAST 172 STREET,BRONX,10457,40.8396545,-73.911386
09X414,Jonathan Levin High School for Media and Communications,240 EAST 172 STREET,BRONX,10457,40.8396545,-73.911386
09X443,The Family School,1116 SHERIDAN AVENUE,BRONX,10456,40.8322284,-73.9174942
09X449,Grant Avenue Elementary School,250 EAST 164 STREET,BRONX,10456,40.828745,-73.9177374
09X454,Science and Technology Academy: A Mott Hall School,250 EAST 164 STREET,BRONX,10456,40.828745,-73.9177374
09X457,Sheridan Academy for Young Leaders,1116 SHERIDAN AVENUE,BRONX,10456,40.8322284,-73.9174942
09X505,"Bronx School for Law, Government and Justice",244 EAST 163 STREET,BRONX,10451,40.8275634,-73.9185667
09X517,Frederick Douglass Academy III Secondary School,3630 THIRD AVENUE,BRONX,10456,40.8338896,-73.9038894
09X525,Bronx Leadership Academy High School,1710 WEBSTER AVENUE,BRONX,10457,40.8433729,-73.9030014
09X543,High School for Violin and Dance,1110 BOSTON ROAD,BRONX,10456,40.8280156,-73.9040235
09X555,Mount Eden Children's Academy,1501 JEROME AVENUE,BRONX,10452,40.8428109,-73.916384
09X564,Claremont International HS,240 EAST 172 STREET,BRONX,10457,40.8396545,-73.911386
09X568,Young Women's Leadership School of the Bronx,1865 MORRIS AVENUE,BRONX,10453,40.8485532,-73.9084353
10X003,P.S. 3 Raul Julia Micro Society,2100 LAFONTAINE AVENUE,BRONX,10457,40.8499341,-73.8922426
10X007,P.S. 007 Kingsbridge,3201 KINGSBRIDGE AVENUE,BRONX,10463,40.881546,-73.905683
10X008,P.S. 008 Issac Varian,3010 BRIGGS AVENUE,BRONX,10458,40.872244,-73.883336
10X009,P.S. 9 Ryer Avenue Elementary School,230 EAST 183 STREET,BRONX,10458,40.8568025,-73.8989065
10X015,P.S. X015 Institute for Environmental Learning,2195 ANDREWS AVENUE,BRONX,10453,40.8591662,-73.9098193
10X020,P.S. 20 P.O.George J. Werdan III,3050 WEBSTER AVENUE,BRONX,10467,40.8700644,-73.8786331
10X023,P.S. 023 The New Children's School,2151 WASHINGTON AVENUE,BRONX,10457,40.8532108,-73.8945818
10X024,P.S. 024 Spuyten Duyvil,660 WEST 236 STREET,BRONX,10463,40.8871507,-73.9135755
10X032,P.S. 032 Belmont,690 EAST 183 STREET,BRONX,10458,40.852095,-73.8857389
10X033,P.S. 033 Timothy Dwight,2424 JEROME AVENUE,BRONX,10468,40.8620323,-73.9016544
10X037,P.S. X037 - Multiple Intelligence School,360 WEST 230 STREET,BRONX,10463,40.879985,-73.9102922
10X045,Thomas C. Giordano Middle School 45,2502 LORILLARD PLACE,BRONX,10458,40.858388,-73.88701
10X046,P.S. 046 Edgar Allan Poe,279 EAST 196 STREET,BRONX,10458,40.8667831,-73.8905226
10X051,P.S. 051 Bronx New School,695 EAST 182ND STREET,BRONX,10457,40.8506915,-73.886598
10X054,P.S. / I.S. 54,2703 WEBSTER AVENUE,BRONX,10458,40.864875,-73.887921
10X056,P.S. 056 Norwood Heights,341 EAST 207 STREET,BRONX,10467,40.875481,-73.874889
10X059,P.S. 059 The Community School of Technology,2185 BATHGATE AVENUE,BRONX,10457,40.8527292,-73.8935712
10X080,J.H.S. 080 The Mosholu Parkway,149 EAST MOSHOLU PKWY,BRONX,10467,40.87683,-73.881236
10X081,P.S. 081 Robert J. Christen,5550 RIVERDALE AVENUE,BRONX,10471,40.9036861,-73.9050377
10X085,P.S. 085 Great Expectations,2400 MARION AVENUE,BRONX,10458,40.858659,-73.894685
10X086,P.S. 086 Kingsbridge Heights,2756 RESERVOIR AVENUE,BRONX,10468,40.8692148,-73.8978966
10X091,P.S. 091 Bronx,2200 AQUEDUCT AVENUE,BRONX,10453,40.8575378,-73.9077297
10X094,P.S. 094 Kings College School,3530 KINGS COLLEGE PLACE,BRONX,10467,40.8805392,-73.875712
10X095,P.S. 095 Sheila Mencher,3961 HILLMAN AVENUE,BRONX,10463,40.8830219,-73.891672
10X118,J.H.S. 118 William W. Niles,577 EAST 179 STREET,BRONX,10457,40.8484117,-73.8931213
10X141,Riverdale / Kingsbridge Academy (Middle School / High School 141),660 WEST 237 STREET,BRONX,10463,40.8874319,-73.914128
10X159,P.S. 159 Luis Munoz Marin Biling,2315 WASHINGTON AVENUE,BRONX,10458,40.855526,-73.8929206
10X205,P.S. 205 Fiorello Laguardia,2475 SOUTHERN BOULEVARD,BRONX,10458,40.8558604,-73.8812143
10X206,I.S. 206 Ann Mersereau,2280 AQUEDUCT AVENUE,BRONX,10468,40.8597091,-73.9061491
10X207,P.S. 207,3030 GODWIN TERRACE,BRONX,10463,40.878341,-73.906221
10X209,P.S. 209,313 EAST 183RD STREET,BRONX,10458,40.8568316,-73.8976254
10X213,Bronx Engineering and Technology Academy,99 TERRACE VIEW AVENUE,BRONX,10463,40.8771416,-73.9126839
10X225,Theatre Arts Production Company School,2225 WEBSTER AVENUE,BRONX,10457,40.8546548,-73.8970362
10X226,P.S. 226,1950 SEDGWICK AVENUE,BRONX,10453,40.855344,-73.9161983
10X228,Jonas Bronck Academy,400 EAST FORDHAM ROAD,BRONX,10458,40.8613871,-73.8912139
10X237,"The Marie Curie School for Medicine, Nursing, and Health Professions",120 WEST 231 STREET,BRONX,10463,40.875627,-73.901568
10X243,West Bronx Academy for the Future,500 EAST FORDHAM ROAD,BRONX,10458,40.8595423,-73.8885964
10X244,The New School for Leadership and Journalism,120 WEST 231 STREET,BRONX,10463,40.875627,-73.901568
10X246,P.S. 246 Poe Center,2641 GRAND CONCOURSE,BRONX,10468,40.865975,-73.895314
10X254,I.S. 254,2452 WASHINGTON AVENUE,BRONX,10458,40.8589698,-73.8900805
10X264,Bronx Academy for Software Engineering (BASE),2474 CROTONA AVENUE,BRONX,10458,40.8553275,-73.8824109
10X268,Kingsbridge International High School,2780 RESERVOIR AVENUE,BRONX,10468,40.8708801,-73.8977529
10X279,"P.S. 279 Captain Manuel Rivera, Jr.",2100 WALTON AVENUE,BRONX,10453,40.8547343,-73.905064
10X280,P.S./M.S. 280 Mosholu Parkway,3202 STEUBEN AVENUE,BRONX,10467,40.877088,-73.8818035
10X284,Bronx School of Law and Finance,99 TERRACE VIEW AVENUE,BRONX,10463,40.8771416,-73.9126839
10X291,P.S. 291,2195 ANDREWS AVENUE,BRONX,10453,40.8591662,-73.9098193
10X306,P.S. 306,40 WEST TREMONT AVENUE,BRONX,10453,40.851985,-73.9104389
10X307,Luisa Pineiro Fuentes School of Science and Discovery,124 EAMES PLACE,BRONX,10468,40.869135,-73.901843
10X308,Bronx Dance Academy School,3617 BAINBRIDGE AVENUE,BRONX,10467,40.885412,-73.878047
10X310,P.S. 310 Marble Hill,260 W KINGSBRIDGE RD,BRONX,10463,40.8726299,-73.9054084
10X315,P.S. 315 Lab School,2246 JEROME AVENUE,BRONX,10453,40.857902,-73.90377
10X319,Providing Urban Learners Success In Education High School,560 EAST 179 STREET,BRONX,10457,40.848382,-73.893749
10X331,The Bronx School of Young Leaders,40 WEST TREMONT AVENUE,BRONX,10453,40.851985,-73.9104389
10X340,P.S. 340,25 WEST 195 STREET,BRONX,10468,40.8694289,-73.897161
10X342,International School for Liberal Arts,2780 RESERVOIR AVENUE,BRONX,10468,40.8708801,-73.8977529
10X344,Ampark Neighborhood,3961 HILLMAN AVENUE,BRONX,10463,40.8830219,-73.891672
10X351,Bronx Collaborative High School,100 WEST MOSHOLU PARKWAY SOUTH,BRONX,10468,40.879969,-73.889011
10X353,World View High School,100 WEST MOSHOLU PARKWAY SOUTH,BRONX,10468,40.879969,-73.889011
10X360,P.S. 360,2880 KINGSBRIDGE TERRACE,BRONX,10463,40.874718,-73.902209
10X363,ACADEMY FOR PERSONAL LEADERSHIP AND EXCELLENCE,120 EAST 184 STREET,BRONX,10468,40.8597084,-73.8998823
10X368,In-Tech Academy (M.S. / High School 368),2975 TIBBETT AVENUE,BRONX,10463,40.8795978,-73.9096171
10X374,Knowledge and Power Preparatory Academy International High School (Kappa),500 EAST FORDHAM ROAD,BRONX,10458,40.8595423,-73.8885964
10X382,"Elementary School for Math, Science, and Technology",125 EAST 181 STREET,BRONX,10453,40.8549028,-73.9034198
10X386,School for Environmental Citizenship,125 EAST 181 STREET,BRONX,10453,40.8549028,-73.9034198
10X390,M.S. 390,1930 ANDREWS AVENUE,BRONX,10453,40.8542284,-73.913213
10X391,The Angelo Patri Middle School,2225 WEBSTER AVENUE,BRONX,10457,40.8546548,-73.8970362
10X396,P.S. 396,1930 ANDREWS AVENUE,BRONX,10453,40.8542284,-73.913213
10X397,English Language Learners and International Support Preparatory Academy (ELLIS),99 TERRACE VIEW AVENUE,BRONX,10463,40.8771416,-73.9126839
10X433,High School for Teaching and the Professions,2780 RESERVOIR AVENUE,BRONX,10468,40.8708801,-73.8977529
10X434,Belmont Preparatory High School,500 EAST FORDHAM ROAD,BRONX,10458,40.8595423,-73.8885964
10X437,Fordham High School for the Arts,500 EAST FORDHAM ROAD,BRONX,10458,40.8595423,-73.8885964
10X438,Fordham Leadership Academy for Business and Technology,500 EAST FORDHAM ROAD,BRONX,10458,40.8595423,-73.8885964
10X439,Bronx High School for Law and Community Service,500 EAST FORDHAM ROAD,BRONX,10458,40.8595423,-73.8885964
10X440,DeWitt Clinton High School,100 WEST MOSHOLU PARKWAY SOUTH,BRONX,10468,40.879969,-73.889011
10X442,"Celia Cruz Bronx High School of Music, The",2780 RESERVOIR AVENUE,BRONX,10468,40.8708801,-73.8977529
10X445,Bronx High School of Science,75 WEST 205 STREET,BRONX,10468,40.8776621,-73.8910553
10X447,Creston Academy,125 EAST 181 STREET,BRONX,10453,40.8549028,-73.9034198
10X459,East Fordham Academy for the Arts,120 EAST 184 STREET,BRONX,10468,40.8597084,-73.8998823
10X475,John F. Kennedy High School,99 TERRACE VIEW AVENUE,BRONX,10463,40.8771416,-73.9126839
10X477,Marble Hill High School for International Studies,99 TERRACE VIEW AVENUE,BRONX,10463,40.8771416,-73.9126839
10X524,Crotona International High School,2474 CROTONA AVENUE,BRONX,10458,40.8553275,-73.8824109
10X546,Bronx Theatre High School,99 TERRACE VIEW AVENUE,BRONX,10463,40.8771416,-73.9126839
10X549,Discovery High School,2780 RESERVOIR AVENUE,BRONX,10468,40.8708801,-73.8977529
10X565,High School for Energy and Technology,2474 CROTONA AVENUE,BRONX,10458,40.8553275,-73.8824109
10X660,Grace Dodge Career and Technical Education High School,2474 CROTONA AVENUE,BRONX,10458,40.8553275,-73.8824109
10X696,High School of American Studies at Lehman College,2925 GOULDEN AVENUE,BRONX,10468,40.8746091,-73.8950801
11X016,P.S. 016 Wakefield,4550 CARPENTER AVENUE,BRONX,10470,40.902305,-73.8547418
11X019,P.S. 019 Judith K. Weiss,4318 KATONAH AVENUE,BRONX,10470,40.8992496,-73.8674827
11X021,P.S. 021 Philip H. Sheridan,715 EAST 225 STREET,BRONX,10466,40.8876485,-73.8597946
11X041,P.S. 041 Gun Hill Road,3352 OLINVILLE AVENUE,BRONX,10467,40.874754,-73.867851
11X068,P.S. 068 Bronx,4011 MONTICELLO AVENUE,BRONX,10466,40.8918471,-73.8385257
11X076,P.S. 076 The Bennington School,900 ADEE AVENUE,BRONX,10469,40.86912,-73.860922
11X078,P.S. 078 Anne Hutchinson,1400 NEEDHAM AVENUE,BRONX,10469,40.8784782,-73.8513483
11X083,P.S. 083 Donald Hertz,950 RHINELANDER AVENUE,BRONX,10462,40.849134,-73.858757
11X087,P.S. 087 Bronx,1935 BUSSING AVENUE,BRONX,10466,40.8950748,-73.84607
11X089,P.S. 089 Bronx,980 MACE AVENUE,BRONX,10469,40.8628848,-73.8590665
11X096,P.S. 096 Richard Rodgers,650 WARING AVENUE,BRONX,10467,40.860701,-73.869005
11X097,P.S. 097 Bronx,1375 MACE AVENUE,BRONX,10469,40.8628474,-73.8467946
11X103,P.S. 103 Hector Fontanez,4125 CARPENTER AVENUE,BRONX,10466,40.8917226,-73.861712
11X105,P.S. 105 Sen Abraham Bernstein,725 BRADY AVENUE,BRONX,10462,40.8527674,-73.8664014
11X106,P.S. 106 Parkchester,2120 ST RAYMOND'S AVENUE,BRONX,10462,40.8375418,-73.8545273
11X108,P.S. 108 Philip J. Abinanti,1166 NEILL AVENUE,BRONX,10461,40.8545254,-73.853037
11X111,P.S. 111 Seton Falls,3740 BAYCHESTER AVENUE,BRONX,10466,40.884355,-73.839263
11X112,P.S. 112 Bronxwood,1925 SCHIEFFELIN AVENUE,BRONX,10466,40.884924,-73.84393
11X121,P.S. 121 Throop,2750 THROOP AVENUE,BRONX,10469,40.865942,-73.8509817
11X127,J.H.S. 127 The Castle Hill,1560 PURDY STREET,BRONX,10462,40.8380253,-73.8535544
11X142,MS 142 John Philip Sousa,3750 BAYCHESTER AVENUE,BRONX,10466,40.8844671,-73.8403074
11X144,J.H.S. 144 Michelangelo,2545 GUNTHER AVENUE,BRONX,10469,40.863836,-73.8365309
11X153,P.S. 153 Helen Keller,650 BAYCHESTER AVENUE,BRONX,10475,40.8734476,-73.8337841
11X160,P.S. 160 Walt Disney,4140 HUTCHINSON RIVER PKWAY EA,BRONX,10475,40.87347,-73.8272029
11X169,BAYCHESTER ACADEMY,3500 EDSON AVENUE,BRONX,10466,40.8809604,-73.8396427
11X175,P.S. 175 City Island,200 CITY ISLAND AVENUE,BRONX,10464,40.8437501,-73.7847839
11X178,P.S. 178 - Dr. Selman Waksman,850 BAYCHESTER AVENUE,BRONX,10475,40.8760203,-73.8337694
11X180,M.S. 180 Dr. Daniel Hale Williams,700 BAYCHESTER AVENUE,BRONX,10475,40.8737309,-73.8338088
11X181,I.S. 181 Pablo Casals,800 BAYCHESTER AVENUE,BRONX,10475,40.8755849,-73.8337905
11X189,Cornerstone Academy for Social Action,3441 STEENWICK AVENUE,BRONX,10475,40.8829987,-73.8307528
11X194,PS/MS 194,2365 WATERBURY AVE,BRONX,10462,40.8348714,-73.8460115
11X249,Bronx Health Sciences High School,750 BAYCHESTER AVENUE,BRONX,10475,40.8740855,-73.8320957
11X253,Bronx High School for Writing and Communication Arts,800 EAST GUN HILL ROAD,BRONX,10467,40.875163,-73.861653
11X265,Bronx Lab School,800 EAST GUN HILL ROAD,BRONX,10467,40.875163,-73.861653
11X270,Academy for Scholarship and Entrepreneurship: A College Board School,921 EAST 228TH STREET,BRONX,10466,40.8879098,-73.8524877
11X272,Globe School for Environmental Research,3710 BARNES AVENUE,BRONX,10467,40.880634,-73.860155
11X275,High School of Computers and Technology,800 EAST GUN HILL ROAD,BRONX,10467,40.875163,-73.861653
11X287,The Forward School,3710 BARNES AVENUE,BRONX,10467,40.880634,-73.860155
11X288,Collegiate Institute for Math and Science,925 ASTOR AVENUE,BRONX,10469,40.85964,-73.8607428
11X289,The Young Scholars Academy of The Bronx,3710 BARNES AVENUE,BRONX,10467,40.880634,-73.860155
11X290,Bronx Academy of Health Careers,800 EAST GUN HILL ROAD,BRONX,10467,40.875163,-73.861653
11X299,Astor Collegiate Academy,925 ASTOR AVENUE,BRONX,10469,40.85964,-73.8607428
11X322,Aspire Preparatory Middle School,2441 WALLACE AVENUE,BRONX,10467,40.8620602,-73.8645884
11X326,Bronx Green Middle School,2441 WALLACE AVENUE,BRONX,10467,40.8620602,-73.8645884
11X355,Bronx Alliance Middle School,3750 BAYCHESTER AVENUE,BRONX,10466,40.8844671,-73.8403074
11X357,Young Voices Academy of the Bronx,800 LYDIG AVENUE,BRONX,10462,40.8544104,-73.8638343
11X370,School of Diplomacy,3710 BARNES AVENUE,BRONX,10467,40.880634,-73.860155
11X415,Christopher Columbus High School,925 ASTOR AVENUE,BRONX,10469,40.85964,-73.8607428
11X418,Bronx High School for the Visual Arts,2040 ANTIN PL,BRONX,10462,40.8517465,-73.8645056
11X455,Harry S Truman High School,750 BAYCHESTER AVENUE,BRONX,10475,40.8740855,-73.8320957
11X462,Cornerstone Academy for Social Action Middle School (CASA),3441 STEENWICK AVENUE,BRONX,10475,40.8829987,-73.8307528
11X468,Pelham Academy of Academics and Community Engagement,2441 WALLACE AVENUE,BRONX,10467,40.8620602,-73.8645884
11X498,PS/MS 11X498 - VAN NEST ACADEMY,1640 BRONXDALE AVE,BRONX,10462,40.8445336,-73.8580593
11X508,Bronxdale High School,925 ASTOR AVENUE,BRONX,10469,40.85964,-73.8607428
11X509,High School of Language and Innovation,925 ASTOR AVENUE,BRONX,10469,40.85964,-73.8607428
11X513,New World High School,921 EAST 228TH STREET,BRONX,10466,40.8879098,-73.8524877
11X514,The Bronxwood Preparatory Academy,921 EAST 228TH STREET,BRONX,10466,40.8879098,-73.8524877
11X529,One World Middle School at Edenwald,3750 BAYCHESTER AVENUE,BRONX,10466,40.8844671,-73.8403074
11X532,Baychester Middle School,3750 BAYCHESTER AVENUE,BRONX,10466,40.8844671,-73.8403074
11X541,Global Enterprise High School,925 ASTOR AVENUE,BRONX,10469,40.85964,-73.8607428
11X542,Pelham Preparatory Academy,925 ASTOR AVENUE,BRONX,10469,40.85964,-73.8607428
11X544,High School for Contemporary Arts,800 EAST GUN HILL ROAD,BRONX,10467,40.875163,-73.861653
11X545,Bronx Aerospace High School,800 EAST GUN HILL ROAD,BRONX,10467,40.875163,-73.861653
11X556,Bronx Park Middle School,2441 WALLACE AVENUE,BRONX,10467,40.8620602,-73.8645884
11X566,Pelham Gardens Middle School,2545 GUNTHER AVENUE,BRONX,10469,40.863836,-73.8365309
11X567,Linden Tree Elementary School,1560 PURDY STREET,BRONX,10462,40.8380253,-73.8535544
12X006,P.S. 006 West Farms,1000 EAST TREMONT AVENUE,BRONX,10460,40.8406606,-73.8814381
12X044,P.S. 044 David C. Farragut,1825 PROSPECT AVENUE,BRONX,10457,40.8422788,-73.8909154
12X047,P.S. 047 John Randolph,1794 EAST 172 STREET,BRONX,10472,40.8325249,-73.8669819
12X050,P.S. 050 Clara Barton,1550 VYSE AVENUE,BRONX,10460,40.83421,-73.8870722
12X057,P.S. 057 Crescent,2111 CROTONA AVENUE,BRONX,10457,40.8486222,-73.8884388
12X061,P.S. 061 Francisco Oller,1550 CROTONA PARK EAST,BRONX,10460,40.836142,-73.8927719
12X066,P.S. 066 School of Higher Expectations,1001 JENNINGS STREET,BRONX,10460,40.831533,-73.8866652
12X067,P.S. 067 Mohegan School,2024 MOHEGAN AVENUE,BRONX,10460,40.84377,-73.884191
12X092,P.S. 092 Bronx,700 EAST 179 STREET,BRONX,10457,40.8467932,-73.8899066
12X098,J.H.S. 098 Herman Ridder,1619 BOSTON ROAD,BRONX,10460,40.8358209,-73.8909833
12X102,P.S. 102 Joseph O. Loretan,1827 ARCHER STREET,BRONX,10460,40.838144,-73.866048
12X129,M.S. 129 Academy for Independent Learning and Leadership,2055 MAPES AVENUE,BRONX,10460,40.8457043,-73.8863203
12X134,P.S. 134 George F. Bristow,1330 BRISTOW STREET,BRONX,10459,40.831595,-73.894227
12X150,P.S. 150 Charles James Fox,920 EAST 167 STREET,BRONX,10459,40.82635,-73.8943677
12X190,E.S.M.T- I.S. 190,1550 CROTONA PARK EAST,BRONX,10460,40.836142,-73.8927719
12X195,P.S. 195,1250 WARD AVENUE,BRONX,10472,40.8309062,-73.877497
12X196,P.S. 196,1250 WARD AVENUE,BRONX,10472,40.8309062,-73.877497
12X211,P.S. 211,1919 PROSPECT AVENUE,BRONX,10457,40.8434011,-73.8898784
12X212,P.S. 212,1180 TINTON AVENUE,BRONX,10456,40.8286032,-73.9006087
12X214,P.S. 214,1970 WEST FARMS ROAD,BRONX,10460,40.8399392,-73.8801725
12X217,School of Performing Arts,977 FOX STREET,BRONX,10459,40.8223711,-73.89386
12X242,Mott Hall V,1551 EAST 172ND STREET,BRONX,10472,40.8316935,-73.8774638
12X248,"Metropolitan High School, The",1180 REV. J.A. POLITE AVE.,BRONX,10459,40.827719,-73.8970008
12X251,Explorations Academy,1619 BOSTON ROAD,BRONX,10460,40.8358209,-73.8909833
12X262,Performance Conservatory High School,1619 BOSTON ROAD,BRONX,10460,40.8358209,-73.8909833
12X267,Bronx Latin,800 HOME STREET,BRONX,10456,40.8271204,-73.9008891
12X271,East Bronx Academy for the Future,1716 SOUTHERN BOULEVARD,BRONX,10460,40.8368876,-73.8876377
12X273,Frederick Douglass Academy V. Middle School,2111 CROTONA AVENUE,BRONX,10457,40.8486222,-73.8884388
12X278,Peace and Diversity Academy,1180 REV. J.A. POLITE AVE.,BRONX,10459,40.827719,-73.8970008
12X286,Fannie Lou Hamer Middle School,1001 JENNINGS STREET,BRONX,10460,40.831533,-73.8866652
12X300,The School of Science and Applied Learning,2050 PROSPECT AVENUE,BRONX,10457,40.8459309,-73.8876404
12X314,Fairmont Neighborhood School,1550 VYSE AVENUE,BRONX,10460,40.83421,-73.8870722
12X316,Kappa III,2055 MAPES AVENUE,BRONX,10460,40.8457043,-73.8863203
12X318,"I.S. X318 Math, Science & Technology Through Arts",1919 PROSPECT AVENUE,BRONX,10457,40.8434011,-73.8898784
12X341,Accion Academy,1825 PROSPECT AVENUE,BRONX,10457,40.8422788,-73.8909154
12X372,Urban Assembly School for Wildlife Conservation,2024 MOHEGAN AVENUE,BRONX,10460,40.84377,-73.884191
12X383,Emolior Academy,1970 WEST FARMS ROAD,BRONX,10460,40.8399392,-73.8801725
12X384,Entrada Academy,977 FOX STREET,BRONX,10459,40.8223711,-73.89386
12X388,Pan American International High School at Monroe,1300 BOYNTON AVENUE,BRONX,10472,40.8321278,-73.8777215
12X446,Arturo A. Schomburg Satellite Academy Bronx,1010 REV. J. A. POLITE AVENUE,BRONX,10459,40.823101,-73.898273
12X463,Urban Scholars Community School,1180 TINTON AVENUE,BRONX,10456,40.8286032,-73.9006087
12X478,THE CINEMA SCHOOL,1551 EAST 172ND STREET,BRONX,10472,40.8316935,-73.8774638
12X479,Bronx Career and College Preparatory High School,800 HOME STREET,BRONX,10456,40.8271204,-73.9008891
12X480,Bronx Regional High School,1010 REV. J. A. POLITE AVENUE,BRONX,10459,40.823101,-73.898273
12X511,Bronx Envision Academy,1619 BOSTON ROAD,BRONX,10460,40.8358209,-73.8909833
12X521,The Metropolitan Soundview High School,1300 BOYNTON AVENUE,BRONX,10472,40.8321278,-73.8777215
12X531,Archer Elementary School,1827 ARCHER STREET,BRONX,10460,40.838144,-73.866048
12X536,PS 536,1827 ARCHER STREET,BRONX,10460,40.838144,-73.866048
12X550,High School of World Cultures,1300 BOYNTON AVENUE,BRONX,10472,40.8321278,-73.8777215
12X682,Fannie Lou Hamer Freedom High School,1021 JENNINGS STREET,BRONX,10460,40.8310478,-73.885602
12X684,Wings Academy,1122 EAST 180 STREET,BRONX,10460,40.8416248,-73.8751818
12X690,Monroe Academy for Business/Law,1300 BOYNTON AVENUE,BRONX,10472,40.8321278,-73.8777215
12X691,Bronx Little School,1827 ARCHER STREET,BRONX,10460,40.838144,-73.866048
12X692,Monroe Academy for Visual Arts & Design,1300 BOYNTON AVENUE,BRONX,10472,40.8321278,-73.8777215
13K003,P.S. 003 The Bedford Village,50 JEFFERSON AVENUE,BROOKLYN,11216,40.6822934,-73.9552037
13K008,P.S. 008 Robert Fulton,37 HICKS STREET,BROOKLYN,11201,40.7007522,-73.9929319
13K009,P.S. 009 Teunis G. Bergen,80 UNDERHILL AVENUE,BROOKLYN,11238,40.678424,-73.9658195
13K011,P.S. 011 Purvis J. Behan,419 WAVERLY AVENUE,BROOKLYN,11238,40.6857169,-73.966094
13K020,P.S. 020 Clinton Hill,225 ADELPHI STREET,BROOKLYN,11205,40.69133,-73.9712796
13K044,P.S. 044 Marcus Garvey,432 MONROE STREET,BROOKLYN,11221,40.6862341,-73.9408462
13K046,P.S. 046 Edward C. Blum,100 CLERMONT AVENUE,BROOKLYN,11205,40.694514,-73.971642
13K054,P.S. 054 Samuel C. Barnes,195 SANFORD STREET,BROOKLYN,11205,40.6926969,-73.952501
13K056,P.S. 056 Lewis H. Latimer,170 GATES AVENUE,BROOKLYN,11238,40.6848318,-73.9607226
13K067,P.S. 067 Charles A. Dorsey,51 SAINT EDWARDS STREET,BROOKLYN,11205,40.6940695,-73.9776528
13K093,P.S. 093 William H. Prescott,31 NEW YORK AVENUE,BROOKLYN,11216,40.6790404,-73.9468416
13K103,Satellite Three,170 GATES AVENUE,BROOKLYN,11238,40.6848318,-73.9607226
13K113,M.S. 113 Ronald Edmonds Learning Center,300 ADELPHI STREET,BROOKLYN,11205,40.6884318,-73.971169
13K133,P.S. 133 William A. Butler,610 BALTIC STREET,BROOKLYN,11217,40.6804642,-73.9806189
13K256,P.S. 256 Benjamin Banneker,114 KOSCIUSKO STREET,BROOKLYN,11216,40.6906339,-73.9495229
13K265,Dr. Susan S. McKinney Secondary School of the Arts,101 PARK AVENUE,BROOKLYN,11205,40.6967378,-73.9760388
13K266,M.S. K266 - Park Place Community Middle School,62 PARK PLACE,BROOKLYN,11217,40.6788089,-73.9767367
13K270,P.S. 270 Johann DeKalb,241 EMERSON PLACE,BROOKLYN,11205,40.6896647,-73.9611647
13K282,P.S. 282 Park Slope,180 6 AVENUE,BROOKLYN,11217,40.6765933,-73.9777542
13K287,P.S. 287 Bailey K. Ashford,50 NAVY STREET,BROOKLYN,11201,40.6978131,-73.980988
13K301,Satellite East Middle School,344 MONROE STREET,BROOKLYN,11216,40.6861253,-73.9447582
13K305,P.S. 305 Dr. Peter Ray,344 MONROE STREET,BROOKLYN,11216,40.6861253,-73.9447582
13K307,P.S. 307 Daniel Hale Williams,209 YORK STREET,BROOKLYN,11201,40.7017809,-73.981587
13K313,Satellite West Middle School,209 YORK STREET,BROOKLYN,11201,40.7017809,-73.981587
13K350,Urban Assembly High School of Music and Art,49 FLATBUSH AVENUE EXTENSION,BROOKLYN,11201,40.697313,-73.9846925
13K351,The Urban Assembly Unison School,170 GATES AVENUE,BROOKLYN,11238,40.6848318,-73.9607226
13K412,"Brooklyn Community High School of Communication, Arts and Media",300 WILLOUGHBY AVENUE,BROOKLYN,11205,40.6925346,-73.9583036
13K419,"Science Skills Center High School for Science, Technology and the Creative Arts",49 FLATBUSH AVENUE EXTENSION,BROOKLYN,11201,40.697313,-73.9846925
13K430,Brooklyn Technical High School,29 FT GREENE PLACE,BROOKLYN,11217,40.6888729,-73.9764096
13K439,Brooklyn International High School,49 FLATBUSH AVENUE EXTENSION,BROOKLYN,11201,40.697313,-73.9846925
13K483,The Urban Assembly School for Law and Justice,283 ADAMS STREET,BROOKLYN,11201,40.6946578,-73.9883234
13K492,Academy of Arts and Letters,225 ADELPHI STREET,BROOKLYN,11205,40.69133,-73.9712796
13K499,ACORN Community High School,561 GRAND AVENUE,BROOKLYN,11238,40.6785497,-73.9618773
13K527,Urban Assembly Institute of Math and Science for Young Women,283 ADAMS STREET,BROOKLYN,11201,40.6946578,-73.9883234
13K553,Brooklyn Academy High School,832 MARCY AVENUE,BROOKLYN,11216,40.6847358,-73.9480217
13K575,Bedford Stuyvesant Preparatory High School,832 MARCY AVENUE,BROOKLYN,11216,40.6847358,-73.9480217
13K595,Bedford Academy High School,1119 BEDFORD AVENUE,BROOKLYN,11216,40.6854319,-73.9540245
13K596,MS 596 Peace Academy,300 WILLOUGHBY AVENUE,BROOKLYN,11205,40.6925346,-73.9583036
13K605,George Westinghouse Career and Technical Education High School,105 JOHNSON STREET,BROOKLYN,11201,40.6956553,-73.985831
13K616,Brooklyn High School for Leadership and Community Service,300 WILLOUGHBY AVENUE,BROOKLYN,11205,40.6925346,-73.9583036
13K670,Benjamin Banneker Academy,71-77 CLINTON AVENUE,BROOKLYN,11205,40.695368,-73.968734
13K674,"City Polytechnic High School of Engineering, Architecture, and Technology",105 JOHNSON STREET,BROOKLYN,11201,40.6956553,-73.985831
13K691,Fort Greene Preparatory Academy,100 CLERMONT AVENUE,BROOKLYN,11205,40.694514,-73.971642
14K016,P.S. 016 Leonard Dunkly,157 WILSON STREET,BROOKLYN,11211,40.7058107,-73.962046
14K017,P.S. 017 Henry D. Woodworth,208 NORTH 5 STREET,BROOKLYN,11211,40.7153919,-73.9572197
14K018,P.S. 018 Edward Bush,101 MAUJER STREET,BROOKLYN,11206,40.7106561,-73.946565
14K019,P.S. 019 Roberto Clemente,325 SOUTH 3 STREET,BROOKLYN,11211,40.7095498,-73.9543607
14K023,P.S. 023 Carter G. Woodson,545 WILLOUGHBY AVENUE,BROOKLYN,11206,40.6941169,-73.947181
14K031,P.S. 031 Samuel F. Dupont,75 MESEROLE AVENUE,BROOKLYN,11222,40.726835,-73.954117
14K034,P.S. 034 Oliver H. Perry,131 NORMAN AVENUE,BROOKLYN,11222,40.7261149,-73.949718
14K050,J.H.S. 050 John D. Wells,183 SOUTH 3 STREET,BROOKLYN,11211,40.7116813,-73.9597817
14K059,P.S. 059 William Floyd,211 THROOP AVENUE,BROOKLYN,11206,40.6977036,-73.9433424
14K071,Juan Morel Campos Secondary School,215 HEYWARD STREET,BROOKLYN,11206,40.7041207,-73.9533388
14K084,P.S. 084 Jose De Diego,250 BERRY STREET,BROOKLYN,11211,40.7148218,-73.9635161
14K110,P.S. 110 The Monitor,124 MONITOR STREET,BROOKLYN,11222,40.7236058,-73.9420286
14K120,P.S. 120 Carlos Tapia,18 BEAVER STREET,BROOKLYN,11206,40.7005875,-73.9377575
14K126,John Ericsson Middle School 126,424 LEONARD STREET,BROOKLYN,11222,40.719768,-73.9484181
14K132,P.S. 132 The Conselyea School,320 MANHATTAN AVENUE,BROOKLYN,11211,40.7149656,-73.9456004
14K147,P.S. 147 Isaac Remsen,325 BUSHWICK AVENUE,BROOKLYN,11206,40.704976,-73.938767
14K157,P.S. 157 Benjamin Franklin,850 KENT AVENUE,BROOKLYN,11205,40.6954109,-73.9599623
14K196,P.S. 196 Ten Eyck,207 BUSHWICK AVENUE,BROOKLYN,11206,40.7088042,-73.9397198
14K250,P.S. 250 George H. Lindsay,108 MONTROSE AVENUE,BROOKLYN,11206,40.7069186,-73.9454194
14K257,P.S. 257 John F. Hylan,60 COOK STREET,BROOKLYN,11206,40.7028143,-73.9417293
14K297,P.S. 297 Abraham Stockton,700 PARK AVENUE,BROOKLYN,11206,40.6975593,-73.9474958
14K318,I.S. 318 Eugenio Maria De Hostos,101 WALTON STREET,BROOKLYN,11206,40.7035116,-73.9484126
14K319,P.S. 319,360 KEAP STREET,BROOKLYN,11211,40.7096641,-73.9540464
14K322,Foundations Academy,70 TOMPKINS AVENUE,BROOKLYN,11206,40.697127,-73.9466607
14K330,The Urban Assembly School for the Urban Environment,70 TOMPKINS AVENUE,BROOKLYN,11206,40.697127,-73.9466607
14K380,P.S. 380 John Wayne Elementary,370 MARCY AVENUE,BROOKLYN,11206,40.7020826,-73.9534677
14K414,Brooklyn Arbor Elementary School,325 SOUTH 3 STREET,BROOKLYN,11211,40.7095498,-73.9543607
14K449,"Brooklyn Latin School, The",223 GRAHAM AVENUE,BROOKLYN,11206,40.7103987,-73.9439711
14K454,Green School: An Academy for Environmental Careers,223 GRAHAM AVENUE,BROOKLYN,11206,40.7103987,-73.9439711
14K474,PROGRESS High School for Professional Careers,850 GRAND STREET,BROOKLYN,11211,40.712028,-73.939351
14K477,School for Legal Studies,850 GRAND STREET,BROOKLYN,11211,40.712028,-73.939351
14K478,"The High School for Enterprise, Business and Technology",850 GRAND STREET,BROOKLYN,11211,40.712028,-73.939351
14K488,Brooklyn Preparatory High School,257 NORTH 6 STREET,BROOKLYN,11211,40.715345,-73.9547924
14K558,Williamsburg High School for Architecture and Design,257 NORTH 6 STREET,BROOKLYN,11211,40.715345,-73.9547924
14K561,Williamsburg Preparatory School,257 NORTH 6 STREET,BROOKLYN,11211,40.715345,-73.9547924
14K577,Conselyea Preparatory School,208 NORTH 5 STREET,BROOKLYN,11211,40.7153919,-73.9572197
14K582,M.S. 582,207 BUSHWICK AVENUE,BROOKLYN,11206,40.7088042,-73.9397198
14K586,Lyons Community School,223 GRAHAM AVENUE,BROOKLYN,11206,40.7103987,-73.9439711
14K610,Automotive High School,50 BEDFORD AVENUE,BROOKLYN,11222,40.7224451,-73.9532235
14K614,Young Women's Leadership School of Brooklyn,325 BUSHWICK AVENUE,BROOKLYN,11206,40.704976,-73.938767
14K632,Frances Perkins Academy,50 BEDFORD AVENUE,BROOKLYN,11222,40.7224451,-73.9532235
14K685,El Puente Academy for Peace and Justice,250 HOOPER STREET,BROOKLYN,11211,40.7056895,-73.9556959
15K001,P.S. 001 The Bergen,309 47 STREET,BROOKLYN,11220,40.6491863,-74.0125239
15K010,"Magnet School of Math, Science and Design Technology",511 7 AVENUE,BROOKLYN,11215,40.6608326,-73.9860889
15K015,P.S. 015 Patrick F. Daly,71 SULLIVAN STREET,BROOKLYN,11231,40.677069,-74.0118509
15K024,P.S. 024,427 38 STREET,BROOKLYN,11232,40.65282,-74.00452
15K029,P.S. 029 John M. Harrigan,425 HENRY STREET,BROOKLYN,11201,40.6869221,-73.9978474
15K032,P.S. 032 Samuel Mills Sprole,317 HOYT STREET,BROOKLYN,11231,40.680147,-73.991127
15K038,P.S. 038 The Pacific,450 PACIFIC STREET,BROOKLYN,11217,40.6849786,-73.9828576
15K039,P.S. 039 Henry Bristow,417 6 AVENUE,BROOKLYN,11215,40.6686696,-73.982911
15K051,M.S. 51 William Alexander,350 5 AVENUE,BROOKLYN,11215,40.6722102,-73.9845767
15K058,P.S. 058 The Carroll,330 SMITH STREET,BROOKLYN,11231,40.6802717,-73.9954852
15K088,J.H.S. 088 Peter Rouget,544 7TH AVENUE,BROOKLYN,11215,40.6606685,-73.9885115
15K094,P.S. 094 The Henry Longfellow,5010 6 AVENUE,BROOKLYN,11220,40.6704534,-73.981935
15K107,P.S. 107 John W. Kimball,1301 8 AVENUE,BROOKLYN,11215,40.662939,-73.981201
15K118,The Maurice Sendak Community School,211 8TH STREET,BROOKLYN,11215,40.6709235,-73.9881125
15K124,P.S. 124 Silas B. Dutcher,515 4 AVENUE,BROOKLYN,11215,40.6674977,-73.9909946
15K130,P.S. 130 The Parkside,70 OCEAN PARKWAY,BROOKLYN,11218,40.6487556,-73.9755614
15K131,P.S. 131 Brooklyn,4305 FT HAMILTON PARKWAY,BROOKLYN,11219,40.6410276,-73.9936539
15K136,I.S. 136 Charles O. Dewey,4004 4 AVENUE,BROOKLYN,11232,40.6520789,-74.00687
15K146,P.S. 146,610 HENRY STREET,BROOKLYN,11231,40.6794323,-74.0019427
15K154,The Windsor Terrace School,1625 11 AVENUE,BROOKLYN,11215,40.6571194,-73.976048
15K169,P.S. 169 Sunset Park,4305 7 AVENUE,BROOKLYN,11232,40.6457849,-74.001648
15K172,P.S. 172 Beacon School of Excellence,825 4 AVENUE,BROOKLYN,11232,40.6577557,-74.0006962
15K230,P.S. 230 Doris L. Cohen,1 ALBEMARLE ROAD,BROOKLYN,11218,40.645006,-73.9809074
15K261,P.S. 261 Philip Livingston,314 PACIFIC STREET,BROOKLYN,11201,40.6872842,-73.9885452
15K295,P.S. 295,330 18 STREET,BROOKLYN,11215,40.6614113,-73.9890301
15K321,P.S. 321 William Penn,180 7 AVENUE,BROOKLYN,11215,40.6713197,-73.9779245
15K423,Brooklyn Frontiers High School,112 SCHERMERHORN STREET,BROOKLYN,11201,40.6900097,-73.9892637
15K429,Brooklyn School for Global Studies,284 BALTIC STREET,BROOKLYN,11201,40.6853525,-73.9937249
15K442,M.S. 442 Carroll Gardens School for Innovation,317 HOYT STREET,BROOKLYN,11231,40.680147,-73.991127
15K443,New Voices School of Academic & Creative Arts,330 18 STREET,BROOKLYN,11215,40.6614113,-73.9890301
15K447,The Math & Science Exploratory School,345 DEAN STREET,BROOKLYN,11217,40.6838346,-73.9803552
15K448,Brooklyn Secondary School for Collaborative Studies,610 HENRY STREET,BROOKLYN,11231,40.6794323,-74.0019427
15K462,Secondary School for Law,237 7 AVENUE,BROOKLYN,11215,40.6694296,-73.9788092
15K463,Secondary School for Journalism,237 7 AVENUE,BROOKLYN,11215,40.6694296,-73.9788092
15K464,Park Slope Collegiate,237 7 AVENUE,BROOKLYN,11215,40.6694296,-73.9788092
15K497,School for International Studies,284 BALTIC STREET,BROOKLYN,11201,40.6853525,-73.9937249
15K516,Sunset Park Avenues Elementary School,4004 4 AVENUE,BROOKLYN,11232,40.6520789,-74.00687
15K519,Cobble Hill School of American Studies,347 BALTIC STREET,BROOKLYN,11201,40.6848686,-73.99077
15K529,West Brooklyn Community High School,1053 41ST STREET,BROOKLYN,11219,40.6427052,-73.9927189
15K530,Metropolitan Corporate Academy High School,362 SCHERMERHORN STREET,BROOKLYN,11217,40.6863861,-73.9797253
15K592,Khalil Gibran International Academy,362 SCHERMERHORN STREET,BROOKLYN,11217,40.6863861,-73.9797253
15K656,Brooklyn High School of the Arts,345 DEAN STREET,BROOKLYN,11217,40.6838346,-73.9803552
15K667,Sunset Park High School,153 35TH STREET,BROOKLYN,11232,40.6560081,-74.0047975
15K676,Red Hook Neighborhood School,27 HUNTINGTON STREET,BROOKLYN,11231,40.6776105,-74.0048175
15K684,Millennium Brooklyn HS,237 7 AVENUE,BROOKLYN,11215,40.6694296,-73.9788092
15K698,South Brooklyn Community High School,173 CONOVER STREET,BROOKLYN,11231,40.6778434,-74.0141749
15K821,Sunset Park Prep,4004 4 AVENUE,BROOKLYN,11232,40.6520789,-74.00687
16K005,P.S. 005 Dr. Ronald Mcnair,820 HANCOCK STREET,BROOKLYN,11233,40.685603,-73.9232122
16K021,P.S. 021 Crispus Attucks,180 CHAUNCEY STREET,BROOKLYN,11233,40.6805329,-73.926124
16K025,P.S. 025 Eubie Blake School,787 LAFAYETTE AVENUE,BROOKLYN,11221,40.6913388,-73.9405667
16K026,P.S. 026 Jesse Owens,1014 LAFAYETTE AVENUE,BROOKLYN,11221,40.6921497,-73.9314894
16K028,P.S. 028 The Warren Prep Academy,1001 HERKIMER STREET,BROOKLYN,11233,40.678049,-73.9202524
16K035,M.S. 035 Stephen Decatur,272 MACDONOUGH STREET,BROOKLYN,11233,40.6817075,-73.9357224
16K040,P.S. 040 George W. Carver,265 RALPH AVENUE,BROOKLYN,11233,40.6804339,-73.9222257
16K057,J.H.S. 057 Whitelaw Reid,125 STUYVESANT AVENUE,BROOKLYN,11221,40.6912889,-73.9334089
16K081,P.S. 081 Thaddeus Stevens,990 DEKALB AVENUE,BROOKLYN,11221,40.6930803,-73.9351974
16K243,P.S. 243K- The Weeksville School,1580 DEAN STREET,BROOKLYN,11213,40.676079,-73.9355624
16K262,P.S. 262 El Hajj Malik El Shabazz Elementary School,500 MACON STREET,BROOKLYN,11233,40.6830545,-73.9304417
16K267,"M.S. 267 Math, Science & Technology",800 GATES AVENUE,BROOKLYN,11221,40.6880664,-73.9326769
16K308,P.S. 308 Clara Cardwell,616 QUINCY STREET,BROOKLYN,11221,40.6885061,-73.9353179
16K309,P.S. 309 The George E. Wibecan Preparatory Academy,794 MONROE STREET,BROOKLYN,11221,40.6883298,-73.924108
16K335,P.S. 335 Granville T. Woods,130 ROCHESTER AVENUE,BROOKLYN,11213,40.674051,-73.92785
16K385,"School of Business, Finance and Entrepreneurship",125 STUYVESANT AVENUE,BROOKLYN,11221,40.6912889,-73.9334089
16K393,Frederick Douglass Academy IV Secondary School,1014 LAFAYETTE AVENUE,BROOKLYN,11221,40.6921497,-73.9314894
16K455,Boys and Girls High School,1700 FULTON STREET,BROOKLYN,11213,40.6789227,-73.9316585
16K498,Brooklyn High School for Law and Technology,1396 BROADWAY,BROOKLYN,11221,40.6884532,-73.9207644
16K534,Upper School @ P.S. 25,787 LAFAYETTE AVENUE,BROOKLYN,11221,40.6913388,-73.9405667
16K584,M.S. 584,130 ROCHESTER AVENUE,BROOKLYN,11213,40.674051,-73.92785
16K594,Gotham Professional Arts Academy,265 RALPH AVENUE,BROOKLYN,11233,40.6804339,-73.9222257
16K627,Brighter Choice Community School,280 HART STREET,BROOKLYN,11206,40.6938075,-73.9410137
16K628,Brooklyn Brownstone School,272 MACDONOUGH STREET,BROOKLYN,11233,40.6817075,-73.9357224
16K636,Young Scholars' Academy for Discovery and Exploration,280 HART STREET,BROOKLYN,11206,40.6938075,-73.9410137
16K669,Research and Service High School,1700 FULTON STREET,BROOKLYN,11213,40.6789227,-73.9316585
16K681,Madiba Prep Middle School,1014 LAFAYETTE AVENUE,BROOKLYN,11221,40.6921497,-73.9314894
16K688,The Brooklyn Academy of Global Finance,125 STUYVESANT AVENUE,BROOKLYN,11221,40.6912889,-73.9334089
17K002,Parkside Preparatory Academy,655 PARKSIDE AVENUE,BROOKLYN,11226,40.6561715,-73.9515718
17K006,P.S. 006,43 SNYDER AVENUE,BROOKLYN,11226,40.6486035,-73.9566708
17K012,Dr. Jacqueline Peek-Davis School,430 HOWARD AVENUE,BROOKLYN,11233,40.6728479,-73.9197499
17K022,P.S. 022,443 ST MARKS AVENUE,BROOKLYN,11238,40.6768467,-73.9597276
17K061,M.S. 061 Dr. Gladstone H. Atwell,400 EMPIRE BOULEVARD,BROOKLYN,11225,40.6639944,-73.9493477
17K091,P.S. 091 The Albany Avenue School,532 ALBANY AVENUE,BROOKLYN,11203,40.6620429,-73.9399676
17K092,P.S. 092 Adrian Hegeman,601 PARKSIDE AVENUE,BROOKLYN,11226,40.6561076,-73.9542026
17K122,Pathways in Technology Early College High School (P-Tech),150 ALBANY AVENUE,BROOKLYN,11213,40.6753999,-73.9392054
17K138,P.S. 138 Brooklyn,760 PROSPECT PLACE,BROOKLYN,11216,40.673939,-73.951528
17K161,P.S. 161 The Crown,330 CROWN STREET,BROOKLYN,11225,40.666079,-73.949154
17K167,P.S. 167 The Parkway,1025 EASTERN PARKWAY,BROOKLYN,11213,40.6690343,-73.9343392
17K181,P.S. 181 Brooklyn,1023 NEW YORK AVENUE,BROOKLYN,11203,40.647884,-73.9460109
17K189,P.S. 189 The Bilingual Center,1100 EAST NEW YORK AVENUE,BROOKLYN,11212,40.6655107,-73.9263612
17K191,P.S. 191 Paul Robeson,1600 PARK PLACE,BROOKLYN,11233,40.671721,-73.924118
17K221,P.S. 221 Toussaint L'Ouverture,791 EMPIRE BOULEVARD,BROOKLYN,11213,40.6637059,-73.9360465
17K241,P.S. 241 Emma L. Johnston,976 PRESIDENT STREET,BROOKLYN,11225,40.6689485,-73.9606961
17K246,M.S. 246 Walt Whitman,72 VERONICA PLACE,BROOKLYN,11226,40.6483745,-73.9531324
17K249,P.S. 249 The Caton,18 MARLBOROUGH ROAD,BROOKLYN,11226,40.6498584,-73.9660851
17K289,P.S. 289 George V. Brower,900 ST MARKS AVENUE,BROOKLYN,11213,40.67424,-73.942428
17K316,P.S. 316 Elijah Stroud,750 CLASSON AVENUE,BROOKLYN,11238,40.6742826,-73.9603013
17K334,Middle School for Academic and Social Excellence,1224 PARK PLACE,BROOKLYN,11213,40.6726919,-73.9368714
17K340,I.S. 340,227 STERLING PLACE,BROOKLYN,11238,40.6759296,-73.9695412
17K352,Ebbets Field Middle School,46 MCKEEVER PLACE,BROOKLYN,11225,40.6650015,-73.9590369
17K353,Elijah Stroud Middle School,750 CLASSON AVENUE,BROOKLYN,11238,40.6742826,-73.9603013
17K354,The School of Integrated Learning,1224 PARK PLACE,BROOKLYN,11213,40.6726919,-73.9368714
17K375,P.S. 375 Jackie Robinson School,46 MCKEEVER PLACE,BROOKLYN,11225,40.6650015,-73.9590369
17K382,Academy for College Preparation and Career Exploration: A College Board School,911 FLATBUSH AVENUE,BROOKLYN,11226,40.6494913,-73.9584885
17K394,M.S. K394,188 ROCHESTER AVENUE,BROOKLYN,11213,40.672706,-73.9289299
17K397,P.S. 397 Foster-Laurie,490 FENIMORE STREET,BROOKLYN,11203,40.658658,-73.946372
17K398,P.S. 398 Walter Weaver,60 EAST 94 STREET,BROOKLYN,11212,40.6643753,-73.9278822
17K399,P.S. 399 Stanley Eugene Clark,2707 ALBERMARLE ROAD,BROOKLYN,11226,40.6480464,-73.951541
17K408,Academy of Hospitality and Tourism,911 FLATBUSH AVENUE,BROOKLYN,11226,40.6494913,-73.9584885
17K484,Ronald Edmonds Learning Center II,430 HOWARD AVENUE,BROOKLYN,11233,40.6728479,-73.9197499
17K489,W.E.B. Dubois Academic High School,402 EASTERN PARKWAY,BROOKLYN,11225,40.669295,-73.956141
17K524,International High School at Prospect Heights,883 CLASSON AVENUE,BROOKLYN,11225,40.6699561,-73.9611201
17K528,The High School for Global Citizenship,883 CLASSON AVENUE,BROOKLYN,11225,40.6699561,-73.9611201
17K531,"School for Human Rights, The",600 KINGSTON AVENUE,BROOKLYN,11203,40.658665,-73.943838
17K532,New Bridges Elementary,1025 EASTERN PARKWAY,BROOKLYN,11213,40.6690343,-73.9343392
17K533,School for Democracy and Leadership,600 KINGSTON AVENUE,BROOKLYN,11203,40.658665,-73.943838
17K537,High School for Youth and Community Development at Erasmus,911 FLATBUSH AVENUE,BROOKLYN,11226,40.6494913,-73.9584885
17K539,High School for Service & Learning at Erasmus,911 FLATBUSH AVENUE,BROOKLYN,11226,40.6494913,-73.9584885
17K543,"Science, Technology and Research Early College High School at Erasmus",911 FLATBUSH AVENUE,BROOKLYN,11226,40.6494913,-73.9584885
17K544,International Arts Business School,600 KINGSTON AVENUE,BROOKLYN,11203,40.658665,-73.943838
17K546,High School for Public Service: Heroes of Tomorrow,600 KINGSTON AVENUE,BROOKLYN,11203,40.658665,-73.943838
17K547,Brooklyn Academy of Science and the Environment,883 CLASSON AVENUE,BROOKLYN,11225,40.6699561,-73.9611201
17K548,Brooklyn School for Music & Theatre,883 CLASSON AVENUE,BROOKLYN,11225,40.6699561,-73.9611201
17K568,Brownsville Academy High School,1150 EAST NEW YORK AVENUE,BROOKLYN,11212,40.6663323,-73.924039
17K587,Middle School for the Arts,790 EAST NEW YORK AVENUE,BROOKLYN,11203,40.6624725,-73.9359541
17K590,Medgar Evers College Preparatory School,1186 CARROLL STREET,BROOKLYN,11225,40.6671654,-73.950792
17K600,Clara Barton High School,901 CLASSON AVENUE,BROOKLYN,11225,40.6691193,-73.9617434
17K625,Paul Robeson High School,150 ALBANY AVENUE,BROOKLYN,11213,40.6753999,-73.9392054
17K705,Brooklyn Arts and Science Elementary School,443 ST MARKS AVENUE,BROOKLYN,11238,40.6768467,-73.9597276
17K722,New Heights Middle School,790 EAST NEW YORK AVENUE,BROOKLYN,11203,40.6624725,-73.9359541
17K745,Brooklyn Institute for Liberal Arts,600 KINGSTON AVENUE,BROOKLYN,11203,40.658665,-73.943838
17K751,Academy for Health Careers,150 ALBANY AVENUE,BROOKLYN,11213,40.6753999,-73.9392054
17K770,P.S. 770 New American Academy,60 EAST 94 STREET,BROOKLYN,11212,40.6643753,-73.9278822
18K066,P.S. 66,845 EAST 96 STREET,BROOKLYN,11236,40.648736,-73.907064
18K068,I.S. 068 Isaac Bildersee,956 EAST 82 STREET,BROOKLYN,11236,40.6355047,-73.9107437
18K114,P.S. 114 Ryder Elementary,1077 REMSEN AVENUE,BROOKLYN,11236,40.6427414,-73.9087302
18K115,P.S. 115 Daniel Mucatel School,1500 EAST 92 STREET,BROOKLYN,11236,40.6349363,-73.8972682
18K135,P.S. 135 Sheldon A. Brookner,684 LINDEN BOULEVARD,BROOKLYN,11203,40.6536255,-73.9332208
18K208,P.S. 208 Elsa Ebeling,4801 AVENUE D,BROOKLYN,11203,40.642701,-73.9309
18K211,I.S. 211 John Wilson,1001 EAST 100 STREET,BROOKLYN,11236,40.6435042,-73.8964704
18K219,P.S. 219 Kennedy-King,1060 CLARKSON AVENUE,BROOKLYN,11212,40.658823,-73.922289
18K233,P.S. 233 Langston Hughes,9301 AVENUE B,BROOKLYN,11236,40.65163,-73.914272
18K235,P.S. 235 Lenox School,525 LENOX ROAD,BROOKLYN,11203,40.6547126,-73.9410042
18K244,P.S. 244 Richard R. Green,5404 TILDEN AVENUE,BROOKLYN,11203,40.6484359,-73.9256508
18K268,P.S. 268 Emma Lazarus,133 EAST 53 STREET,BROOKLYN,11203,40.6569262,-73.9279985
18K272,P.S. 272 Curtis Estabrook,101-24 SEAVIEW AVENUE,BROOKLYN,11236,40.6263338,-73.9005864
18K276,P.S. 276 Louis Marshall,1070 EAST 83 STREET,BROOKLYN,11236,40.6340882,-73.907939
18K279,P.S. 279 Herman Schreiber,1070 EAST 104 STREET,BROOKLYN,11236,40.6441853,-73.892678
18K285,I.S. 285 Meyer Levin,5909 BEVERLY ROAD,BROOKLYN,11203,40.647124,-73.920543
18K366,THE SCIENCE AND MEDICINE MIDDLE SCHOOL,965 EAST 107TH STREET,BROOKLYN,11236,40.6474656,-73.8918462
18K563,It Takes a Village Academy,5800 TILDEN AVENUE,BROOKLYN,11203,40.647733,-73.922202
18K566,Brooklyn Generation School,6565 FLATLANDS AVENUE,BROOKLYN,11236,40.633142,-73.917072
18K567,Brooklyn Theatre Arts High School,6565 FLATLANDS AVENUE,BROOKLYN,11236,40.633142,-73.917072
18K569,Kurt Hahn Expeditionary Learning School,5800 TILDEN AVENUE,BROOKLYN,11203,40.647733,-73.922202
18K576,Victory Collegiate High School,6565 FLATLANDS AVENUE,BROOKLYN,11236,40.633142,-73.917072
18K578,Brooklyn Bridge Academy,6565 FLATLANDS AVENUE,BROOKLYN,11236,40.633142,-73.917072
18K581,East Flatbush Community Research School,905 WINTHROP STREET,BROOKLYN,11203,40.6584338,-73.9291101
18K588,Middle School for Art and Philosophy,1084 LENOX ROAD,BROOKLYN,11212,40.658397,-73.9199304
18K589,Arts & Media Preparatory Academy,905 WINTHROP STREET,BROOKLYN,11203,40.6584338,-73.9291101
18K598,Middle School of Marketing and Legal Studies,905 WINTHROP STREET,BROOKLYN,11203,40.6584338,-73.9291101
18K617,High School for Innovation in Advertising and Media,1600 ROCKAWAY PARKWAY,BROOKLYN,11236,40.6418942,-73.8987375
18K629,Cultural Academy for the Arts and Sciences,5800 TILDEN AVENUE,BROOKLYN,11203,40.647733,-73.922202
18K633,High School for Medical Professions,1600 ROCKAWAY PARKWAY,BROOKLYN,11236,40.6418942,-73.8987375
18K635,Olympus Academy,755 EAST 100 STREET,BROOKLYN,11236,40.6455021,-73.8986851
18K637,Academy for Conservation and the Environment,6565 FLATLANDS AVENUE,BROOKLYN,11236,40.633142,-73.917072
18K642,Urban Action Academy,1600 ROCKAWAY PARKWAY,BROOKLYN,11236,40.6418942,-73.8987375
18K673,East Brooklyn Community High School,9517 KINGS HIGHWAY,BROOKLYN,11212,40.65989,-73.920661
19K007,P.S. 007 Abraham Lincoln,858 JAMAICA AVENUE,BROOKLYN,11208,40.6896725,-73.8731145
19K013,P.S. 013 Roberto Clemente,557 PENNSYLVANIA AVENUE,BROOKLYN,11207,40.6635217,-73.8937024
19K065,P.S. 065,696 JAMAICA AVENUE,BROOKLYN,11208,40.6870439,-73.8787263
19K089,P.S. 089 Cypress Hills,265 WARWICK STREET,BROOKLYN,11207,40.6772087,-73.8868023
19K108,P.S. 108 Sal Abbracciamento,200 LINWOOD STREET,BROOKLYN,11208,40.681275,-73.884339
19K149,P.S. 149 Danny Kaye,700 SUTTER AVENUE,BROOKLYN,11207,40.6697148,-73.8928276
19K158,P.S. 158 Warwick,400 ASHFORD STREET,BROOKLYN,11207,40.672581,-73.885211
19K159,P.S. 159 Isaac Pitkin,2781 PITKIN AVENUE,BROOKLYN,11208,40.676117,-73.869676
19K166,J.H.S. 166 George Gershwin,800 VAN SICLEN AVE,BROOKLYN,11207,40.660494,-73.8856719
19K171,I.S. 171 Abraham Lincoln,528 RIDGEWOOD AVENUE,BROOKLYN,11208,40.685841,-73.869429
19K174,P.S. 174 Dumont,574 DUMONT AVENUE,BROOKLYN,11207,40.6658254,-73.8975063
19K190,P.S. 190 Sheffield,590 SHEFFIELD AVENUE,BROOKLYN,11207,40.6623466,-73.8944572
19K202,P.S. 202 Ernest S. Jenkyns,982 HEGEMAN AVENUE,BROOKLYN,11208,40.6664086,-73.8765699
19K213,P.S. 213 New Lots,580 HEGEMAN AVENUE,BROOKLYN,11207,40.6605118,-73.8902658
19K214,P.S. 214 Michael Friedsam,2944 PITKIN AVENUE,BROOKLYN,11208,40.6765096,-73.8631205
19K218,J.H.S. 218 James P. Sinnott,370 FOUNTAIN AVENUE,BROOKLYN,11208,40.670026,-73.874515
19K224,P.S. 224 Hale A. Woodruff,757 WORTMAN AVENUE,BROOKLYN,11208,40.6648262,-73.8656925
19K260,P.S. 260 Breuckelen,875 WILLIAMS AVENUE,BROOKLYN,11207,40.6540083,-73.8948447
19K273,P.S. 273 Wortman,923 JEROME STREET,BROOKLYN,11207,40.6578673,-73.879289
19K290,P.S. 290 Juan Morel Campos,135 SCHENCK AVENUE,BROOKLYN,11207,40.6779316,-73.8897629
19K292,J.H.S. 292 Margaret S. Douglas,301 VERMONT STREET,BROOKLYN,11207,40.671887,-73.893453
19K302,J.H.S. 302 Rafael Cordero,350 LINWOOD STREET,BROOKLYN,11208,40.6770363,-73.8834076
19K306,P.S. 306 Ethan Allen,970 VERMONT STREET,BROOKLYN,11207,40.655395,-73.886104
19K311,Essence School,590 SHEFFIELD AVENUE,BROOKLYN,11207,40.6623466,-73.8944572
19K325,The Fresh Creek School,875 WILLIAMS AVENUE,BROOKLYN,11207,40.6540083,-73.8948447
19K328,P.S. 328 Phyllis Wheatley,330 ALABAMA AVENUE,BROOKLYN,11207,40.6685356,-73.8979392
19K345,P.S. 345 Patrolman Robert Bolden,111 BERRIMAN STREET,BROOKLYN,11208,40.676124,-73.8803287
19K346,P.S. 346 Abe Stark,1400 PENNSYLVANIA AVENUE,BROOKLYN,11239,40.6468388,-73.881661
19K364,I.S. 364 Gateway,1426 FREEPORT LOOP,BROOKLYN,11239,40.6464708,-73.8811318
19K404,Academy for Young Writers,1065 ELTON STREET,BROOKLYN,11208,40.6569291,-73.8740616
19K409,East New York Family Academy,2057 LINDEN BOULEVARD,BROOKLYN,11207,40.661095,-73.886661
19K422,Spring Creek Community School,1065 ELTON STREET,BROOKLYN,11208,40.6569291,-73.8740616
19K452,Frederick Douglass Academy VIII Middle School,1400 PENNSYLVANIA AVENUE,BROOKLYN,11239,40.6468388,-73.881661
19K502,FDNY High School for Fire and Life Safety,400 PENNSYLVANIA AVENUE,BROOKLYN,11207,40.6676012,-73.8947915
19K504,High School for Civil Rights,400 PENNSYLVANIA AVENUE,BROOKLYN,11207,40.6676012,-73.8947915
19K507,Performing Arts and Technology High School,400 PENNSYLVANIA AVENUE,BROOKLYN,11207,40.6676012,-73.8947915
19K510,World Academy for Total Community Health High School,400 PENNSYLVANIA AVENUE,BROOKLYN,11207,40.6676012,-73.8947915
19K557,Brooklyn Gardens Elementary School,574 DUMONT AVENUE,BROOKLYN,11207,40.6658254,-73.8975063
19K583,Multicultural High School,999 JAMAICA AVENUE,BROOKLYN,11208,40.69228,-73.868927
19K615,Transit Tech Career and Technical Education High School,1 WELLS STREET,BROOKLYN,11208,40.6782503,-73.8760791
19K618,Academy of Innovative Technology,999 JAMAICA AVENUE,BROOKLYN,11208,40.69228,-73.868927
19K639,Brooklyn Lab School,999 JAMAICA AVENUE,BROOKLYN,11208,40.69228,-73.868927
19K654,Van Siclen Community Middle School,800 VAN SICLEN AVE,BROOKLYN,11207,40.660494,-73.8856719
19K659,Cypress Hills Collegiate Preparatory School,999 JAMAICA AVENUE,BROOKLYN,11208,40.69228,-73.868927
19K660,W. H. Maxwell Career and Technical Education High School,145 PENNSYLVANIA AVENUE,BROOKLYN,11207,40.6738803,-73.8963614
19K661,Vista Academy,350 LINWOOD STREET,BROOKLYN,11208,40.6770363,-73.8834076
19K662,Liberty Avenue Middle School,350 LINWOOD STREET,BROOKLYN,11208,40.6770363,-73.8834076
19K663,School of the Future Brooklyn,574 DUMONT AVENUE,BROOKLYN,11207,40.6658254,-73.8975063
19K677,East New York Elementary School of Excellence,605 SHEPHERD AVENUE,BROOKLYN,11208,40.6693961,-73.8796156
19K678,East New York Middle School of Excellence,605 SHEPHERD AVENUE,BROOKLYN,11208,40.6693961,-73.8796156
19K683,"The School for Classics: An Academy of Thinkers, Writers and Peformers",370 FOUNTAIN AVENUE,BROOKLYN,11208,40.670026,-73.874515
20K030,PS/IS 30 Mary White Ovington,7002 4TH AVENUE,BROOKLYN,11209,40.6336826,-74.0239203
20K048,P.S. 048 Mapleton,6015 18 AVENUE,BROOKLYN,11204,40.6216524,-73.9876077
20K062,J.H.S. 062 Ditmas,700 CORTELYOU ROAD,BROOKLYN,11218,40.6386429,-73.9717951
20K069,P.S. 69 Vincent D. Grippo School,6302 9TH AVENUE,BROOKLYN,11220,40.6323291,-74.0097004
20K102,P.S. 102 The Bayview,211 72 STREET,BROOKLYN,11209,40.634081,-74.0292778
20K104,P.S./I.S. 104 The Fort Hamilton School,9115 5 AVENUE,BROOKLYN,11209,40.6184808,-74.0287749
20K105,P.S. 105 The Blythebourne,1031 59 STREET,BROOKLYN,11219,40.6329321,-74.0037181
20K112,P.S. 112 Lefferts Park,7115 15 AVENUE,BROOKLYN,11228,40.6195857,-74.0009875
20K127,P.S. 127 Mckinley Park,7805 7 AVENUE,BROOKLYN,11228,40.623654,-74.018435
20K160,P.S. 160 William T. Sampson,5105 Fort Hamilton Parkway,BROOKLYN,11219,40.636927,-73.999028
20K163,P.S. 163 Bath Beach,109 BAY 14TH STREET,BROOKLYN,11214,40.6068755,-74.0079697
20K164,P.S. 164 Caesar Rodney,4211 14 AVENUE,BROOKLYN,11219,40.6372942,-73.9861475
20K170,Ralph A. Fabrizio School,7109 6 AVENUE,BROOKLYN,11209,40.6003289,-73.9857337
20K176,P.S. 176 Ovington,1225 69 STREET,BROOKLYN,11219,40.6246476,-74.0054279
20K179,P.S. 179 Kensington,202 AVENUE C,BROOKLYN,11218,40.640134,-73.977256
20K180,The SEEALL Academy,5601 16 AVENUE,BROOKLYN,11204,40.6266652,-73.989612
20K185,P.S. 185 Walter Kassenbrock,8601 RIDGE BOULEVARD,BROOKLYN,11209,40.623584,-74.03342
20K186,P.S. 186 Dr. Irving A Gladstone,7601 19 AVENUE,BROOKLYN,11214,40.610915,-73.994246
20K187,The Christa McAuliffe School\I.S. 187,1171 65 STREET,BROOKLYN,11219,40.6275072,-74.0040163
20K192,P.S. 192 - The Magnet School for Math and Science Inquiry,4715 18 AVENUE,BROOKLYN,11204,40.6290084,-73.9798382
20K200,P.S. 200 Benson School,1940 BENSON AVENUE,BROOKLYN,11214,40.6031664,-74.0013907
20K201,J.H.S. 201 The Dyker Heights,8010 12 AVENUE,BROOKLYN,11228,40.619031,-74.013746
20K204,P.S. 204 Vince Lombardi,8101 15 AVENUE,BROOKLYN,11228,40.613528,-74.006117
20K205,P.S. 205 Clarion,6701 20 AVENUE,BROOKLYN,11204,40.614745,-73.986793
20K220,J.H.S. 220 John J. Pershing,4812 9TH AVENUE,BROOKLYN,11220,40.6408427,-74.0004375
20K223,J.H.S. 223 The Montauk,4200 16 AVENUE,BROOKLYN,11204,40.6349581,-73.9814523
20K227,J.H.S. 227 Edward B. Shallow,6500 16 AVENUE,BROOKLYN,11204,40.6218446,-73.9955288
20K229,P.S. 229 Dyker,1400 BENSON AVENUE,BROOKLYN,11228,40.610323,-74.013597
20K247,P.S. 247 Brooklyn,7000 21 AVENUE,BROOKLYN,11204,40.612246,-73.987193
20K259,J.H.S. 259 William Mckinley,7305 FT HAMILTON PARKWAY,BROOKLYN,11228,40.6265801,-74.0152513
20K264,P.S. 264 BAY RIDGE ELEMENTARY SCHOOL FOR THE ARTS,371 89th Street,BROOKLYN,11209,40.6209555,-74.029698
20K310,P.S. 310,942 62ND STREET,BROOKLYN,11219,40.632396,-74.0075355
20K445,New Utrecht High School,1601 80 STREET,BROOKLYN,11214,40.6134712,-74.0037419
20K485,High School of Telecommunication Arts and Technology,350 67 STREET,BROOKLYN,11220,40.6368485,-74.0231804
20K490,Fort Hamilton High School,8301 SHORE ROAD,BROOKLYN,11209,40.626814,-74.038087
20K503,PS 503: The School of Discovery,330 59 STREET,BROOKLYN,11220,40.641937,-74.019313
20K505,Franklin Delano Roosevelt High School,5800 20 AVENUE,BROOKLYN,11204,40.621284,-73.982587
20K506,P.S. 506: The School of Journalism & Technology,330 59 STREET,BROOKLYN,11220,40.641937,-74.019313
20K609,Urban Assembly School for Criminal Justice,4200 16 AVENUE,BROOKLYN,11204,40.6349581,-73.9814523
20K682,The Academy of Talented Scholars,50 AVENUE P,BROOKLYN,11204,40.6071256,-73.9871451
20K686,Brooklyn School of Inquiry,50 AVENUE P,BROOKLYN,11204,40.6071256,-73.9871451
20K748,P.S. 748 Brooklyn School for Global Scholars,1664 BENSON AVENUE,BROOKLYN,11214,40.6070846,-74.0069621
20K971,"School of Math, Science, and Healthy Living",6214 4TH AVENUE,BROOKLYN,11220,40.639525,-74.020357
21K090,P.S. 90 Edna Cohen School,2840 WEST 12 STREET,BROOKLYN,11224,40.578185,-73.9804039
21K095,P.S. 095 The Gravesend,345 VAN SICKLEN STREET,BROOKLYN,11223,40.5957112,-73.9751735
21K096,I.S. 096 Seth Low,99 AVENUE P,BROOKLYN,11204,40.607574,-73.9844512
21K097,P.S. 97 The Highlawn,1855 STILLWELL AVENUE,BROOKLYN,11223,40.6014251,-73.98613
21K098,I.S. 98 Bay Academy,1401 EMMONS AVENUE,BROOKLYN,11235,40.583352,-73.9539003
21K099,P.S. 099 Isaac Asimov,1120 EAST 10 STREET,BROOKLYN,11230,40.621463,-73.966022
21K100,P.S. 100 The Coney Island School,2951 WEST 3 STREET,BROOKLYN,11224,40.5771094,-73.9713956
21K101,P.S. 101 The Verrazano,2360 BENSON AVENUE,BROOKLYN,11214,40.5979087,-73.9917782
21K121,P.S. 121 Nelson A. Rockefeller,5301 20 AVENUE,BROOKLYN,11204,40.6233087,-73.9787755
21K128,P.S. 128 Bensonhurst,2075 84 STREET,BROOKLYN,11214,40.60496,-73.995071
21K153,P.S. 153 Homecrest,1970 HOMECREST AVENUE,BROOKLYN,11229,40.601165,-73.960011
21K177,P.S. 177 The Marlboro,346 AVENUE P,BROOKLYN,11204,40.608167,-73.974424
21K188,P.S. 188 Michael E. Berdy,3314 NEPTUNE AVENUE,BROOKLYN,11224,40.5771765,-74.0005927
21K199,P.S. 199 Frederick Wachtel,1100 ELM AVENUE,BROOKLYN,11230,40.6166128,-73.963547
21K209,P.S. 209 Margaret Mead,2609 EAST 7 STREET,BROOKLYN,11235,40.5868934,-73.9619229
21K212,P.S. 212 Lady Deborah Moody,87 BAY 49 STREET,BROOKLYN,11214,40.5877534,-73.9857901
21K215,P.S. 215 Morris H. Weiss,415 AVENUE S,BROOKLYN,11223,40.6020958,-73.9700169
21K216,P.S. 216 Arturo Toscanini,350 AVENUE X,BROOKLYN,11223,40.5905453,-73.9701106
21K225,P.S. K225 - The Eileen E. Zaglin,1075 OCEAN VIEW AVENUE,BROOKLYN,11235,40.5797915,-73.9564352
21K226,P.S. 226 Alfred De B.Mason,6006 23 AVENUE,BROOKLYN,11204,40.6152859,-73.9763223
21K228,I.S. 228 David A. Boody,228 AVENUE S,BROOKLYN,11223,40.6013021,-73.9770054
21K238,P.S. 238 Anne Sullivan,1633 EAST 8 STREET,BROOKLYN,11223,40.6087848,-73.9650626
21K239,Mark Twain I.S. 239 for the Gifted & Talented,2401 NEPTUNE AVENUE,BROOKLYN,11224,40.5784581,-73.9923972
21K253,P.S. 253,601 OCEANVIEW AVENUE,BROOKLYN,11235,40.5802217,-73.9574837
21K281,I.S. 281 Joseph B Cavallaro,8787 24 AVENUE,BROOKLYN,11214,40.5943634,-73.9939373
21K288,P.S. 288 The Shirley Tanyhill,2950 WEST 25 STREET,BROOKLYN,11224,40.5740715,-73.991903
21K303,I.S. 303 Herbert S. Eisenberg,501 WEST AVENUE,BROOKLYN,11224,40.5820446,-73.9722141
21K329,P.S. 329 Surfside,2929 WEST 30 STREET,BROOKLYN,11224,40.5745976,-73.9962757
21K337,International High School at Lafayette,2630 BENSON AVENUE,BROOKLYN,11214,40.5935726,-73.985987
21K344,Rachel Carson High School for Coastal Studies,521 WEST AVENUE,BROOKLYN,11224,40.582045,-73.972223
21K348,High School of Sports Management,2630 BENSON AVENUE,BROOKLYN,11214,40.5935726,-73.985987
21K410,Abraham Lincoln High School,2800 OCEAN PARKWAY,BROOKLYN,11235,40.5823279,-73.9681463
21K468,Kingsborough Early College School,2630 BENSON AVENUE,BROOKLYN,11214,40.5935726,-73.985987
21K525,Edward R. Murrow High School,1600 AVENUE L,BROOKLYN,11230,40.620457,-73.959961
21K540,John Dewey High School,50 AVENUE X,BROOKLYN,11223,40.5876478,-73.9814451
21K559,Life Academy High School for Film and Music,2630 BENSON AVENUE,BROOKLYN,11214,40.5935726,-73.985987
21K572,Expeditionary Learning School for Community Leaders,2630 BENSON AVENUE,BROOKLYN,11214,40.5935726,-73.985987
21K620,William E. Grady Career and Technical Education High School,25 BRIGHTON 4TH ROAD,BROOKLYN,11235,40.583249,-73.963747
21K690,Brooklyn Studio Secondary School,8310 21ST AVENUE,BROOKLYN,11214,40.6049722,-73.9943444
21K728,Liberation Diploma Plus,2865 WEST 19TH STREET,BROOKLYN,11224,40.577232,-73.9859609
22K014,J.H.S. 014 Shell Bank,2424 BATCHELDER STREET,BROOKLYN,11235,40.5934319,-73.9376636
22K052,P.S. 052 Sheepshead Bay,2675 EAST 29 STREET,BROOKLYN,11235,40.5879664,-73.9405472
22K078,J.H.S. 078 Roy H. Mann,1420 EAST 68 STREET,BROOKLYN,11234,40.6214318,-73.9131128
22K109,P.S. 109,1001 EAST 45 STREET,BROOKLYN,11203,40.6353354,-73.9335362
22K119,P.S. 119 Amersfort,3829 AVENUE K,BROOKLYN,11210,40.6256472,-73.9385115
22K134,P.S. K134,4001 18 AVENUE,BROOKLYN,11218,40.63236,-73.9733295
22K139,P.S. 139 Alexine A. Fenty,330 RUGBY ROAD,BROOKLYN,11226,40.641318,-73.9658539
22K152,School of Science & Technology,725 EAST 23 STREET,BROOKLYN,11210,40.6323259,-73.9546723
22K193,P.S. 193 Gil Hodges,2515 AVENUE L,BROOKLYN,11210,40.622063,-73.950327
22K194,P.S. 194 Raoul Wallenberg,3117 AVENUE W,BROOKLYN,11229,40.5967651,-73.9334314
22K195,P.S. 195 Manhattan Beach,131 IRWIN STREET,BROOKLYN,11235,40.5795278,-73.9438116
22K197,P.S. 197 - The Kings Highway Academy,1599 EAST 22 STREET,BROOKLYN,11210,40.6111184,-73.9516203
22K198,P.S. 198 Brooklyn,4105 FARRAGUT ROAD,BROOKLYN,11210,40.6369349,-73.9374647
22K203,P.S. 203 Floyd Bennett School,5101 AVENUE M,BROOKLYN,11234,40.6214177,-73.9261416
22K206,P.S. 206 Joseph F Lamb,2200 GRAVESEND NECK ROAD,BROOKLYN,11229,40.597334,-73.949034
22K207,P.S. 207 Elizabeth G. Leary,4011 FILLMORE AVENUE,BROOKLYN,11234,40.613513,-73.9298869
22K217,P.S. 217 Colonel David Marcus School,1100 NEWKIRK AVENUE,BROOKLYN,11230,40.6340585,-73.9663231
22K222,P.S. 222 Katherine R. Snyder,3301 QUENTIN ROAD,BROOKLYN,11234,40.6132552,-73.9389747
22K234,J.H.S. 234 Arthur W. Cunningham,1875 EAST 17 STREET,BROOKLYN,11229,40.6050652,-73.9556519
22K236,P.S. 236 Mill Basin,6302 AVENUE U,BROOKLYN,11234,40.6158515,-73.9126625
22K240,Andries Hudde,2500 NOSTRAND AVENUE,BROOKLYN,11210,40.6237116,-73.9463188
22K245,P.S. 245,249 EAST 17TH STREET,BROOKLYN,11226,40.644893,-73.962727
22K251,P.S. 251 Paerdegat,1037 EAST 54 STREET,BROOKLYN,11234,40.631938,-73.92388
22K254,P.S. 254 Dag Hammarskjold,1801 AVENUE Y,BROOKLYN,11235,40.591092,-73.951555
22K255,P.S. 255 Barbara Reing School,1866 EAST 17 STREET,BROOKLYN,11229,40.6050414,-73.9556849
22K269,P.S. 269 Nostrand,1957 NOSTRAND AVENUE,BROOKLYN,11210,40.637666,-73.947676
22K277,P.S. 277 Gerritsen Beach,2529 GERRITSEN AVENUE,BROOKLYN,11229,40.595958,-73.927935
22K278,J.H.S. 278 Marine Park,1925 STUART STREET,BROOKLYN,11229,40.6069992,-73.9395784
22K312,P.S. 312 Bergen Beach,7103 AVENUE T,BROOKLYN,11234,40.6216163,-73.9086769
22K315,P.S. K315,2310 GLENWOOD ROAD,BROOKLYN,11210,40.632619,-73.954263
22K326,P.S. 326,1800 UTICA AVENUE,BROOKLYN,11234,40.6284393,-73.9279257
22K361,P.S. 361 East Flatbush Early Childhood School,3109 NEWKIRK AVENUE,BROOKLYN,11226,40.6400676,-73.9473626
22K381,I. S. 381,1599 EAST 22 STREET,BROOKLYN,11210,40.6111184,-73.9516203
22K405,Midwood High School,2839 BEDFORD AVENUE,BROOKLYN,11210,40.632889,-73.952536
22K425,James Madison High School,3787 BEDFORD AVENUE,BROOKLYN,11229,40.6096811,-73.9484688
22K495,Sheepshead Bay High School,3000 AVENUE X,BROOKLYN,11235,40.59314,-73.936638
22K535,Leon M. Goldstein High School for the Sciences,1830 SHORE BOULEVARD,BROOKLYN,11235,40.5808957,-73.9351412
22K555,Brooklyn College Academy,350 CONEY ISLAND AVENUE,BROOKLYN,11218,40.6492519,-73.9719119
22K611,Origins High School,3000 AVENUE X,BROOKLYN,11235,40.59314,-73.936638
22K630,Professional Pathways High School,3000 AVENUE X,BROOKLYN,11235,40.59314,-73.936638
23K041,P.S. 041 Francis White,411 THATFORD AVENUE,BROOKLYN,11212,40.6604389,-73.906932
23K073,P.S. 073 Thomas S. Boyland,251 MCDOUGAL STREET,BROOKLYN,11233,40.6802936,-73.9108853
23K137,P.S./I.S. 137 Rachel Jean Mitchell,121 SARATOGA AVENUE,BROOKLYN,11233,40.682234,-73.916631
23K150,P.S. 150 Christopher,364 SACKMAN STREET,BROOKLYN,11212,40.6689046,-73.9047039
23K155,P.S./ I.S. 155 Nicholas Herkimer,1355 HERKIMER STREET,BROOKLYN,11233,40.6774159,-73.9087675
23K156,P.S. 156 Waverly,104 SUTTER AVENUE,BROOKLYN,11212,40.6659512,-73.9181332
23K165,P.S. 165 Ida Posner,76 LOTT AVENUE,BROOKLYN,11212,40.6574242,-73.9110918
23K178,P.S. 178 Saint Clair Mckelway,2163 DEAN STREET,BROOKLYN,11233,40.6750086,-73.9155436
23K184,P.S. 184 Newport,273 NEWPORT STREET,BROOKLYN,11212,40.660369,-73.905005
23K284,P.S. 284 Lew Wallace,213 OSBORN STREET,BROOKLYN,11212,40.6670574,-73.9077983
23K298,P.S. 298 Dr. Betty Shabazz,85 WATKINS STREET,BROOKLYN,11212,40.671004,-73.907738
23K323,P.S./I.S. 323,210 CHESTER STREET,BROOKLYN,11212,40.6661829,-73.911268
23K327,P.S. 327 Dr. Rose B. English,111 BRISTOL STREET,BROOKLYN,11212,40.6687773,-73.9124411
23K332,P.S. 332 Charles H. Houston,51 CHRISTOPHER AVENUE,BROOKLYN,11212,40.6724303,-73.9062459
23K363,Brownsville Collaborative Middle School,85 WATKINS STREET,BROOKLYN,11212,40.671004,-73.907738
23K392,I.S. 392,104 SUTTER AVENUE,BROOKLYN,11212,40.6659512,-73.9181332
23K401,Christopher Avenue Community School,51 CHRISTOPHER AVENUE,BROOKLYN,11212,40.6724303,-73.9062459
23K446,Riverdale Avenue Community School,76 RIVERDALE AVENUE,BROOKLYN,11212,40.6601863,-73.914011
23K493,Brooklyn Collegiate: A College Board School,2021 BERGEN STREET,BROOKLYN,11233,40.6741215,-73.9135679
23K514,Frederick Douglass Academy VII High School,226 BRISTOL STREET,BROOKLYN,11212,40.6657215,-73.9116714
23K518,Kappa V,985 ROCKAWAY AVENUE,BROOKLYN,11212,40.6562927,-73.9073241
23K522,Mott Hall IV,1137 HERKIMER STREET,BROOKLYN,11233,40.6779834,-73.915842
23K599,Brooklyn Landmark Elementary School,251 MCDOUGAL STREET,BROOKLYN,11233,40.6802936,-73.9108853
23K631,General D. Chappie James Elementary School of Science,76 RIVERDALE AVENUE,BROOKLYN,11212,40.6601863,-73.914011
23K634,General D. Chappie James Middle School of Science,76 RIVERDALE AVENUE,BROOKLYN,11212,40.6601863,-73.914011
23K643,Brooklyn Democracy Academy,985 ROCKAWAY AVENUE,BROOKLYN,11212,40.6562927,-73.9073241
23K644,Eagle Academy for Young Men II,1137 HERKIMER STREET,BROOKLYN,11233,40.6779834,-73.915842
23K646,Aspirations Diploma Plus High School,1495 HERKIMER STREET,BROOKLYN,11233,40.677507,-73.90415
23K647,Metropolitan Diploma Plus High School,985 ROCKAWAY AVENUE,BROOKLYN,11212,40.6562927,-73.9073241
23K664,Brooklyn Environmental Exploration School (BEES),251 MCDOUGAL STREET,BROOKLYN,11233,40.6802936,-73.9108853
23K668,Riverdale Avenue Middle School,76 RIVERDALE AVENUE,BROOKLYN,11212,40.6601863,-73.914011
23K671,Mott Hall Bridges Academy,210 CHESTER STREET,BROOKLYN,11212,40.6661829,-73.911268
23K697,Teachers Preparatory High School,226 BRISTOL STREET,BROOKLYN,11212,40.6657215,-73.9116714
24Q005,I.S. 5 - The Walter Crowley Intermediate School,50-40 JACOBUS STREET,QUEENS,11373,40.737383,-73.888148
24Q007,P.S. 007 Louis F. Simeone,80-55 CORNISH AVENUE,QUEENS,11373,40.7397494,-73.8825748
24Q012,P.S. 012 James B. Colgate,42-00 72 STREET,QUEENS,11377,40.736557,-73.8923403
24Q013,P.S. 013 Clement C. Moore,55-01 94 STREET,QUEENS,11373,40.7372798,-73.8679645
24Q014,P.S. 014 Fairview,107-01 OTIS AVENUE,QUEENS,11368,40.741009,-73.854579
24Q016,P.S. Q016 The Nancy DeBenedittis School,41-15 104 STREET,QUEENS,11368,40.748986,-73.860535
24Q019,P.S. 019 Marino Jeantet,98-02 ROOSEVELT AVENUE,QUEENS,11368,40.7493711,-73.8674499
24Q028,P.S. 28 - The Thomas Emanuel Early Childhood Center,109-10 47 AVENUE,QUEENS,11368,40.74701,-73.85428
24Q049,P.S. 049 Dorothy Bonawit Kole,63-60 80th Street,QUEENS,11379,40.7118014,-73.8712346
24Q058,P.S. 58 - School of Heroes,72-24 GRAND AVENUE,QUEENS,11378,40.72851,-73.890603
24Q061,I.S. 061 Leonardo Da Vinci,98-50 50 AVENUE,QUEENS,11368,40.7426637,-73.8633032
24Q068,P.S. 068 Cambridge,59-09 SAINT FELIX AVENUE,QUEENS,11385,40.696964,-73.897367
24Q071,P.S. 071 Forest,62-85 FOREST AVENUE,QUEENS,11385,40.7113951,-73.9046762
24Q073,I.S. 73 - The Frank Sansivieri Intermediate School,70-02 54 AVENUE,QUEENS,11378,40.728548,-73.893325
24Q077,I.S. 077,976 SENECA AVENUE,QUEENS,11385,40.699558,-73.9022308
24Q081,P.S. 81Q Jean Paul Richter,559 CYPRESS AVENUE,QUEENS,11385,40.7037998,-73.9119788
24Q087,P.S. / I.S. 087 Middle Village,67-54 80 STREET,QUEENS,11379,40.711906,-73.871298
24Q088,P.S. 088 Seneca,60-85 CATALPA AVENUE,QUEENS,11385,40.7040438,-73.8964732
24Q089,P.S. 089 Elmhurst,85-28 BRITTON AVENUE,QUEENS,11373,40.745942,-73.879623
24Q091,P.S. 091 Richard Arkwright,68-10 CENTRAL AVE,QUEENS,11385,40.703479,-73.883974
24Q093,I.S. 093 Ridgewood,66-56 FOREST AVENUE,QUEENS,11385,40.7062674,-73.9027466
24Q102,P.S. 102 Bayview,55-24 VAN HORN STREET,QUEENS,11373,40.7334317,-73.8777647
24Q110,PS 110,48-25 37th Street,QUEENS,11101,40.7395598,-73.9288858
24Q113,P.S./I.S. 113 Anthony J. Pranzo,78-23 87TH STREET,QUEENS,11385,40.7055732,-73.8622084
24Q119,I.S. 119 The Glendale,74-01 78 AVENUE,QUEENS,11385,40.705198,-73.875033
24Q125,I.S. 125 Thom J. McCann Woodside,46-02 47 AVENUE,QUEENS,11377,40.7408445,-73.9186741
24Q128,"P.S. 128 The Lorraine Tuzzo, Juniper Valley Elementary School",69-10 65th Drive,QUEENS,11379,40.7153443,-73.886331
24Q143,P.S. 143 Louis Armstrong,34-74 113 STREET,QUEENS,11368,40.755398,-73.855706
24Q153,P.S. 153 Maspeth Elem,60-02 60 LANE,QUEENS,11378,40.716288,-73.904467
24Q199,P.S. 199 Maurice A. Fitzgerald,39-20 48 AVENUE,QUEENS,11104,40.7399816,-73.9263768
24Q211,Elm Tree Elementary School,86-37 53RD AVENUE,QUEENS,11373,40.7358509,-73.878713
24Q229,P.S. 229 Emanuel Kaplan,67-25 51 ROAD,QUEENS,11377,40.734677,-73.897114
24Q236,International High School for Health Sciences,48-01 90 STREET,QUEENS,11373,40.7408369,-73.8739856
24Q239,P.S. 239,17-15 WEIRFIELD STREET,QUEENS,11385,40.69943,-73.903833
24Q264,Academy of Finance and Enterprise,30-20 THOMSON AVENUE,QUEENS,11101,40.7448591,-73.9369449
24Q267,High School of Applied Communication,30-20 THOMSON AVENUE,QUEENS,11101,40.7448591,-73.9369449
24Q290,A.C.E. Academy for Scholars at the Geraldine Ferraro Campus,70-02 54 AVENUE,QUEENS,11378,40.728548,-73.893325
24Q293,Civic Leadership Academy,45-10 94TH STREET,QUEENS,11373,40.743204,-73.871482
24Q296,Pan American International High School,45-10 94TH STREET,QUEENS,11373,40.743204,-73.871482
24Q299,Bard High School Early College Queens,30-20 THOMSON AVENUE,QUEENS,11101,40.7448591,-73.9369449
24Q305,Learners and Leaders,378 SENECA AVENUE,QUEENS,11385,40.7072501,-73.9152314
24Q307,Pioneer Academy,40-20 100TH STREET,QUEENS,11368,40.7396266,-73.8599658
24Q311,Corona Arts and Sciences Academy,45-10 94TH STREET,QUEENS,11373,40.743204,-73.871482
24Q330,P.S. 330,110-08 NORTHERN BOULEVARD,QUEENS,11368,40.7577101,-73.8591171
24Q455,Newtown High School,48-01 90 STREET,QUEENS,11373,40.7408369,-73.8739856
24Q485,Grover Cleveland High School,21-27 HIMROD STREET,QUEENS,11385,40.7116318,-73.9091661
24Q520,Middle College High School at LaGuardia Community College,45-35 VAN DAM STREET,QUEENS,11101,40.743285,-73.9335087
24Q530,International High School at LaGuardia Community College,45-35 VAN DAM STREET,QUEENS,11101,40.743285,-73.9335087
24Q550,High School for Arts and Business,105-25 HORACE HARDING EXPY N,QUEENS,11368,40.737637,-73.853408
24Q560,"Robert F. Wagner, Jr. Secondary School for Arts and Technology",47-07 30 PLACE,QUEENS,11101,40.7426365,-73.9363655
24Q585,Maspeth High School,54-40 74TH STREET,QUEENS,11373,40.729258,-73.8872845
24Q600,Queens Vocational and Technical High School,37-02 47 AVENUE,QUEENS,11101,40.7422208,-73.9283762
24Q610,Aviation Career & Technical Education High School,45-30 36 STREET,QUEENS,11101,40.7435907,-73.92907
24Q744,VOYAGES Preparatory,45-10 94TH STREET,QUEENS,11373,40.743204,-73.871482
24Q877,The 51 Avenue Academy (The Path To Academic Excellence),76-05 51 AVENUE,QUEENS,11373,40.737207,-73.887005
25Q020,P.S. 020 John Bowne,142-30 BARCLAY AVENUE,QUEENS,11355,40.758365,-73.8244069
25Q021,P.S. 021 Edward Hart,147-36 26 AVENUE,QUEENS,11354,40.7741682,-73.8185428
25Q022,P.S. 022 Thomas Jefferson,153-33 SANFORD AVENUE,QUEENS,11355,40.761748,-73.811379
25Q024,P.S. 024 Andrew Jackson,141-11 HOLLY AVENUE,QUEENS,11355,40.7514347,-73.8178998
25Q025,I.S. 025 Adrien Block,34-65 192 STREET,QUEENS,11358,40.7648343,-73.7897125
25Q029,P.S. 029 Queens,125-10 23 AVENUE,QUEENS,11356,40.7785882,-73.8432556
25Q032,P.S. 032 State Street,171-11 35 AVENUE,QUEENS,11358,40.765437,-73.794342
25Q079,P.S. 079 Francis Lewis,147-27 15 DRIVE,QUEENS,11357,40.7860883,-73.8123023
25Q107,P.S. 107 Thomas A Dooley,167-02 45 AVENUE,QUEENS,11358,40.75536,-73.79947
25Q120,P.S. 120 Queens,58-01 136 STREET,QUEENS,11355,40.7455932,-73.8292832
25Q129,P.S. 129 Patricia Larkin,128-02 7 AVENUE,QUEENS,11356,40.789929,-73.839501
25Q130,P.S. 130,200-01 42 AVENUE,QUEENS,11361,40.7602199,-73.783998
25Q154,P.S. 154 Queens,75-02 162 STREET,QUEENS,11366,40.7266728,-73.8070645
25Q163,P.S. 163 Flushing Heights,159-01 59 AVENUE,QUEENS,11365,40.741093,-73.808757
25Q164,P.S. 164 Queens Valley,138-01 77 AVENUE,QUEENS,11367,40.7209261,-73.8233582
25Q165,P.S. 165 Edith K. Bergtraum,70-35 150 STREET,QUEENS,11367,40.729743,-73.816957
25Q169,P.S. 169 Bay Terrace,18-25 212 STREET,QUEENS,11360,40.7823459,-73.77844
25Q184,P.S. 184 Flushing Manor,163-15 21 ROAD,QUEENS,11357,40.777691,-73.7948087
25Q185,J.H.S. 185 Edward Bleeker,147-26 25 DRIVE,QUEENS,11354,40.7752465,-73.8193894
25Q189,J.H.S. 189 Daniel Carter Beard,144-80 BARCLAY AVENUE,QUEENS,11355,40.7603471,-73.8179093
25Q193,P.S. 193 Alfred J. Kennedy,152-20 11 AVENUE,QUEENS,11357,40.7924822,-73.8095577
25Q194,J.H.S. 194 William Carr,154-60 17 AVENUE,QUEENS,11357,40.78322,-73.806977
25Q200,PS/MS 200 - The Pomonok School & STAR Academy,70-10 164 STREET,QUEENS,11365,40.731067,-73.805758
25Q201,P.S. 201 The Discovery School for Inquiry and Research,65-11 155 STREET,QUEENS,11367,40.736521,-73.813001
25Q209,P.S. 209 Clearview Gardens,16-10 UTOPIA PARKWAY,QUEENS,11357,40.7839402,-73.794795
25Q214,P.S. 214 Cadwallader Colden,31-15 140 STREET,QUEENS,11354,40.7701939,-73.82762
25Q219,P.S. 219 Paul Klapper,144-39 GRAVETT ROAD,QUEENS,11367,40.7352223,-73.824029
25Q237,I.S. 237,46-21 COLDEN STREET,QUEENS,11355,40.7494299,-73.82141
25Q240,Veritas Academy,35-01 UNION STREET,QUEENS,11354,40.764868,-73.826819
25Q241,Queens High School for Language Studies,35-01 UNION STREET,QUEENS,11354,40.764868,-73.826819
25Q242,P.S. 242 Leonard P. Stavisky Early Childhood School,29-66 137 STREET,QUEENS,11354,40.769753,-73.832001
25Q244,The Active Learning Elementary School,137-20 FRANKLIN AVENUE,QUEENS,11355,40.754465,-73.826204
25Q250,I.S. 250 The Robert F. Kennedy Community Middle School,158-40 76 ROAD,QUEENS,11366,40.724191,-73.80937
25Q252,"Queens School of Inquiry, The",158-40 76 ROAD,QUEENS,11366,40.724191,-73.80937
25Q263,Flushing International High School,144-80 BARCLAY AVENUE,QUEENS,11355,40.7603471,-73.8179093
25Q281,East-West School of International Studies,46-21 COLDEN STREET,QUEENS,11355,40.7494299,-73.82141
25Q285,World Journalism Preparatory: A College Board School,34-65 192 STREET,QUEENS,11358,40.7648343,-73.7897125
25Q294,BELL Academy,18-25 212 STREET,QUEENS,11360,40.7823459,-73.77844
25Q425,John Bowne High School,63-25 MAIN STREET,QUEENS,11367,40.7385992,-73.8239758
25Q460,Flushing High School,35-01 UNION STREET,QUEENS,11354,40.764868,-73.826819
25Q499,"The Queens College School for Math, Science and Technology",148-20 REEVES AVENUE,QUEENS,11367,40.736978,-73.8215139
25Q525,Townsend Harris High School,149-11 MELBOURNE AVENUE,QUEENS,11367,40.735017,-73.821339
25Q540,Queens Academy High School,138-11 35 AVENUE,QUEENS,11354,40.765602,-73.828293
25Q670,Robert F. Kennedy Community High School,75-40 PARSONS BOULEVARD,QUEENS,11366,40.7252991,-73.810707
25Q792,North Queens Community High School,141-25 77TH ROAD,QUEENS,11367,40.7215807,-73.8157261
26Q018,P.S. 018 Winchester,86-35 235 COURT,QUEENS,11427,40.7321665,-73.7324475
26Q026,P.S. 026 Rufus King,195-02 69 AVENUE,QUEENS,11365,40.736575,-73.778081
26Q031,P.S. 031 Bayside,211-45 46 ROAD,QUEENS,11361,40.7572552,-73.7693759
26Q041,P.S. 041 Crocheron,214-43 35 AVENUE,QUEENS,11361,40.7675759,-73.7797426
26Q046,P.S. 046 Alley Pond,64-45 218 STREET,QUEENS,11364,40.745726,-73.758047
26Q067,J.H.S. 067 Louis Pasteur,51-60 MARATHON PARKWAY,QUEENS,11362,40.762227,-73.734814
26Q074,J.H.S. 074 Nathaniel Hawthorne,61-15 OCEANIA STREET,QUEENS,11364,40.745069,-73.766796
26Q094,P.S. 094 David D. Porter,41-77 LITTLE NECK PARKWAY,QUEENS,11363,40.7709147,-73.7389879
26Q098,P.S. 098 The Douglaston School,40-20 235 STREET,QUEENS,11363,40.7821942,-73.7509726
26Q115,P.S. 115 Glen Oaks,80-51 261 STREET,QUEENS,11004,40.7440912,-73.7098443
26Q133,P.S. 133 Queens,248-05 86 AVENUE,QUEENS,11426,40.7317281,-73.7179468
26Q158,M.S. 158 Marie Curie,46-35 OCEANIA STREET,QUEENS,11361,40.7562686,-73.7729197
26Q159,P.S. 159,205-01 33 AVENUE,QUEENS,11361,40.770092,-73.7839769
26Q162,P.S. 162 John Golden,201-02 53 AVENUE,QUEENS,11364,40.748394,-73.776565
26Q172,Irwin Altman Middle School 172,81-14 257 STREET,QUEENS,11004,40.7420669,-73.7130222
26Q173,P.S. 173 Fresh Meadows,174-10 67 AVENUE,QUEENS,11365,40.7341906,-73.7953455
26Q178,P.S./ IS 178 Holliswood,189-10 RADNOR ROAD,QUEENS,11423,40.7244008,-73.7774751
26Q186,P.S. 186 Castlewood,252-12 72 AVENUE,QUEENS,11426,40.7499669,-73.7217146
26Q188,P.S. 188 Kingsbury,218-12 HARTLAND AVENUE,QUEENS,11364,40.7350641,-73.7518945
26Q191,P.S. 191 Mayflower,85-15 258 STREET,QUEENS,11001,40.734295,-73.7091227
26Q203,P.S. 203 Oakland Gardens,53-11 SPRINGFIELD BOULEVARD,QUEENS,11364,40.7535669,-73.759799
26Q205,P.S. 205 Alexander Graham Bell,75-25 BELL BOULEVARD,QUEENS,11364,40.73801,-73.756381
26Q213,P.S. 213 The Carl Ullman School,231-02 67 AVENUE,QUEENS,11364,40.747524,-73.745381
26Q216,J.H.S. 216 George J. Ryan,64-20 175 STREET,QUEENS,11365,40.7376129,-73.7940113
26Q221,P.S. 221 The North Hills School,57-40 MARATHON PARKWAY,QUEENS,11362,40.7586405,-73.7313503
26Q266,P.S. / I.S. 266,74-10 COMMONWEALTH BOULEVARD,QUEENS,11426,40.746011,-73.7283855
26Q415,Benjamin N. Cardozo High School,57-00 223RD STREET,BAYSIDE,11364,40.7518284,-73.7559837
26Q430,Francis Lewis High School,58-20 UTOPIA PARKWAY,QUEENS,11365,40.7404652,-73.7936092
26Q435,Martin Van Buren High School,230-17 HILLSIDE AVENUE,QUEENS,11427,40.73387,-73.739716
26Q495,Bayside High School,32-24 CORPORAL KENNEDY STREET,QUEENS,11361,40.771101,-73.78021
26Q566,"Queens High School of Teaching, Liberal Arts and the Sciences",74-20 COMMONWEALTH BLVD,QUEENS,11426,40.744121,-73.728799
27Q042,P.S./M.S 042 R. Vernam,488 BEACH 66 STREET,QUEENS,11692,40.5947985,-73.7953131
27Q043,P.S. 043,160 BEACH 29 STREET,QUEENS,11691,40.5944362,-73.7618313
27Q045,P.S. 045 Clarence Witherspoon,126-28 150 STREET,QUEENS,11436,40.6722982,-73.7882642
27Q047,P.S. 047 Chris Galas,9 POWER ROAD,QUEENS,11693,40.606725,-73.8201789
27Q051,P.S. 051,87-45 117 STREET,QUEENS,11418,40.6982108,-73.8319481
27Q053,M.S. 053 Brian Piccolo,10-45 NAMEOKE STREET,QUEENS,11691,40.604018,-73.749909
27Q056,P.S. 056 Harry Eichler,86-10 114 STREET,QUEENS,11418,40.6991198,-73.8352758
27Q060,P.S. 060 Woodhaven,91-02 88 AVENUE,QUEENS,11421,40.691436,-73.85279
27Q062,P. S. 62 - Chester Park School,97-25 108 STREET,QUEENS,11419,40.688633,-73.8358583
27Q063,P.S. 063 Old South,90-15 SUTTER AVENUE,QUEENS,11417,40.676967,-73.84678
27Q064,P.S. 064 Joseph P. Addabbo,82-01 101 AVENUE,QUEENS,11416,40.6811529,-73.8570119
27Q065,P.S. 65 - The Raymond York Elementary School,103-22 99 STREET,QUEENS,11417,40.682272,-73.841648
27Q066,P.S. 066 Jacqueline Kennedy Onassis,85-11 102 STREET,QUEENS,11418,40.6976896,-73.8464783
27Q090,P.S. 090 Horace Mann,86-50 109 STREET,QUEENS,11418,40.6967298,-73.839083
27Q096,P.S. 096,130-01 ROCKAWAY BOULEVARD,QUEENS,11420,40.675354,-73.80811
27Q097,P.S. 097 Forest Park,85-52 85 STREET,QUEENS,11421,40.694215,-73.860039
27Q100,P.S. 100 Glen Morris,111-11 118 STREET,QUEENS,11420,40.6722559,-73.8213165
27Q104,P.S. 104 The Bays Water,26-01 MOTT AVENUE,QUEENS,11691,40.6083067,-73.7647105
27Q105,P.S. 105 The Bay School,420 BEACH 51 STREET,QUEENS,11691,40.5957979,-73.7818592
27Q106,P.S. 106,180 BEACH 35 STREET,QUEENS,11691,40.5946809,-73.7671077
27Q108,P.S. 108 Captain Vincent G. Fowler,108-10 109 AVENUE,QUEENS,11420,40.6794554,-73.8312075
27Q114,P.S. / M.S. 114 Belle Harbor,134-01 CRONSTON AVENUE,QUEENS,11694,40.5782772,-73.8542938
27Q123,P.S. 123,145-01 119 AVENUE,QUEENS,11436,40.678902,-73.7955549
27Q124,P.S. 124 Osmond A Church,129-15 150 AVENUE,QUEENS,11420,40.665478,-73.8110933
27Q137,M.S. 137 America's School of Heroes,109-15 98 STREET,QUEENS,11417,40.678107,-73.83939
27Q146,P.S. 146 Howard Beach,98-01 159 AVENUE,QUEENS,11414,40.6598657,-73.8351564
27Q155,P.S. 155,130-02 115 AVENUE,QUEENS,11420,40.6795351,-73.8106718
27Q183,P.S. 183 Dr. Richard R. Green,2-45 BEACH 79 STREET,QUEENS,11693,40.5889357,-73.8052821
27Q197,P.S. 197 The Ocean School,825 HICKSVILLE ROAD,QUEENS,11691,40.6002014,-73.7418209
27Q202,J.H.S. 202 Robert H. Goddard,138-30 LAFAYETTE STREET,QUEENS,11417,40.6717971,-73.8449613
27Q207,P.S. 207 Rockwood Park,159-15 88 STREET,QUEENS,11414,40.657724,-73.843869
27Q210,J.H.S. 210 Elizabeth Blackwell,93-11 101 AVENUE,QUEENS,11416,40.684768,-73.847622
27Q215,P.S. 215 Lucretia Mott,535 BRIAR PLACE,QUEENS,11691,40.5991811,-73.7582983
27Q223,P.S. 223 Lyndon B. Johnson,125-20 SUTPHIN BOULEVARD,QUEENS,11434,40.674705,-73.790349
27Q226,J.H.S. 226 Virgil I. Grissom,121-10 ROCKAWAY BOULEVARD,QUEENS,11420,40.6757652,-73.8169941
27Q232,P.S. 232 Lindenwood,153-23 83 STREET,QUEENS,11414,40.6604346,-73.8498594
27Q253,P.S. 253,1307 CENTRAL AVENUE,QUEENS,11691,40.607224,-73.7488149
27Q254,P.S. 254 - The Rosa Parks School,84-40 101 STREET,QUEENS,11418,40.697177,-73.847866
27Q260,Frederick Douglass Academy VI High School,8-21 BAY 25 STREET,QUEENS,11691,40.601532,-73.763979
27Q261,Voyages Prep - South Queens,156-10 BAISLEY BOULEVARD,QUEENS,11434,40.6749885,-73.7832792
27Q262,Channel View School for Research,100-00 BEACH CHANNEL DRIVE,QUEENS,11694,40.5855534,-73.8231025
27Q273,P.S. 273,88-07 102ND STREET,QUEENS,11418,40.693489,-73.8445612
27Q282,Knowledge and Power Preparatory Academy VI,8-21 BAY 25 STREET,QUEENS,11691,40.601532,-73.763979
27Q297,Hawtree Creek Middle School,121-10 ROCKAWAY BOULEVARD,QUEENS,11420,40.6757652,-73.8169941
27Q302,"Queens High School for Information, Research, and Technology",8-21 BAY 25 STREET,QUEENS,11691,40.601532,-73.763979
27Q306,New York City Academy for Discovery,95-16 89TH AVENUE,QUEENS,11421,40.69146,-73.848566
27Q308,Robert H. Goddard High School of Communication Arts and Technology,138-30 LAFAYETTE STREET,QUEENS,11417,40.6717971,-73.8449613
27Q309,Academy of Medical Technology: A College Board School,8-21 BAY 25 STREET,QUEENS,11691,40.601532,-73.763979
27Q317,WATERSIDE CHILDREN'S STUDIO SCHOOL,190 BEACH 110 STREET,ROCKAWAY PARK,11694,40.5810353,-73.8318911
27Q318,WATERSIDE SCHOOL FOR LEADERSHIP,190 BEACH 110 STREET,ROCKAWAY PARK,11694,40.5810353,-73.8318911
27Q319,VILLAGE ACADEMY,10-45 NAMEOKE STREET,QUEENS,11691,40.604018,-73.749909
27Q323,Scholars' Academy,320 BEACH 104TH STREET,QUEENS,11694,40.5841107,-73.8257036
27Q324,Rockaway Park High School for Environmental Sustainability,100-00 BEACH CHANNEL DRIVE,QUEENS,11694,40.5855534,-73.8231025
27Q333,Goldie Maple Academy,3-65 BEACH 56 STREET,QUEENS,11692,40.593987,-73.786652
27Q351,Rockaway Collegiate High School,100-00 BEACH CHANNEL DRIVE,QUEENS,11694,40.5855534,-73.8231025
27Q362,Wave Preparatory Elementary School,535 BRIAR PLACE,QUEENS,11691,40.5991811,-73.7582983
27Q400,August Martin High School,156-10 BAISLEY BOULEVARD,QUEENS,11434,40.6749885,-73.7832792
27Q410,Beach Channel High School,100-00 BEACH CHANNEL DRIVE,QUEENS,11694,40.5855534,-73.8231025
27Q475,Richmond Hill High School,89-30 114 STREET,QUEENS,11418,40.6950772,-73.8335014
27Q480,John Adams High School,101-01 ROCKAWAY BOULEVARD,QUEENS,11417,40.678246,-73.836861
27Q650,"High School for Construction Trades, Engineering and Architecture",94-06 104TH STREET,QUEENS,11416,40.68918,-73.841461
28Q008,J.H.S. 008 Richard S. Grossley,108-35 167 STREET,QUEENS,11433,40.69691,-73.7863969
28Q030,P.S. 030 Queens,126-10 BEDELL STREET,QUEENS,11434,40.6803082,-73.7744362
28Q040,P.S. 040 Samuel Huntington,109-20 UNION HALL STREET,QUEENS,11433,40.6939962,-73.7908184
28Q048,P.S. 048 William Wordsworth,108-29 155 STREET,QUEENS,11433,40.6935893,-73.7967709
28Q050,P.S. 050 Talfourd Lawn Elementary School,143-26 101 AVENUE,QUEENS,11435,40.694854,-73.806837
28Q054,P.S. 054 Hillside,86-02 127 STREET,QUEENS,11418,40.7026728,-73.8244673
28Q055,P.S. 055 Maure,131-10 97 AVENUE,QUEENS,11419,40.6936,-73.816147
28Q072,Catherine & Count Basie Middle School 72,133-25 GUY R BREWER BOULEVARD,QUEENS,11434,40.675064,-73.775618
28Q080,P.S. 080 Thurgood Marshall Magnet,171-05 137 AVENUE,QUEENS,11434,40.673499,-73.769121
28Q082,P.S. 082 Hammond,88-02 144 STREET,QUEENS,11435,40.7041026,-73.8117842
28Q086,P.S. Q086,87-41 PARSONS BOULEVARD,QUEENS,11432,40.7092139,-73.8024226
28Q099,P.S. 099 Kew Gardens,82-37 KEW GARDENS ROAD,QUEENS,11415,40.711486,-73.827742
28Q101,P.S. 101 School in the Gardens,2 RUSSELL PLACE,QUEENS,11375,40.715537,-73.843379
28Q117,P.S. 117 J. Keld / Briarwood School,85-15 143 STREET,QUEENS,11435,40.6858192,-73.8014681
28Q121,P.S. 121 Queens,126-10 109 AVENUE,QUEENS,11420,40.683713,-73.815529
28Q139,P.S. 139 Rego Park,93-06 63 DRIVE,QUEENS,11374,40.727995,-73.862551
28Q140,P.S. 140 Edward K Ellington,166-01 116 AVENUE,QUEENS,11434,40.68748,-73.781249
28Q144,P.S. 144 Col Jeromus Remsen,93-02 69 AVENUE,QUEENS,11375,40.714863,-73.8523869
28Q157,J.H.S. 157 Stephen A. Halsey,63-55 102ND STREET,QUEENS,11374,40.7323475,-73.8538445
28Q160,P.S. 160 Walter Francis Bishop,109-59 INWOOD STREET,QUEENS,11435,40.6881453,-73.8004656
28Q161,P.S. 161 Arthur Ashe School,101-33 124 STREET,QUEENS,11419,40.690426,-73.821065
28Q167,Metropolitan Expeditionary Learning School,91-30 METROPOLITAN AVENUE,QUEENS,11375,40.708753,-73.8557999
28Q174,P.S. 174 William Sidney Mount,65-10 DIETERLE CRESCENT,QUEENS,11374,40.720572,-73.861471
28Q175,P.S. 175 The Lynn Gross Discovery School,64-35 102 STREET,QUEENS,11374,40.731005,-73.852189
28Q182,P.S. 182 Samantha Smith,153-27 88TH AVENUE,QUEENS,11432,40.7065016,-73.8032052
28Q190,J.H.S. 190 Russell Sage,68-17 AUSTIN STREET,QUEENS,11375,40.7230138,-73.8518455
28Q196,P.S. 196 Grand Central Parkway,71-25 113 STREET,QUEENS,11375,40.722812,-73.837357
28Q206,P.S. 206 The Horace Harding School,61-02 98 STREET,QUEENS,11374,40.7347342,-73.8607966
28Q217,J.H.S. 217 Robert A. Van Wyck,85-05 144 STREET,QUEENS,11435,40.7104481,-73.8118626
28Q220,P.S. 220 Edward Mandel,62-10 108 STREET,QUEENS,11375,40.7364625,-73.8514362
28Q284,York Early College Academy,108-35 167 STREET,QUEENS,11433,40.69691,-73.7863969
28Q287,The Emerson School,108-35 167 STREET,QUEENS,11433,40.69691,-73.7863969
28Q303,The Academy for Excellence through the Arts,108-55 69 AVENUE,QUEENS,11375,40.7256257,-73.844035
28Q310,Queens Collegiate: A College Board School,167-01 GOTHIC DRIVE,JAMAICA,11432,40.7141353,-73.7979805
28Q325,Hillside Arts & Letters Academy,167-01 GOTHIC DRIVE,JAMAICA,11432,40.7141353,-73.7979805
28Q328,High School for Community Leadership,167-01 GOTHIC DRIVE,JAMAICA,11432,40.7141353,-73.7979805
28Q338,Queens Satellite High School for Opportunity,162-02 HILLSIDE AVENUE,QUEENS,11432,40.708199,-73.799524
28Q350,Jamaica Gateway to the Sciences,167-01 GOTHIC DRIVE,JAMAICA,11432,40.7141353,-73.7979805
28Q354,PS 354,126-10 BEDELL STREET,QUEENS,11434,40.6803082,-73.7744362
28Q440,Forest Hills High School,67-01 110 STREET,QUEENS,11375,40.7294721,-73.8456713
28Q470,Jamaica High School,167-01 GOTHIC DRIVE,JAMAICA,11432,40.7141353,-73.7979805
28Q505,Hillcrest High School,160-05 HIGHLAND AVENUE,QUEENS,11432,40.7118564,-73.7953952
28Q620,Thomas A. Edison Career and Technical Education High School,165-65 84 AVENUE,QUEENS,11432,40.716059,-73.799685
28Q680,Queens Gateway to Health Sciences Secondary School,160-20 GOETHALS AVENUE,QUEENS,11432,40.71855,-73.805991
28Q686,QUEENS METROPOLITAN HIGH SCHOOL,91-30 METROPOLITAN AVENUE,QUEENS,11375,40.708753,-73.8557999
28Q687,Queens High School for the Sciences at York College,94-50 159 STREET,QUEENS,11433,40.7009286,-73.7983153
28Q690,High School for Law Enforcement and Public Safety,116-25 GUY R BREWER BOULEVARD,QUEENS,11434,40.6860804,-73.7840523
28Q896,"Young Women's Leadership School, Queens",150-91 87 ROAD,QUEENS,11432,40.708383,-73.804153
29Q015,P.S. 015 Jackie Robinson,121-15 LUCAS STREET,QUEENS,11413,40.686049,-73.756547
29Q033,P.S. 033 Edward M. Funk,91-37 222 STREET,QUEENS,11428,40.727164,-73.73409
29Q034,P.S. 034 John Harvard,104-12 SPRINGFIELD BOULEVARD,QUEENS,11429,40.7117399,-73.7367043
29Q035,P.S. 035 Nathaniel Woodhull,191-02 90 AVENUE,QUEENS,11423,40.713433,-73.7688809
29Q036,P.S. 036 Saint Albans School,187-01 FOCH BOULEVARD,QUEENS,11412,40.6907727,-73.7639886
29Q037,Cynthia Jenkins School,179-37 137 AVENUE,QUEENS,11434,40.676169,-73.758797
29Q038,P.S. 038 Rosedale,135-21 241 STREET,QUEENS,11422,40.671631,-73.7339767
29Q052,P.S. 052 Queens,178-37 146 TERRACE,QUEENS,11434,40.660908,-73.7654559
29Q059,I.S. 059 Springfield Gardens,132-55 RIDGEDALE STREET,QUEENS,11413,40.681389,-73.753548
29Q095,P.S. 095 Eastwood,179-01 90 AVENUE,QUEENS,11432,40.711288,-73.783282
29Q109,Jean Nuzzi Intermediate School,213-10 92 AVENUE,QUEENS,11428,40.7206856,-73.7470632
29Q116,PS/IS 116 William C. Hughley,107-25 WREN PLACE,QUEENS,11433,40.7004599,-73.7818292
29Q118,P.S. 118 Lorraine Hansberry,190-20 109 ROAD,QUEENS,11412,40.7035611,-73.7658895
29Q131,P.S. 131 Abigail Adams,170-45 84 AVENUE,QUEENS,11432,40.7155244,-73.7996645
29Q132,P.S. 132 Ralph Bunche,132-15 218 STREET,QUEENS,11413,40.6820973,-73.749919
29Q134,P.S. 134 Hollis,203-02 109 AVENUE,QUEENS,11412,40.7079884,-73.7552292
29Q135,The Bellaire School,207-11 89 AVENUE,QUEENS,11427,40.720849,-73.757595
29Q136,P.S. 136 Roy Wilkins,201-15 115 AVENUE,QUEENS,11412,40.698936,-73.752691
29Q138,P.S./ M.S.138 Sunrise,251-11 WELLER AVENUE,QUEENS,11422,40.65987,-73.734343
29Q147,PS/MS 147 Ronald McNair,218-01 116 AVENUE,QUEENS,11411,40.698026,-73.740151
29Q156,P.S. 156 Laurelton,229-02 137 AVENUE,QUEENS,11413,40.672235,-73.743334
29Q176,P.S. 176 Cambria Heights,120-45 235 STREET,QUEENS,11411,40.6853994,-73.730026
29Q181,P.S. 181 Brookfield,148-15 230 STREET,QUEENS,11413,40.6562033,-73.7531286
29Q192,I.S. 192 The Linden,109-89 204 STREET,QUEENS,11412,40.706768,-73.7537927
29Q195,P.S. 195 William Haberle,253-50 149 AVENUE,QUEENS,11422,40.652634,-73.735608
29Q208,P.S. / I.S. 208,74-30 COMMONWEALTH BLVD,QUEENS,11426,40.744184,-73.727581
29Q238,I.S. 238 - Susan B. Anthony Academy,88-15 182 STREET,QUEENS,11423,40.7116138,-73.7799714
29Q243,Institute for Health Professions at Cambria Heights,207- 01 116TH AVENUE,QUEENS,11411,40.6981894,-73.7460089
29Q248,Queens Preparatory Academy,143-10 SPRINGFIELD BOULEVARD,QUEENS,11413,40.6682551,-73.7568955
29Q251,P.S. 251 Queens,144-51 ARTHUR STREET,QUEENS,11413,40.6648044,-73.7599912
29Q259,Pathways College Preparatory School: A College Board School,109-89 204 STREET,QUEENS,11412,40.706768,-73.7537927
29Q265,Excelsior Preparatory High School,143-10 SPRINGFIELD BOULEVARD,QUEENS,11413,40.6682551,-73.7568955
29Q268,PS/IS 268,92-07 175 STREET,QUEENS,11433,40.707636,-73.785231
29Q270,The Gordon Parks School,233-15 MERRICK BOULEVARD,QUEENS,11422,40.675072,-73.7362799
29Q272,George Washington Carver High School for the Sciences,143-10 SPRINGFIELD BOULEVARD,QUEENS,11413,40.6682551,-73.7568955
29Q283,Preparatory Academy for Writers: A College Board School,143-10 SPRINGFIELD BOULEVARD,QUEENS,11413,40.6682551,-73.7568955
29Q289,Queens United Middle School,229-02 137 AVENUE,QUEENS,11413,40.672235,-73.743334
29Q295,P.S./I.S. 295,222-14 JAMAICA AVENUE,QUEENS,11428,40.7196269,-73.7329917
29Q326,Cambria Heights Academy,188-04 91ST AVENUE,QUEENS,11423,40.7119429,-73.7709457
29Q327,Eagle Academy for Young Men III,171-10 LINDEN BOULEVARD,QUEENS,11434,40.691665,-73.7789876
29Q355,Collaborative Arts Middle School,145-00 SPRINGFIELD BOULEVARD,QUEENS,11413,40.6648583,-73.7590877
29Q356,Community Voices Middle School,145-00 SPRINGFIELD BOULEVARD,QUEENS,11413,40.6648583,-73.7590877
29Q492,"Mathematics, Science Research and Technology Magnet High School",207- 01 116TH AVENUE,QUEENS,11411,40.6981894,-73.7460089
29Q494,"Law, Government and Community Service High School",207- 01 116TH AVENUE,QUEENS,11411,40.6981894,-73.7460089
29Q496,"Business, Computer Applications & Entrepreneurship High School",207- 01 116TH AVENUE,QUEENS,11411,40.6981894,-73.7460089
29Q498,Humanities & Arts Magnet High School,207- 01 116TH AVENUE,QUEENS,11411,40.6981894,-73.7460089
30Q002,P.S. 002 Alfred Zimberg,75-10 21 AVENUE,QUEENS,11370,40.7703543,-73.894173
30Q010,I.S. 010 Horace Greeley,45-11 31ST AVE,QUEENS,11103,40.7595184,-73.9124987
30Q011,P.S. 011 Kathryn Phelan,54-25 SKILLMAN AVENUE,QUEENS,11377,40.7455172,-73.909077
30Q017,P.S. 017 Henry David Thoreau,28-37 29 STREET,QUEENS,11102,40.7685353,-73.9228596
30Q069,P.S. 069 Jackson Heights,77-02 37 AVENUE,QUEENS,11372,40.748779,-73.888449
30Q070,P.S. 070 Queens,30-45 42 STREET,QUEENS,11103,40.761734,-73.913973
30Q076,P.S. 076 William Hallet,36-36 10 STREET,QUEENS,11106,40.760848,-73.941632
30Q078,P.S./I.S. 78Q,48-09 CENTER BOULEVARD,QUEENS,11109,40.7445722,-73.9580268
30Q084,P.S. 084 Steinway,22-45 41 STREET,QUEENS,11105,40.7711822,-73.906108
30Q085,P.S. 085 Judge Charles Vallone,23-70 31 STREET,QUEENS,11105,40.7727445,-73.9148661
30Q092,P.S. 092 Harry T. Stewart Sr.,99-01 34 AVENUE,QUEENS,11368,40.7557932,-73.8687234
30Q111,P.S. 111 Jacob Blackwell,37-15 13 STREET,QUEENS,11101,40.7585062,-73.9393628
30Q112,P.S. 112 Dutch Kills,25-05 37 AVENUE,QUEENS,11101,40.7572814,-73.9339038
30Q122,P.S. 122 Mamie Fay,21-21 DITMARS BOULEVARD,QUEENS,11105,40.7805462,-73.9160082
30Q126,Albert Shanker School for Visual and Performing Arts,31-51 21 STREET,QUEENS,11106,40.7661011,-73.9299135
30Q127,P.S. 127 Aerospace Science Magne,98-01 25 AVENUE,QUEENS,11369,40.7649787,-73.8711964
30Q141,I.S. 141 The Steinway,37-11 21 AVENUE,QUEENS,11105,40.7758926,-73.9045645
30Q145,I.S. 145 Joseph Pulitzer,33-34 80 STREET,QUEENS,11372,40.75439,-73.887512
30Q148,P.S. 148 Queens,89-02 32 AVENUE,QUEENS,11369,40.7576279,-73.878619
30Q149,P.S. 149 Christa Mcauliffe,93-11 34 AVENUE,QUEENS,11372,40.755764,-73.874457
30Q150,P.S. 150 Queens,40-01 43 AVENUE,QUEENS,11104,40.7457471,-73.9233202
30Q151,P.S. 151 Mary D. Carter,50-05 31 AVENUE,QUEENS,11377,40.7576338,-73.9083998
30Q152,P.S. 152 Gwendoline N. Alleyne School,33-52 62 STREET,QUEENS,11377,40.752606,-73.900314
30Q166,P.S. 166 Henry Gradstein,33-09 35 AVENUE,QUEENS,11106,40.7573919,-73.9263612
30Q171,P.S. 171 Peter G. Van Alst,14-14 29 AVENUE,QUEENS,11102,40.7710982,-73.9294621
30Q204,I.S. 204 Oliver W. Holmes,36-41 28 STREET,QUEENS,11106,40.7571524,-73.9324124
30Q212,P.S. 212,34-25 82 STREET,QUEENS,11372,40.7529623,-73.8848599
30Q222,P.S. Q222 - Fire Fighter Christopher A. Santora School,86-15 37 AVENUE,QUEENS,11372,40.750434,-73.879973
30Q227,I.S. 227 Louis Armstrong,32-02 JUNCTION BOULEVARD,QUEENS,11369,40.757566,-73.874573
30Q228,P.S. 228 Early Childhood Magnet School of the Arts,32-63 93 STREET,QUEENS,11369,40.7568817,-73.8751705
30Q230,I.S. 230,73-10 34 AVENUE,JACKSON HEIGHTS,11372,40.752603,-73.89287
30Q234,P.S. 234,30-15 29 STREET,QUEENS,11102,40.7670376,-73.9231917
30Q235,Academy for New Americans,30-14 30 STREET,QUEENS,11102,40.767386,-73.9222655
30Q258,Energy Tech High School,36-41 28 STREET,QUEENS,11106,40.7571524,-73.9324124
30Q280,P.S. 280,34-20 94TH STREET,QUEENS,11372,40.7542123,-73.8737602
30Q286,"Young Women's Leadership School, Astoria",23-15 NEWTOWN AVENUE,QUEENS,11102,40.7713192,-73.9241835
30Q291,Hunters Point Community Middle School,1-50 51ST AVENUE,QUEENS,11101,40.7430801,-73.9592507
30Q301,Academy for Careers in Television and Film,1-50 51ST AVENUE,QUEENS,11101,40.7430801,-73.9592507
30Q329,East Elmhurst Community School,26-25 97TH STREET,QUEENS,11369,40.7616631,-73.871961
30Q445,William Cullen Bryant High School,48-10 31 AVENUE,QUEENS,11103,40.7576896,-73.9103778
30Q450,Long Island City High School,14-30 BROADWAY,QUEENS,11106,40.7656043,-73.9329667
30Q501,Frank Sinatra School of the Arts High School,35-12 35TH AVENUE,QUEENS,11106,40.756281,-73.9250271
30Q502,Information Technology High School,21-16 44TH ROAD,QUEENS,11101,40.748656,-73.9467929
30Q555,Newcomers High School,28-01 41 AVENUE,QUEENS,11101,40.7514349,-73.9369976
30Q575,Academy of American Studies,28-04 41 AVENUE,LONG ISLAND CITY,11101,40.7513302,-73.9374509
30Q580,Baccalaureate School for Global Education,34-12 36 AVENUE,QUEENS,11106,40.754985,-73.926962
31R001,P.S. 001 Tottenville,58 SUMMIT STREET,STATEN ISLAND,10307,40.508638,-74.243949
31R002,I.S. R002 George L. Egbert,333 MIDLAND AVENUE,STATEN ISLAND,10306,40.576824,-74.099732
31R003,P.S. 003 The Margaret Gioiosa School,80 SOUTH GOFF AVENUE,STATEN ISLAND,10309,40.520825,-74.211845
31R004,P.S. 004 Maurice Wollin,200 NEDRA LANE,STATEN ISLAND,10312,40.5523598,-74.1957597
31R005,P.S. 005 Huguenot,348 DEISIUS STREET,STATEN ISLAND,10312,40.5301659,-74.1875849
31R006,P.S. 6 Corporal Allan F. Kivlehan School,555 PAGE AVENUE,STATEN ISLAND,10307,40.510187,-74.23014
31R007,I.S. 007 Elias Bernstein,1270 HUGUENOT AVENUE,STATEN ISLAND,10312,40.5240846,-74.1861609
31R008,P.S. 8 Shirlee Solomon,112 LINDENWOOD ROAD,STATEN ISLAND,10308,40.5478977,-74.1519158
31R009,Naples Street Elementary School,1055 TARGEE STREET,STATEN ISLAND,10304,40.60259,-74.090333
31R011,P.S. 11 Thomas Dongan School,50 JEFFERSON STREET,STATEN ISLAND,10304,40.590887,-74.098252
31R013,P.S. 013 M. L. Lindemeyer,191 VERMONT AVENUE,STATEN ISLAND,10305,40.613324,-74.068966
31R014,P.S. 014 Cornelius Vanderbilt,100 TOMPKINS AVENUE,STATEN ISLAND,10304,40.622418,-74.079229
31R016,P.S. 016 John J. Driscoll,80 MONROE AVENUE,STATEN ISLAND,10301,40.639639,-74.079595
31R018,P.S. 018 John G. Whittier,221 BROADWAY,STATEN ISLAND,10310,40.6368506,-74.1174365
31R019,P.S. 019 The Curtis School,780 POST AVENUE,STATEN ISLAND,10310,40.630563,-74.1268879
31R020,P.S. 020 Port Richmond,161 PARK AVENUE,STATEN ISLAND,10302,40.6365121,-74.1329633
31R021,P.S. 21 Margaret Emery-Elm Park,168 HOOKER PLACE,STATEN ISLAND,10303,40.6319443,-74.1467061
31R022,P.S. 022 Graniteville,1860 FOREST AVENUE,STATEN ISLAND,10303,40.6248239,-74.15063
31R023,P.S. 023 Richmondtown,30 NATICK STREET,STATEN ISLAND,10306,40.570765,-74.133222
31R024,I.S. 024 Myra S. Barnes,225 CLEVELAND AVENUE,STATEN ISLAND,10308,40.5452111,-74.1462661
31R026,P.S. 026 The Carteret School,4108 VICTORY BOULEVARD,STATEN ISLAND,10314,40.5915602,-74.1902344
31R027,I.S. 027 Anning S. Prall,11 CLOVE LAKE PLACE,STATEN ISLAND,10310,40.62819,-74.1170227
31R029,P.S. 029 Bardwell,1581 VICTORY BOULEVARD,STATEN ISLAND,10314,40.61404,-74.116199
31R030,P.S. 030 Westerleigh,200 WARDWELL AVENUE,STATEN ISLAND,10314,40.6178774,-74.1330721
31R031,P.S. 031 William T. Davis,55 LAYTON AVENUE,STATEN ISLAND,10301,40.642028,-74.0854559
31R032,P.S. 032 The Gifford School,32 ELVERTON AVENUE,STATEN ISLAND,10308,40.555229,-74.1541713
31R034,I.S. 034 Tottenville,528 ACADEMY AVENUE,STATEN ISLAND,10307,40.507771,-74.24362
31R035,P.S. 35 The Clove Valley School,60 FOOTE AVENUE,STATEN ISLAND,10301,40.6135779,-74.0989589
31R036,P.S. 036 J. C. Drumgoole,255 IONIA AVENUE,STATEN ISLAND,10312,40.5430306,-74.1823593
31R038,P.S. 038 George Cromwell,421 LINCOLN AVENUE,STATEN ISLAND,10306,40.574938,-74.099425
31R039,P.S. 39 Francis J. Murphy Jr.,71 SAND LANE,STATEN ISLAND,10305,40.5976131,-74.0714053
31R041,P.S. 041 New Dorp,216 CLAWSON STREET,STATEN ISLAND,10306,40.5740598,-74.1092157
31R042,P.S. 042 Eltingville,380 GENESEE AVENUE,STATEN ISLAND,10312,40.552214,-74.16904
31R044,P.S. 044 Thomas C. Brown,80 MAPLE PARKWAY,STATEN ISLAND,10303,40.631676,-74.157323
31R045,P.S. 045 John Tyler,58 LAWRENCE AVENUE,STATEN ISLAND,10310,40.6286617,-74.1071855
31R046,P.S. 046 Albert V. Maniscalco,41 REID AVENUE,STATEN ISLAND,10305,40.593764,-74.0806384
31R047,CSI High School for International Studies,100 ESSEX DRIVE,STATEN ISLAND,10314,40.581969,-74.15936
31R048,P.S. 048 William C. Wilcox,1050 Targee Street,Staten Island,10304,40.603026,-74.091967
31R049,I.S. 49 Berta A. Dreyfus,101 WARREN STREET,STATEN ISLAND,10304,40.620441,-74.080722
31R050,P.S. 050 Frank Hankinson,200 ADELAIDE AVENUE,STATEN ISLAND,10306,40.560923,-74.12424
31R051,I.S. 051 Edwin Markham,20 HOUSTON STREET,STATEN ISLAND,10302,40.623272,-74.145533
31R052,P.S. 052 John C. Thompson,450 BUEL AVENUE,STATEN ISLAND,10305,40.582552,-74.089012
31R053,P.S. 053 Bay Terrace,330 DURANT AVENUE,STATEN ISLAND,10308,40.5525404,-74.1370388
31R054,P.S. 054 Charles W. Leng,1060 WILLOWBROOK ROAD,STATEN ISLAND,10314,40.6027429,-74.137439
31R055,P.S. 055 Henry M. Boehm,54 OSBORNE STREET,STATEN ISLAND,10312,40.536622,-74.163061
31R056,P.S. 56 The Louis Desario School,250 KRAMER AVENUE,STATEN ISLAND,10309,40.541838,-74.213937
31R057,P.S. 057 Hubert H. Humphrey,140 PALMA DRIVE,STATEN ISLAND,10304,40.61116,-74.083787
31R058,Space Shuttle Columbia School,77 MARSH AVENUE,STATEN ISLAND,10314,40.582816,-74.160903
31R059,The Harbor View School,300 Richmond Terrace,Staten Island,10301,40.6477881,-74.0832497
31R060,P.S. 060 Alice Austen,55 MERRILL AVENUE,STATEN ISLAND,10314,40.610606,-74.162623
31R061,I.S. 061 William A Morris,445 CASTLETON AVENUE,STATEN ISLAND,10301,40.634527,-74.097992
31R063,Marsh Avenue School for Expeditionary Learning,100 ESSEX DRIVE,STATEN ISLAND,10314,40.581969,-74.15936
31R064,Gaynor McCown Expeditionary Learning School,100 ESSEX DRIVE,STATEN ISLAND,10314,40.581969,-74.15936
31R065,P.S. 65 The Academy of Innovative Learning,98 GRANT STREET,STATEN ISLAND,10301,40.633683,-74.078362
31R069,P.S. 069 Daniel D. Tompkins,144 KEATING PLACE,STATEN ISLAND,10314,40.591461,-74.157336
31R072,I.S. 072 Rocco Laurie,33 FERNDALE AVENUE,STATEN ISLAND,10314,40.5924704,-74.1585325
31R074,P.S. 74 FUTURE LEADERS ELEMENTARY SCHOOL,211 DANIEL LOW TERRACE,STATEN ISLAND,10301,40.638993,-74.079438
31R075,I.S. 075 Frank D. Paulo,455 HUGUENOT AVENUE,STATEN ISLAND,10312,40.544605,-74.197009
31R078,PS 78,100 TOMPKINS AVENUE,STATEN ISLAND,10304,40.622418,-74.079229
31R080,The Michael J. Petrides School,715 OCEAN TERRACE,STATEN ISLAND,10301,40.6085151,-74.1052026
31R440,New Dorp High School,465 NEW DORP LANE,STATEN ISLAND,10306,40.5694138,-74.1076719
31R445,Port Richmond High School,85 ST JOSEPHS AVENUE,STATEN ISLAND,10302,40.634843,-74.142015
31R450,Curtis High School,105 HAMILTON AVENUE,STATEN ISLAND,10301,40.6449118,-74.080507
31R455,Tottenville High School,100 LUTEN AVENUE,STATEN ISLAND,10312,40.528303,-74.193519
31R460,Susan E. Wagner High School,1200 MANOR ROAD,STATEN ISLAND,10314,40.5986072,-74.1231275
31R470,Concord High School,109 RHINE AVENUE,STATEN ISLAND,10304,40.6109075,-74.0869434
31R600,Ralph R. McKee Career and Technical Education High School,290 ST MARKS PLACE,STATEN ISLAND,10301,40.6428034,-74.0787503
31R605,Staten Island Technical High School,485 CLAWSON STREET,STATEN ISLAND,10306,40.567929,-74.115695
31R861,Staten Island School of Civic Leadership,280 REGIS DRIVE,STATEN ISLAND,10314,40.620326,-74.164432
32K045,P.S./I.S. 045 Horace E. Greene,84 SCHAEFER STREET,BROOKLYN,11207,40.68639,-73.910452
32K075,P.S. 075 Mayda Cortiella,95 GROVE STREET,BROOKLYN,11221,40.693254,-73.921321
32K086,P.S. 086 The Irvington,220 IRVING AVENUE,BROOKLYN,11237,40.7008533,-73.9176344
32K106,P.S. 106 Edward Everett Hale,1328 PUTNAM AVENUE,BROOKLYN,11221,40.6936912,-73.9132348
32K116,P.S. 116 Elizabeth L Farrell,515 KNICKERBOCKER AVENUE,BROOKLYN,11237,40.6981152,-73.9166046
32K123,P.S. 123 Suydam,100 IRVING AVENUE,BROOKLYN,11237,40.7036615,-73.9225677
32K145,P.S. 145 Andrew Jackson,100 NOLL STREET,BROOKLYN,11206,40.7016144,-73.9321501
32K151,P.S. 151 Lyndon B. Johnson,763 KNICKERBOCKER AVENUE,BROOKLYN,11207,40.6933707,-73.9082333
32K162,J.H.S. 162 The Willoughby,1390 WILLOUGHBY AVENUE,BROOKLYN,11237,40.7072263,-73.9197943
32K168,The Brooklyn School for Math and Research,400 IRVING AVENUE,BROOKLYN,11237,40.696834,-73.9117008
32K274,P.S. 274 Kosciusko,800 BUSHWICK AVENUE,BROOKLYN,11221,40.694186,-73.928157
32K291,J.H.S. 291 Roland Hayes,231 PALMETTO STREET,BROOKLYN,11221,40.6953855,-73.9157765
32K296,I.S. 296 - The Anna Gonzalez Community School,125 COVERT STREET,BROOKLYN,11207,40.6889123,-73.9102637
32K299,P.S. 299 Thomas Warren Field,88 WOODBINE STREET,BROOKLYN,11221,40.6909968,-73.9178498
32K347,I.S. 347 School of Humanities,35 STARR STREET,BROOKLYN,11221,40.7008178,-73.9275874
32K349,"I.S. 349 Math, Science & Tech.",35 STARR STREET,BROOKLYN,11221,40.7008178,-73.9275874
32K376,P.S. 376,194 HARMAN STREET,BROOKLYN,11237,40.698048,-73.920166
32K377,P.S. 377 Alejandrina B. De Gautier,200 WOODBINE STREET,BROOKLYN,11221,40.6939871,-73.9152859
32K383,J.H.S. 383 Philippa Schuyler,1300 GREENE AVENUE,BROOKLYN,11237,40.6976382,-73.9195339
32K384,P.S. /I.S. 384 Frances E. Carter,242 COOPER STREET,BROOKLYN,11207,40.6903004,-73.9048696
32K403,Academy for Environmental Leadership,400 IRVING AVENUE,BROOKLYN,11237,40.696834,-73.9117008
32K545,EBC High School for Public Service - Bushwick,1155 DEKALB AVENUE,BROOKLYN,11221,40.694733,-73.929295
32K549,Bushwick School for Social Justice,400 IRVING AVENUE,BROOKLYN,11237,40.696834,-73.9117008
32K552,Academy of Urban Planning,400 IRVING AVENUE,BROOKLYN,11237,40.696834,-73.9117008
32K554,All City Leadership Secondary School,321 PALMETTO STREET,BROOKLYN,11237,40.6974214,-73.9131279
32K556,Bushwick Leaders High School for Academic Excellence,797 BUSHWICK AVENUE,BROOKLYN,11221,40.695404,-73.927367
32K562,Evergreen Middle School for Urban Exploration,125 COVERT STREET,BROOKLYN,11207,40.6889123,-73.9102637
32K564,Bushwick Community High School,231 PALMETTO STREET,BROOKLYN,11221,40.6953855,-73.9157765
84K037,Beginning with Children Charter School II,215 HEYWARD STREET,BROOKLYN,11206,40.7041207,-73.9533388
84K125,Success Academy Charter School - Bed-Stuy 2,211 THROOP AVENUE,BROOKLYN,11206,40.6977036,-73.9433424
84K129,Success Academy Charter School - Cobble Hill,284 BALTIC STREET,BROOKLYN,11201,40.6853525,-73.9937249
84K182,Success Academy Charter School - Williamsburg,183 SOUTH 3 STREET,BROOKLYN,11211,40.7116813,-73.9597817
84K333,Explore Exceed Charter School,443 ST MARKS AVENUE,BROOKLYN,11238,40.6768467,-73.9597276
84K355,Williamsburg Collegiate Charter School,157 WILSON STREET,BROOKLYN,11211,40.7058107,-73.962046
84K356,Achievement First Crown Heights Charter School,790 EAST NEW YORK AVENUE,BROOKLYN,11203,40.6624725,-73.9359541
84K357,KIPP AMP Charter School,1224 PARK PLACE,BROOKLYN,11213,40.6726919,-73.9368714
84K358,Achievement First East New York Charter School,557 PENNSYLVANIA AVENUE,BROOKLYN,11207,40.6635217,-73.8937024
84K359,The Uft Charter School,300 WYONA STREET,BROOKLYN,11207,40.6714902,-73.892852
84K360,LAUNCH EXPEDITIONARY LEARNING CHARTER SCHOOL,1580 DEAN STREET,BROOKLYN,11213,40.676079,-73.9355624
84K362,Hellenic Classical Charter School,646 FIFTH AVENUE,BROOKLYN,11215,40.6629625,-73.9921057
84K367,Success Academy Charter School - Bed-Stuy 1,70 TOMPKINS AVENUE,BROOKLYN,11206,40.697127,-73.9466607
84K379,Explore Excel Charter School,1077 REMSEN AVENUE,BROOKLYN,11236,40.6427414,-73.9087302
84K386,Invictus Preparatory Charter School,370 FOUNTAIN AVENUE,BROOKLYN,11208,40.670026,-73.874515
84K395,Roads Charter School I,1495 HERKIMER STREET,BROOKLYN,11233,40.677507,-73.90415
84K406,Teaching Firms of America-Professional Preparatory Charter School,616 QUINCY STREET,BROOKLYN,11221,40.6885061,-73.9353179
84K417,Urban Dove Charter School,600 LAFAYETTE AVENUE,BROOKLYN,11216,40.6896738,-73.9507837
84K473,Williamsburg Charter High School,198 VARET STREET,BROOKLYN,11206,40.7035601,-73.9358592
84K486,New Dawn Charter High School,242 HOYT STREET,BROOKLYN,11217,40.6830057,-73.9904759
84K508,Achievement First Endeavor Charter School,510 WAVERLY AVENUE,BROOKLYN,11238,40.682396,-73.965924
84K517,Leadership Prep Bedford Stuyvesant Charter School,141 MACON STREET,BROOKLYN,11216,40.6817829,-73.9457107
84K536,Community Roots Charter School,51 SAINT EDWARDS STREET,BROOKLYN,11205,40.6940695,-73.9776528
84K538,Achievement First Bushwick Charter School,1300 GREENE AVENUE,BROOKLYN,11237,40.6976382,-73.9195339
84K593,Excellence Boys Charter School,239 PATCHEN AVENUE,BROOKLYN,11233,40.683424,-73.925852
84K608,Kings Collegiate Charter School,1084 LENOX ROAD,BROOKLYN,11212,40.658397,-73.9199304
84K626,Achievement First Brownsville Charter School,2021 BERGEN STREET,BROOKLYN,11233,40.6741215,-73.9135679
84K648,Bedford Stuyvesant Collegiate Charter School,800 GATES AVENUE,BROOKLYN,11221,40.6880664,-73.9326769
84K649,La Cima Charter School,800 GATES AVENUE,BROOKLYN,11221,40.6880664,-73.9326769
84K651,PAVE Academy Charter School,732 HENRY STREET,BROOKLYN,11231,40.6758809,-74.003647
84K652,Brooklyn Ascend Charter School,205 Rockaway Parkway,BROOKLYN,11212,40.6621598,-73.9209953
84K680,Achievement First Aspire Charter School,982 HEGEMAN AVENUE,BROOKLYN,11208,40.6664086,-73.8765699
84K689,Citizens of the World Charter School 1,424 LEONARD STREET,BROOKLYN,11222,40.719768,-73.9484181
84K692,Citizens of the World Charter School 2,791 EMPIRE BOULEVARD,BROOKLYN,11213,40.6637059,-73.9360465
84K693,Northside Charter High School,424 LEONARD STREET,BROOKLYN,11222,40.719768,-73.9484181
84K701,Brooklyn Charter School,545 WILLOUGHBY AVENUE,BROOKLYN,11206,40.6941169,-73.947181
84K702,Community Partnership Charter School,241 EMERSON PLACE,BROOKLYN,11205,40.6896647,-73.9611647
84K703,Beginning With Children Charter School,11 BARTLETT STREET,BROOKLYN,11206,40.700268,-73.9482559
84K704,Explore Charter School,655 PARKSIDE AVENUE,BROOKLYN,11226,40.6561715,-73.9515718
84K707,Brooklyn Prospect Charter School,3002 FORT HAMILTON PARKWAY,BROOKLYN,11218,40.647887,-73.978726
84K710,Brownsville Collegiate Charter School,364 SACKMAN STREET,BROOKLYN,11212,40.6689046,-73.9047039
84K711,Leadership Preparatory Brownsville Charter School,985 ROCKAWAY AVENUE,BROOKLYN,11212,40.6562927,-73.9073241
84K712,Excellence Girls Charter School,794 MONROE STREET,BROOKLYN,11221,40.6883298,-73.924108
84K724,Leadership Prep Canarsie Charter School (Leadership Prep CS 4),1001 EAST 100 STREET,BROOKLYN,11236,40.6435042,-73.8964704
84K726,Fahari Academy Charter School,72 VERONICA PLACE,BROOKLYN,11226,40.6483745,-73.9531324
84K730,Summit Academy Charter School,27 HUNTINGTON STREET,BROOKLYN,11231,40.6776105,-74.0048175
84K731,Brooklyn Excelsior Charter School,856 QUINCY STREET,BROOKLYN,11221,40.6897195,-73.9250191
84K733,"Math, Engineering, and Science Academy Charter High School",231 PALMETTO STREET,BROOKLYN,11221,40.6953855,-73.9157765
84K734,The Ethical Community Charter School (TECCS),700 PARK AVENUE,BROOKLYN,11206,40.6975593,-73.9474958
84K736,New American Academy Charter School,5800 TILDEN AVENUE,BROOKLYN,11203,40.647733,-73.922202
84K737,Brownsville Ascend Charter School,1501 PITKIN AVENUE,BROOKLYN,11212,40.668925,-73.91784
84K738,New Visions Charter High School for Advanced Math and Science III,3000 AVENUE X,BROOKLYN,11235,40.59314,-73.936638
84K739,New Visions Charter High School for the Humanities III,3000 AVENUE X,BROOKLYN,11235,40.59314,-73.936638
84K740,Brooklyn Scholars Charter School,2635 LINDEN BOULEVARD,BROOKLYN,11208,40.6690107,-73.8672121
84K741,Success Academy Crown Heights (Brooklyn 7),1025 EASTERN PARKWAY,BROOKLYN,11213,40.6690343,-73.9343392
84K742,Explore Empower Charter School,188 ROCHESTER AVENUE,BROOKLYN,11213,40.672706,-73.9289299
84K744,Coney Island Preparatory Public Charter School,501 WEST AVENUE,BROOKLYN,11224,40.5820446,-73.9722141
84K746,Hebrew Language Academy Charter School,1340 EAST 29TH STREET,BROOKLYN,11210,40.6184869,-73.9463568
84K752,Success Academy Fort Greene (Brooklyn 5),101 PARK AVENUE,BROOKLYN,11205,40.6967378,-73.9760388
84K756,Success Academy Prospect Heights (Brooklyn 6),801 PARK PLACE,BROOKLYN,11216,40.6734897,-73.9511279
84K757,Unity Prep Charter School,432 MONROE STREET,BROOKLYN,11221,40.6862341,-73.9408462
84K758,Brooklyn Urban Garden Charter School,500 19TH STREET,BROOKLYN,11215,40.656204,-73.982638
84K759,CANARSIE ASCEND CHARTER SCHOOL,9719 FLATLANDS AVENUE,BROOKLYN,11236,40.644035,-73.900509
84K769,Hyde Leadership Charter School- Brooklyn,330 ALABAMA AVENUE,BROOKLYN,11207,40.6685356,-73.8979392
84K774,Achievement First Apollo Charter School,350 LINWOOD STREET,BROOKLYN,11208,40.6770363,-73.8834076
84K775,Leadership Preparatory Ocean Hill Charter School,51 CHRISTOPHER AVENUE,BROOKLYN,11212,40.6724303,-73.9062459
84K777,Ocean Hill Collegiate Charter School,1137 HERKIMER STREET,BROOKLYN,11233,40.6779834,-73.915842
84K780,Brooklyn East Collegiate Charter School,80 UNDERHILL AVENUE,BROOKLYN,11238,40.678424,-73.9658195
84K782,Bedford Stuyvesant New Beginnings Charter School,82 LEWIS AVENUE,BROOKLYN,11206,40.694672,-73.937723
84K785,Imagine Me Leadership Charter School,818 SCHENCK AVENUE,BROOKLYN,11207,40.660063,-73.883478
84K791,Brooklyn Dreams Charter School,259 PARKVILLE AVENUE,BROOKLYN,11230,40.6317952,-73.9695397
84K792,The Cultural Arts Academy at Spring Creek Charter School,1400 LINDEN BOULEVARD,BROOKLYN,11212,40.6541349,-73.908199
84K793,Bushwick Ascend Charter School,751 KNICKERBOCKER AVENUE,BROOKLYN,11221,40.6936862,-73.9090297
84K796,Lefferts Gardens Charter School,601 PARKSIDE AVENUE,BROOKLYN,11226,40.6561076,-73.9542026
84K797,New Hope Academy Charter School,475 EAST 57 STREET,BROOKLYN,11203,40.643774,-73.9222829
84M065,Democracy Prep Endurance Charter School,250 WEST 127 STREET,MANHATTAN,10027,40.8110071,-73.9491304
84M068,KIPP Washington Heights Middle School,21 JUMEL PLACE,MANHATTAN,10032,40.8394126,-73.9357677
84M080,Manhattan Charter School II,220 HENRY STREET,MANHATTAN,10002,40.7135296,-73.9856844
84M085,Global Community Charter School,421 WEST 145 STREET,MANHATTAN,10031,40.824763,-73.945768
84M100,Neighborhood Charter School of Harlem,132 W 124 STREET,MANHATTAN,10027,40.8076579,-73.9473337
84M168,East Harlem Scholars Academy Charter School II,1573 MADISON AVENUE,MANHATTAN,10029,40.7936899,-73.9491583
84M170,Success Academy Hell's Kitchen (Manhattan 2),439 WEST 49TH STREET,MANHATTAN,10019,40.7639993,-73.9908346
84M174,Success Academy Union Square (Manhattan 1),40 IRVING PLACE,MANHATTAN,10003,40.7354677,-73.987393
84M186,Harlem Hebrew Language Charter School,147 SAINT NICHOLAS AVENUE,NEW YORK CITY,10026,40.804844,-73.953075
84M202,Great Oaks Charter School,1 MONROE STREET,MANHATTAN,10002,40.7115402,-73.9965241
84M279,The Opportunity Charter School,240 WEST 113 STREET,MANHATTAN,10026,40.8015793,-73.9552724
84M284,Harlem Children's Zone Promise Academy 1 Charter School,245 West 129th Street,New York,10027,40.8115678,-73.9465374
84M320,Manhattan Charter School,100 ATTORNEY STREET,MANHATTAN,10002,40.7185769,-73.9843219
84M329,Harlem Link Charter School,20 WEST 112 STREET,MANHATTAN,10026,40.7984949,-73.9498493
84M330,Girls Preparatory Charter School of New York,442 EAST HOUSTON STREET,MANHATTAN,10002,40.7196415,-73.9774227
84M335,Harlem Village Academy Leadership Charter School,2351 1ST AVENUE,MANHATTAN,10035,40.7992278,-73.9338214
84M336,KIPP Infinity Charter School,625 WEST 133 STREET,MANHATTAN,10027,40.819803,-73.956827
84M341,Harlem Children's Zone Promise Academy II Charter School,2005 MADISON AVENUE,MANHATTAN,10035,40.8070793,-73.9390933
84M350,Democracy Prep Charter School,2230 5 AVENUE,MANHATTAN,10037,40.8133194,-73.9378928
84M351,Success Academy Charter School - Harlem 1,34 WEST 118 STREET,MANHATTAN,10026,40.8026717,-73.9471934
84M353,New Heights Academy Charter School,1818 AMSTERDAM AVENUE,MANHATTAN,10031,40.8286152,-73.9454018
84M382,DREAM Charter School,232 EAST 103 STREET,MANHATTAN,10029,40.7886696,-73.9449061
84M384,Success Academy Charter School - Harlem 2,144-176 EAST 128 STREET,MANHATTAN,10035,40.8069774,-73.9376529
84M385,Success Academy Charter School - Harlem 3,410 EAST 100 STREET,MANHATTAN,10029,40.7850131,-73.942073
84M386,Success Academy Charter School - Harlem 4,240 WEST 113 STREET,MANHATTAN,10026,40.8015793,-73.9552724
84M388,St. HOPE Leadership Academy Charter School,222 WEST 134 STREET,MANHATTAN,10030,40.8145839,-73.9449913
84M430,The Equity Project Charter School (TEP),549 AUDOBON AVENUE,MANHATTAN,10040,40.8562127,-73.9265543
84M433,Renaissance Charter High School for Innovation,410 EAST 100 STREET,MANHATTAN,10029,40.7850131,-73.942073
84M478,Inwood Academy for Leadership Charter School,93 NAGLE AVENUE,MANHATTAN,10040,40.8601744,-73.9277953
84M481,Democracy Prep Harlem Charter School,207 WEST 133RD STREET,MANHATTAN,10030,40.8144119,-73.9451221
84M482,Success Academy Charter School - Harlem 5,301 WEST 140 STREET,MANHATTAN,10030,40.8199748,-73.9444992
84M483,New York French American Charter School,311 WEST 120TH STREET,MANHATTAN,10027,40.807538,-73.95423
84M518,East Harlem Scholars Academy Charter School,1573 MADISON AVENUE,MANHATTAN,10029,40.7936899,-73.9491583
84M522,Broome Street Academy Charter School,121 AVENUE OF THE AMERICAS,MANHATTAN,10013,40.7240603,-74.0051128
84M523,Success Academy Charter School - Upper West,145 WEST 84 STREET,MANHATTAN,10024,40.785992,-73.9743724
84M524,Innovate Manhattan Charter School,38 DELANCEY STREET,MANHATTAN,10002,40.7199351,-73.9916562
84M702,Sisulu-Walker Charter School of Harlem,125 WEST 115 STREET,MANHATTAN,10026,40.8018905,-73.9514042
84M704,Harbor Science and Arts Charter School,132 EAST 111 STREET,MANHATTAN,10029,40.7954902,-73.9443784
84M705,Amber Charter School,220 EAST 106 STREET,MANHATTAN,10029,40.7909646,-73.9438528
84M707,John V. Lindsay Wildcat Academy Charter School,17 BATTERY PLACE,MANHATTAN,10004,40.7052431,-74.0162647
84M708,Harlem Prep Charter School,240 EAST 123 STREET,MANHATTAN,10035,40.801377,-73.9350819
84M709,Harlem Village Academy Charter School,244 WEST 144 STREET,MANHATTAN,10030,40.8212634,-73.9407418
84M726,KIPP STAR College Prep Charter School,433 WEST 123 STREET,MANHATTAN,10027,40.8108537,-73.9563386
84M861,Future Leaders Institute Charter School,134 WEST 122 STREET,MANHATTAN,10027,40.8064246,-73.9482857
84Q083,Central Queens Academy Charter School,55-30 JUNCTION BOULEVARD,QUEENS,11373,40.737298,-73.866416
84Q170,Peninsula Preparatory Academy Charter School,611 BEACH 19 STREET,QUEENS,11691,40.6006176,-73.7520571
84Q298,Middle Village Prep Charter School,68-02 METROPOLITAN AVENUE,QUEENS,11379,40.710932,-73.888259
84Q304,VOICE Charter School of New York,36-24 12TH STREET,QUEENS,11106,40.7603966,-73.9397129
84Q321,Growing Up Green Charter School,39-37 28th Street,Long Island City,11101,40.7527305,-73.9361194
84Q340,Challenge Preparatory Charter School,710 HARTMAN LANE,QUEENS,11691,40.599834,-73.7639407
84Q341,Riverton Street Charter School,118-34 RIVERTON STREET,QUEENS,11412,40.6893791,-73.7630381
84Q342,Rochdale Early Advantage Charter School,122-05 SMITH STREET,QUEENS,11434,40.679723,-73.7782019
84Q359,Academy of the City Charter School,31-29 60 STREET,QUEENS,11377,40.7572102,-73.9025153
84Q704,Merrick Academy - Queens Public Charter School,136-25 218 STREET,QUEENS,11413,40.6765479,-73.7531617
84Q705,Renaissance Charter School,35-59 81ST STREET,QUEENS,11372,40.751907,-73.8856316
84Q706,Our World Neighborhood Charter School,36-12 35 AVENUE,QUEENS,11106,40.7557784,-73.9241441
84R067,John W. Lavelle Preparatory Charter School,1 TELEPORT DRIVE,STATEN IS,10311,40.605841,-74.178823
84R071,Staten Island Community Charter School,309 ST PAUL'S AVENUE,STATEN ISLAND,10304,40.630234,-74.081022
84R073,New World Preparatory Charter School,26 SHARPE AVENUE,STATEN ISLAND,10302,40.6396173,-74.1367434
84X124,Childrens Aid College Prep Charter School,1919 PROSPECT AVENUE,BRONX,10457,40.8434011,-73.8898784
84X133,Icahn Charter School 6,1701 FULTON AVENUE,BRONX,10457,40.8421053,-73.8974699
84X165,Grand Concourse Charter School,116-118 EAST 169 STREET,BRONX,10456,40.8368265,-73.9175206
84X177,Mott Hall Charter School,1260 FRANKLIN AVENUE,BRONX,10456,40.8308718,-73.9018842
84X185,Bronx Lighthouse Charter School,1001 INTERVALE AVENUE,BRONX,10459,40.823187,-73.897385
84X200,ROADS Charter School II,1010 REV. J. A. POLITE AVENUE,BRONX,10459,40.823101,-73.898273
84X202,New Visions Charter High School for Advanced Math and Science II,900 TINTON AVENUE,BRONX,10456,40.8218507,-73.9028489
84X208,New Visions Charter High School for the Humanities II,455 SOUTHERN BLVD,BRONX,10455,40.8104623,-73.906773
84X233,Family Life Academy Charter School II,296 EAST 140 STREET,BRONX,10454,40.8115023,-73.9250828
84X255,Bronx Charter School for Excellence,1960 BENEDICT AVENUE,BRONX,10462,40.834019,-73.858526
84X256,Heketi Community Charter School,423 East 138th Street,Bronx,10454,40.8088143,-73.9219851
84X258,Tech International Charter School,3120 Corlear Avenue,Bronx,10463,40.8808362,-73.9070856
84X309,South Bronx Charter School for International Cultures and the Arts,383 EAST 139 STREET,BRONX,10454,40.810318,-73.922949
84X345,Hyde Leadership Charter School,730 BRYANT AVENUE,BRONX,10474,40.8155695,-73.8855307
84X346,South Bronx Classical Charter School,977 FOX STREET,BRONX,10459,40.8223711,-73.89386
84X347,International Leadership Charter High School,2900 EXTERIOR STREET,BRONX,10463,40.8764368,-73.9057361
84X362,Icahn Charter School 7,1535 STORY AVENUE,BRONX,10473,40.822513,-73.877255
84X364,South Bronx Classical Charter School II,333 EAST 135 STREET,BRONX,10454,40.808126,-73.925479
84X378,Icahn Charter School 2,1640 BRONXDALE AVE,BRONX,10462,40.8445336,-73.8580593
84X380,Success Academy Charter School - Bronx 3,968 CAULDWELL AVENUE,BRONX,10456,40.8248223,-73.9062021
84X387,Brilla College Prep Charter School,413 EAST 144 STREET,BRONX,10454,40.8128,-73.9193
84X389,Bronx Global Learning Institute for Girls Charter School,750 CONCOURSE VILLAGE WEST,BRONX,10451,40.823043,-73.9226719
84X393,University Prep Charter High School,600 SAINT ANN'S AVENUE,BRONX,10455,40.8145265,-73.9123068
84X394,Mott Haven Academy Charter School,170 BROWN PLACE,BRONX,10454,40.806302,-73.920873
84X395,"NYC Charter High School for Architecture, Engineering and Construction Industries (AECI)",838 BROOK AVENUE,BRONX,10451,40.8218558,-73.9106357
84X398,Bronx Community Charter School,3170 WEBSTER AVENUE,BRONX,10467,40.8726774,-73.8748248
84X407,Bronx Charter School for Children,388 WILLIS AVENUE,BRONX,10454,40.812627,-73.919908
84X419,Bronx Academy of Promise Charter School,1349 INWOOD AVENUE,BRONX,10452,40.8395,-73.920032
84X422,Icahn Charter School 3,1500 PELHAM PARKWAY SOUTH,BRONX,10461,40.8571182,-73.8434667
84X461,Metropolitan Lighthouse Charter School,500 COURTLAND AVENUE,BRONX,10451,40.8153738,-73.9200493
84X482,Dr. Richard Izquierdo Health and Science Charter School,800 HOME STREET,BRONX,10456,40.8271204,-73.9008891
84X487,Girls Preparatory Charter School of the Bronx,681 KELLY STREET,BRONX,10455,40.8156753,-73.9016604
84X488,The Equality Charter School,4140 HUTCHINSON RIVER PKWAY EA,BRONX,10475,40.87347,-73.8272029
84X491,Academic Leadership Charter School,677 EAST 141 STREET,BRONX,10454,40.8077521,-73.9127794
84X493,Success Academy Charter School - Bronx 1,339 MORRIS AVENUE,BRONX,10451,40.81366,-73.925999
84X494,Success Academy Charter School - Bronx 2,450 SAINT PAUL'S PLACE,BRONX,10456,40.8361696,-73.9049013
84X496,Icahn Charter School 4,1500 PELHAM PARKWAY SOUTH,BRONX,10461,40.8571182,-73.8434667
84X538,Icahn Charter School 5,1500 PELHAM PARKWAY SOUTH,BRONX,10461,40.8571182,-73.8434667
84X539,New Visions Charter High School for Advanced Math and Science,99 TERRACE VIEW AVENUE,BRONX,10463,40.8771416,-73.9126839
84X553,New Visions Charter High School for the Humanities,99 TERRACE VIEW AVENUE,BRONX,10463,40.8771416,-73.9126839
84X554,New York City Montessori Charter School,423 East 138th Street,Bronx,10454,40.8088143,-73.9219851
84X703,Bronx Preparatory Charter School,3872 THIRD AVENUE,BRONX,10457,40.8390709,-73.900118
84X704,KIPP Academy Charter School,250 EAST 156 STREET,BRONX,10451,40.8230735,-73.9213427
84X705,Family Life Academy Charter School,14 WEST 170 STREET,BRONX,10452,40.8403592,-73.9187375
84X706,Harriet Tubman Charter School,3565 THIRD AVENUE,BRONX,10456,40.832316,-73.905749
84X717,Icahn Charter School,1506-30 BROOK AVENUE,BRONX,10457,40.8383816,-73.9050435
84X718,Bronx Charter School for Better Learning,3740 BAYCHESTER AVENUE,BRONX,10466,40.884355,-73.839263
84X730,Bronx Charter School for the Arts,950 LONGFELLOW AVENUE,BRONX,10474,40.821798,-73.886463
